title,category,county,address,address2,zip
21st Nail Salon,Hair and Beauty,City of St Louis,8243 N Broadway,"St Louis,  MO 63147",63147
314 Nails and Spa,Hair and Beauty,City of St Louis,2329 Union Blvd,"St Louis,  MO 63113",63113
360 Degree Hair Studio,Hair and Beauty,St Louis,9103 Halls Ferry Rd,"St Louis,  MO 63136",63136
3671 Cleveland Ave,Hair and Beauty,City of St Louis,3671 Cleveland Ave,"St Louis,  MO 63110",63110
911 Hair Salon,Hair and Beauty,St Louis,9193 W Florissant Ave,"St Louis,  MO 63136",63136
A Cut Above the Rest,Hair and Beauty,St Louis,381 N Big Bend Blvd,"St Louis,  MO 63130",63130
A New You Barber Salon,Hair and Beauty,City of St Louis,5510 Natural Bridge Ave,"St Louis,  MO 63120",63120
A to Z Laclede Market,Liquor Store,City of St Louis,4571 Laclede Ave,"St Louis,  MO 63108",63108
A Woman's Glory Salon,Hair and Beauty,City of St Louis,6000 W Florissant Ave,"St Louis,  MO 63136",63136
A1 Liquor,Liquor Store,St Louis,10625 New Halls Ferry Rd,"St Louis,  MO 63136",63136
AAA Watta African Hair Braiding,Hair and Beauty,St Louis,6817 W Florissant Ave,"St Louis,  MO 63136",63136
Ace Cash Express,Payday Loan,St Louis,10016 W Florissant Ave,"St Louis,  MO 63136",63136
Ace Cash Express,Payday Loan,St Louis,7028 W Florissant Ave,"St Louis,  MO 63136",63136
Ace Cash Express,Payday Loan,St Louis,7856 Olive Blvd,"St Louis,  MO 63130",63130
Ace Cash Express,Payday Loan,St Louis,9144 W Florissant Ave,"St Louis,  MO 63136",63136
Advance America,Payday Loan,St Louis,10018 W Florissant Ave,"St Louis,  MO 63136",63136
Advance America,Payday Loan,St Louis,6902 Olive Blvd,"St Louis,  MO 63130",63130
Advance Loans,Payday Loan,City of St Louis,1408 N Kingshighway Blvd,"St Louis,  MO 63113",63113
African Braiding Station,Hair and Beauty,St Louis,10087 W Florissant Ave,"St Louis,  MO 63136",63136
African Hair Braiding,Hair and Beauty,City of St Louis,1215 Convention Plz,"St Louis,  MO 63103",63103
African Hair Braiding,Hair and Beauty,City of St Louis,8704 Goodfellow Blvd,"St Louis,  MO 63147",63147
Almightyravie,Hair and Beauty,St Louis,11154 Prentice Dr,"St Louis,  MO 63136",63136
Amazing Smiles,Hair and Beauty,St Louis,7171 Delmar Blvd,"St Louis,  MO 63130",63130
Ambassador,Hair and Beauty,St Louis,9800 Halls Ferry Rd,"St Louis,  MO 63136",63136
Ambra Robinson,Hair and Beauty,City of St Louis,1635 Washington Ave,"St Louis,  MO 63103",63103
Amiri Image,Hair and Beauty,City of St Louis,6057 W Florissant Ave,"St Louis,  MO 63136",63136
Andre's Package Liquor,Liquor Store,City of St Louis,4341 Warne Ave,"St Louis,  MO 63107",63107
Andrea Hair Saloon,Hair and Beauty,City of St Louis,4026 N Kingshighway Blvd,"St Louis,  MO 63115",63115
Angel Nails,Hair and Beauty,St Louis,7119 St Charles Rock Rd,"St Louis,  MO 63133",63133
Ann's Coiffeur,Hair and Beauty,City of St Louis,8902 Riverview Blvd,"St Louis,  MO 63147",63147
Ardell's Beauty Empire,Hair and Beauty,City of St Louis,4150 N Newstead Ave,"St Louis,  MO 63115",63115
Artisans Salon,Hair and Beauty,City of St Louis,4101 Shenandoah Ave,"St Louis,  MO 63110",63110
Austin Barber Shop,Hair and Beauty,City of St Louis,5221 Delmar Blvd,"St Louis,  MO 63108",63108
Barber Joint,Hair and Beauty,City of St Louis,4510 Natural Bridge Ave,"St Louis,  MO 63115",63115
Beauty Bar,Hair and Beauty,City of St Louis,Market St,"St Louis,  MO 63103",63103
Beauty Connection,Hair and Beauty,St Louis,6824 W Florissant Ave,"St Louis,  MO 63136",63136
Beauty in A Day,Hair and Beauty,City of St Louis,515 N Taylor Ave,"St Louis,  MO 63108",63108
Beauty Zone,Hair and Beauty,City of St Louis,4615 Natural Bridge Ave,"St Louis,  MO 63115",63115
Bebe's Hair Braiding,Hair and Beauty,City of St Louis,6165 Sherry Ave,"St Louis,  MO 63136",63136
Bedoe's Barber & Beauty Shop,Hair and Beauty,City of St Louis,4857 Maffitt Ave,"St Louis,  MO 63113",63113
Bedoe's Barber Shop,Hair and Beauty,City of St Louis,4815 Page Blvd,"St Louis,  MO 63113",63113
Bellé Réign Eyelash Studio,Hair and Beauty,City of St Louis,4144 Lindell Blvd,"St Louis,  MO 63108",63108
Belt Loop Package Liquor,Liquor Store,City of St Louis,5501 St Louis Ave,"St Louis,  MO 63120",63120
Beneficial Capital Leasing,Hair and Beauty,City of St Louis,500 N Broadway,"St Louis,  MO 63102",63102
Beyond Beauty Supply,Hair and Beauty,St Louis,10765 New Halls Ferry Rd,"St Louis,  MO 63136",63136
Bi-Lo,Liquor Store,City of St Louis,5440 Dr Martin Luther King Dr,"St Louis,  MO 63112",63112
BI-LO,Liquor Store,City of St Louis,1354 Clara Ave,"St Louis,  MO 63112",63112
Big Daddy's Barber & Beauty Salon,Hair and Beauty,St Louis,2166 Chambers Rd,"St Louis,  MO 63136",63136
Big Timers Hair,Hair and Beauty,City of St Louis,4741 Natural Bridge Ave,"St Louis,  MO 63115",63115
Bill's Barber Shop,Hair and Beauty,City of St Louis,5423 Riverview Blvd,"St Louis,  MO 63120",63120
Black Tulip Choral,Hair and Beauty,City of St Louis,625 N Euclid Ave,"St Louis,  MO 63108",63108
Blaque's Hair Gallery,Hair and Beauty,St Louis,6824 Olive Blvd,"St Louis,  MO 63130",63130
Bling Extensions Hair Company,Hair and Beauty,City of St Louis,4144 Lindell Blvd,"St Louis,  MO 63108",63108
Blood & Sand,Liquor Store,City of St Louis,1500 St Charles St,"St Louis,  MO 63103",63103
Blue Element Salon,Hair and Beauty,City of St Louis,610 Eastgate Ave,"St Louis,  MO 63130",63130
Blush on the B,Hair and Beauty,City of St Louis,4500 Chouteau Ave,"St Louis,  MO 63110",63110
Bowen's Barber & Beauty Supply,Hair and Beauty,City of St Louis,1124 N Kingshighway Blvd,"St Louis,  MO 63113",63113
Brandon?S,Hair and Beauty,St Louis,2461 Downs Ct,"St Louis,  MO 63136",63136
Breeze Unisex Salon,Hair and Beauty,City of St Louis,3516 St Louis Ave,"St Louis,  MO 63106",63106
Burch's Liquor,Liquor Store,City of St Louis,4102 W Florissant Ave,"St Louis,  MO 63115",63115
Bxdgxrl Beauty,Hair and Beauty,City of St Louis,2017 S Grand Blvd,"St Louis,  MO 63110",63110
C & J Package Liquor,Liquor Store,City of St Louis,2901 Union Blvd,"St Louis,  MO 63115",63115
Cafe Balaban's,Liquor Store,City of St Louis,412 N Euclid Ave,"St Louis,  MO 63108",63108
Cali Nails,Hair and Beauty,St Louis,7315 W Florissant Ave,"St Louis,  MO 63136",63136
Caribbean Creme,Liquor Store,City of St Louis,4241 Folsom Ave,"St Louis,  MO 63110",63110
Carrie's Beauty Salon,Hair and Beauty,City of St Louis,6306 W Florissant Ave,"St Louis,  MO 63136",63136
Catwalk Fashion,Hair and Beauty,St Louis,10460 W Florissant Ave,"St Louis,  MO 63136",63136
Central West End Nails & Spa,Hair and Beauty,City of St Louis,4904 Laclede Ave,"St Louis,  MO 63108",63108
Charleville Brewing Company and Tavern,Liquor Store,City of St Louis,2101 Chouteau Ave,"St Louis,  MO 63103",63103
Check 'n Go,Payday Loan,City of St Louis,1415 N Grand Blvd,"St Louis,  MO 63106",63106
Chop Shop,Hair and Beauty,City of St Louis,4139 Manchester Ave,"St Louis,  MO 63110",63110
Christopher Stevens the Salon,Hair and Beauty,City of St Louis,2020 Washington Ave,"St Louis,  MO 63103",63103
Chrystyle's Salon,Hair and Beauty,City of St Louis,4061 Dr Martin Luther King Dr,"St Louis,  MO 63113",63113
Cielo,Hair and Beauty,City of St Louis,2119 Marconi Ave,"St Louis,  MO 63110",63110
City Styles Hair Salon,Hair and Beauty,City of St Louis,906 Olive St,"St Louis,  MO 63101",63101
Classic Fine Art Greeting Cards,Hair and Beauty,City of St Louis,Market St,"St Louis,  MO 63103",63103
Classic Nails,Hair and Beauty,City of St Louis,4930 Delmar Blvd,"St Louis,  MO 63108",63108
Clayton's Barber Shop,Hair and Beauty,City of St Louis,4163 N Newstead Ave,"St Louis,  MO 63115",63115
Clearly Better Scents,Hair and Beauty,City of St Louis,1100 Central Industrial Dr,"St Louis,  MO 63110",63110
Club Vision,Liquor Store,City of St Louis,5731 Dr Martin Luther King Dr,"St Louis,  MO 63112",63112
Cocktailz A Beauty Bar,Hair and Beauty,City of St Louis,6150 Delmar Blvd,"St Louis,  MO 63112",63112
Coco Beauty Supply,Hair and Beauty,St Louis,6906 Olive Blvd,"St Louis,  MO 63130",63130
Coiffures by Shawn,Hair and Beauty,City of St Louis,312 N Euclid Ave,"St Louis,  MO 63108",63108
Color Wheel Hair,Hair and Beauty,City of St Louis,5704 Oakland Ave,"St Louis,  MO 63110",63110
Connie & Co Hair Care,Hair and Beauty,City of St Louis,2840 N Euclid Ave,"St Louis,  MO 63115",63115
Connie & Co II Hair Cut,Hair and Beauty,City of St Louis,4100 Russell Blvd,"St Louis,  MO 63110",63110
Cosmobeauti,Hair and Beauty,City of St Louis,1708 Delmar Blvd,"St Louis,  MO 63103",63103
Creative Nails,Hair and Beauty,City of St Louis,4155 Lindell Blvd,"St Louis,  MO 63108",63108
Creative Touch Barber & Beauty Shop,Hair and Beauty,City of St Louis,5356 N Kingshighway Blvd,"St Louis,  MO 63115",63115
Crystal Nails,Hair and Beauty,St Louis,9187 W Florissant Ave,"St Louis,  MO 63136",63136
Cultivate Salon,Hair and Beauty,City of St Louis,1110 Tower Grove Ave,"St Louis,  MO 63110",63110
Currency Exchange,Payday Loan,City of St Louis,1809 Olive St,"St Louis,  MO 63103",63103
Cut N2 Pleze,Hair and Beauty,City of St Louis,4063 Dr Martin Luther King Dr,"St Louis,  MO 63113",63113
Cut Up Styles,Hair and Beauty,City of St Louis,3001 N Florissant Ave,"St Louis,  MO 63107",63107
Cutters & Co,Hair and Beauty,City of St Louis,212 N Kingshighway Blvd,"St Louis,  MO 63108",63108
"CW's Heal Thyself Herbs, Etc",Hair and Beauty,St Louis,Old Halls Ferry Rd,"St Louis,  MO 63136",63136
Cyndi's Jointe,Hair and Beauty,City of St Louis,4345 Shreve Ave,"St Louis,  MO 63115",63115
D's Styles of Perfection,Hair and Beauty,City of St Louis,2701 N Taylor Ave,"St Louis,  MO 63113",63113
D's Styles of Perfection,Hair and Beauty,City of St Louis,4681 St Louis Ave,"St Louis,  MO 63115",63115
Dab's Beauty Salon,Hair and Beauty,St Louis,7030 W Florissant Ave,"St Louis,  MO 63136",63136
Dangerously CH,Hair and Beauty,City of St Louis,3969 Botanical Ave,"St Louis,  MO 63110",63110
Daniel Anderson,Hair and Beauty,St Louis,2486 Harbor Landings Cir,"St Louis,  MO 63136",63136
Danielles Hair and Nail Salon,Hair and Beauty,City of St Louis,5655 Dr Martin Luther King Dr,"St Louis,  MO 63112",63112
Dapper Den Grooming,Hair and Beauty,City of St Louis,N 9th St,"St Louis,  MO 63101",63101
Dapper Gents,Hair and Beauty,City of St Louis,1000 Washington Ave,"St Louis,  MO 63101",63101
David's Hair Salon,Hair and Beauty,St Louis,7429 Olive Blvd,"St Louis,  MO 63130",63130
DDT Package Liquors,Liquor Store,St Louis,7206 St Charles Rock Rd,"St Louis,  MO 63133",63133
Deletra Hudson,Hair and Beauty,City of St Louis,4772 St Louis Ave,"St Louis,  MO 63115",63115
Delmar Station Financial Services,Payday Loan,City of St Louis,5984 Delmar Blvd,"St Louis,  MO 63112",63112
Deluxeury Spa,Hair and Beauty,City of St Louis,1409 Washington Ave,"St Louis,  MO 63103",63103
Derby's Barber Shop,Hair and Beauty,St Louis,10448 Lord Dr,"St Louis,  MO 63136",63136
Des Mess,Hair and Beauty,City of St Louis,5929 McPherson Ave,"St Louis,  MO 63112",63112
Desta's Market & Deli,Liquor Store,City of St Louis,2503 N Taylor Ave,"St Louis,  MO 63113",63113
Dimensions Salon,Hair and Beauty,City of St Louis,1911 Washington Ave,"St Louis,  MO 63103",63103
DJ's Package Liquor,Liquor Store,City of St Louis,6109 Page Blvd,"St Louis,  MO 63133",63133
Dollar Tree,Hair and Beauty,St Louis,7575 Olive Blvd,"St Louis,  MO 63130",63130
Dollar World Plus,Hair and Beauty,City of St Louis,4301 Natural Bridge Ave,"St Louis,  MO 63115",63115
Downtown Barber Shop,Hair and Beauty,City of St Louis,1015 Locust St,"St Louis,  MO 63101",63101
DR.Shaver Hair Care and Barbering,Hair and Beauty,City of St Louis,2415 Union Blvd,"St Louis,  MO 63113",63113
Dream Face Beauty,Hair and Beauty,City of St Louis,10 S Euclid Ave,"St Louis,  MO 63108",63108
Drop Shop Beauty Salon,Hair and Beauty,City of St Louis,2809 N Vandeventer Ave,"St Louis,  MO 63107",63107
E & J Package Liquor,Liquor Store,City of St Louis,939 N Kingshighway Blvd,"St Louis,  MO 63108",63108
Easley Done,Hair and Beauty,St Louis,3156 Pershall Rd,"St Louis,  MO 63136",63136
Eboni Hair Salon,Hair and Beauty,St Louis,6711 W Florissant Ave,"St Louis,  MO 63136",63136
Eklectic Design,Hair and Beauty,City of St Louis,5622 Delmar Blvd,"St Louis,  MO 63112",63112
Eklectic Designs Hair,Hair and Beauty,City of St Louis,5338 Page Blvd,"St Louis,  MO 63112",63112
Elaine Steven Beauty College,Hair and Beauty,St Louis,10420 W Florissant Ave,"St Louis,  MO 63136",63136
Elite Liquor,Liquor Store,St Louis,9797 W Florissant Ave,"St Louis,  MO 63136",63136
Elite Liquor,Liquor Store,St Louis,9895 Halls Ferry Rd,"St Louis,  MO 63136",63136
Encore Salon,Hair and Beauty,City of St Louis,5472 N Kingshighway Blvd,"St Louis,  MO 63115",63115
Energy Brew,Liquor Store,St Louis,7645 Delmar Blvd,"St Louis,  MO 63130",63130
Experience One,Hair and Beauty,St Louis,8892 Jennings Station Rd,"St Louis,  MO 63136",63136
F and E Package Liquor,Liquor Store,City of St Louis,1305 N Sarah St,"St Louis,  MO 63113",63113
Faded,Hair and Beauty,City of St Louis,3523 St Louis Ave,"St Louis,  MO 63106",63106
Faded Barbershop,Hair and Beauty,City of St Louis,620 N Skinker Blvd,"St Louis,  MO 63130",63130
Favah 101 Salon,Hair and Beauty,City of St Louis,5860 Delmar Blvd,"St Louis,  MO 63112",63112
Ferguson Market,Liquor Store,St Louis,9101 W Florissant Ave,"St Louis,  MO 63136",63136
First Cash Pawn,Payday Loan,City of St Louis,3608 N Grand Blvd,"St Louis,  MO 63107",63107
First Class Barber Shop,Hair and Beauty,City of St Louis,5332 W Florissant Ave,"St Louis,  MO 63120",63120
Five11 Cosmetics,Hair and Beauty,City of St Louis,Market St,"St Louis,  MO 63101",63101
Flat Out Hair Salon,Hair and Beauty,City of St Louis,5874 Delmar Blvd,"St Louis,  MO 63112",63112
Flotrin's Barber Shop,Hair and Beauty,City of St Louis,1909 Goodfellow Blvd,"St Louis,  MO 63112",63112
Fox Finance,Payday Loan,City of St Louis,400 N 4th St,"St Louis,  MO 63102",63102
Frances Salon,Hair and Beauty,City of St Louis,393 N Euclid Ave,"St Louis,  MO 63108",63108
Freds U-City Barber Shop,Hair and Beauty,St Louis,7704 Delmar Blvd,"St Louis,  MO 63130",63130
Frenchfabulous Rockstar,Hair and Beauty,City of St Louis,414 N 23rd St,"St Louis,  MO 63103",63103
Get Set Phase 3 Salon,Hair and Beauty,City of St Louis,5405 Riverview Blvd,"St Louis,  MO 63120",63120
Gezellig,Liquor Store,City of St Louis,4191 Manchester Ave,"St Louis,  MO 63110",63110
Glam Attic Boutique,Hair and Beauty,City of St Louis,1627 Washington Ave,"St Louis,  MO 63103",63103
Glam Therapy,Hair and Beauty,City of St Louis,110 N 17th St,"St Louis,  MO 63103",63103
Glow Studio St. Louis,Hair and Beauty,City of St Louis,4814 Washington Blvd,"St Louis,  MO 63108",63108
Going Ting Hair,Hair and Beauty,City of St Louis,3528 Laclede Ave,"St Louis,  MO 63103",63103
Good Times PKG Liquor,Liquor Store,St Louis,7008 W Florissant Ave,"St Louis,  MO 63136",63136
Goodfellow Quick Shop,Liquor Store,City of St Louis,4719 Goodfellow Blvd,"St Louis,  MO 63120",63120
Goodtimes Liquor 3,Liquor Store,St Louis,9484 Lewis and Clark Blvd,"St Louis,  MO 63136",63136
Goodtimes Package Liquor,Liquor Store,St Louis,9916 Halls Ferry Rd,"St Louis,  MO 63136",63136
Goodtimes Package Liquor 4,Liquor Store,St Louis,1855 Bella Clare Dr,"St Louis,  MO 63136",63136
Grand Center Barber & Beauty Salon,Hair and Beauty,City of St Louis,3315 Olive St,"St Louis,  MO 63103",63103
Grand Nails,Hair and Beauty,City of St Louis,3524 N Grand Blvd,"St Louis,  MO 63107",63107
Grand Petite Market,Liquor Store,City of St Louis,2017 Chouteau Ave,"St Louis,  MO 63103",63103
Grand Wig House,Hair and Beauty,City of St Louis,2911 Washington Ave,"St Louis,  MO 63103",63103
Great Clips,Hair and Beauty,City of St Louis,212 N 9th St,"St Louis,  MO 63101",63101
Great Cuts,Hair and Beauty,City of St Louis,607 N 13th St,"St Louis,  MO 63103",63103
Hair Artist,Hair and Beauty,City of St Louis,649 Baden Ave,"St Louis,  MO 63147",63147
Hair Care Designers,Hair and Beauty,City of St Louis,3200 St Louis Ave,"St Louis,  MO 63106",63106
Hair Design 2000,Hair and Beauty,City of St Louis,4603 Natural Bridge Ave,"St Louis,  MO 63115",63115
Hair Fixx,Hair and Beauty,City of St Louis,1708 Delmar Blvd,"St Louis,  MO 63103",63103
Hair Majesty,Hair and Beauty,St Louis,6517 W Florissant Ave,"St Louis,  MO 63136",63136
Hair of the Dog,Hair and Beauty,City of St Louis,1212 Washington Ave,"St Louis,  MO 63103",63103
Hair Perfection,Hair and Beauty,City of St Louis,5229 Delmar Blvd,"St Louis,  MO 63108",63108
Hair Qtoure Beauty & Barber Salon,Hair and Beauty,City of St Louis,8708 Goodfellow Blvd,"St Louis,  MO 63147",63147
Hair Studio,Hair and Beauty,City of St Louis,8710 Goodfellow Blvd,"St Louis,  MO 63147",63147
Hair Suite Too,Hair and Beauty,City of St Louis,36 N Euclid Ave,"St Louis,  MO 63108",63108
Hair Topics Beauty Salon,Hair and Beauty,City of St Louis,5118 Natural Bridge Ave,"St Louis,  MO 63115",63115
Hairapy Beauty Lounge,Hair and Beauty,City of St Louis,5229 Delmar Blvd,"St Louis,  MO 63108",63108
Hairfixx,Hair and Beauty,City of St Louis,2432 N Spring Ave,"St Louis,  MO 63113",63113
Halo Salon & Spa,Hair and Beauty,City of St Louis,905 Locust St,"St Louis,  MO 63101",63101
Hanks Package Liquor,Liquor Store,City of St Louis,1401 Arlington Ave,"St Louis,  MO 63112",63112
Hanley Hills Grocery & Liquor,Liquor Store,St Louis,7921 Page Ave,"St Louis,  MO 63133",63133
Harry's Barber Service,Hair and Beauty,City of St Louis,4619 Dr Martin Luther King Dr,"St Louis,  MO 63113",63113
Harry's Place Barber & Style,Hair and Beauty,City of St Louis,4602 Pope Ave,"St Louis,  MO 63115",63115
HD Express,Hair and Beauty,St Louis,7299 Olive Blvd,"St Louis,  MO 63130",63130
Head Turners Hair & Nail Designs,Hair and Beauty,St Louis,6342 Lucille Ave,"St Louis,  MO 63136",63136
Headhunters Unisex Barber Salon,Hair and Beauty,City of St Louis,2615 N 14th St,"St Louis,  MO 63106",63106
Her Imports,Hair and Beauty,City of St Louis,100 S 4th St,"St Louis,  MO 63102",63102
Her.Mans Beauty & Barber,Hair and Beauty,City of St Louis,5654 Delmar Blvd,"St Louis,  MO 63112",63112
Hollywood Beauty Supply,Hair and Beauty,City of St Louis,1448 N Kingshighway Blvd,"St Louis,  MO 63113",63113
Hollywood Beauty Supply,Hair and Beauty,St Louis,7733 Olive Blvd,"St Louis,  MO 63130",63130
Hollywood Beauty Supply,Hair and Beauty,St Louis,9300 W Florissant Ave,"St Louis,  MO 63136",63136
House of Styles,Hair and Beauty,St Louis,6606 Lillian Ave,"St Louis,  MO 63136",63136
Ilash Studio,Hair and Beauty,St Louis,614 North and South Rd,"St Louis,  MO 63130",63130
In the Cut Beauty & Barber Shop,Hair and Beauty,St Louis,1795 Chambers Rd,"St Louis,  MO 63136",63136
Infinite Designs Beauty Salon,Hair and Beauty,City of St Louis,4271 Delmar Blvd,"St Louis,  MO 63108",63108
INFINITI Styles Barbering Salon,Hair and Beauty,St Louis,9998 W Florissant Ave,"St Louis,  MO 63136",63136
Intoxicology,Liquor Store,City of St Louis,4321 Manchester Ave,"St Louis,  MO 63110",63110
Irie Star,Hair and Beauty,City of St Louis,1418 N Park Pl,"St Louis,  MO 63107",63107
J & B Package Liquors & Convenience Store,Liquor Store,City of St Louis,2510 N Grand Blvd,"St Louis,  MO 63106",63106
Jacquise Salon,Hair and Beauty,City of St Louis,1000 Washington Ave,"St Louis,  MO 63101",63101
James Henry Provisions,Liquor Store,City of St Louis,434 N 4th St,"St Louis,  MO 63102",63102
Jenny's Nail Shop,Hair and Beauty,City of St Louis,5112 Natural Bridge Ave,"St Louis,  MO 63115",63115
Jeri Avon/Amaz,Hair and Beauty,City of St Louis,5241 Maple Ave,"St Louis,  MO 63113",63113
John Buckner Barber,Hair and Beauty,City of St Louis,3837 Lafayette Ave,"St Louis,  MO 63110",63110
Jumelle African Braiding,Hair and Beauty,St Louis,2164 Chambers Rd,"St Louis,  MO 63136",63136
Just Be,Hair and Beauty,City of St Louis,2133 Marconi Ave,"St Louis,  MO 63110",63110
JWG Beauty Supply,Hair and Beauty,City of St Louis,3653 Page Blvd,"St Louis,  MO 63113",63113
K C Fashions & Beauty Supply,Hair and Beauty,St Louis,7880 Olive Blvd,"St Louis,  MO 63130",63130
K Kutz,Hair and Beauty,St Louis,2325 Hord Ave,"St Louis,  MO 63136",63136
Kamikaze Kutz,Hair and Beauty,City of St Louis,4221 W Dr Martin Luther King Dr,"St Louis,  MO 63113",63113
Karmel's Kraft Supplies,Hair and Beauty,City of St Louis,1430 Washington Ave,"St Louis,  MO 63103",63103
Katherine Landfried,Hair and Beauty,City of St Louis,315 N 10th St,"St Louis,  MO 63101",63101
Kavina Harriso,Hair and Beauty,St Louis,2413 Springhill Ln,"St Louis,  MO 63136",63136
Kay Beauty,Hair and Beauty,City of St Louis,4244 Chouteau Ave,"St Louis,  MO 63110",63110
Kenny's Korner Bar & Package Liquor,Liquor Store,St Louis,2172 Chambers Rd,"St Louis,  MO 63136",63136
Kilroy's,Liquor Store,City of St Louis,720 S 7th St,"St Louis,  MO 63102",63102
Kim Nails,Hair and Beauty,St Louis,7224 W Florissant Ave,"St Louis,  MO 63136",63136
King of Kash,Payday Loan,St Louis,6614 W Florissant Ave,"St Louis,  MO 63136",63136
King's Beauty Supply,Hair and Beauty,City of St Louis,5237 Delmar Blvd,"St Louis,  MO 63108",63108
Kings Beauty,Hair and Beauty,St Louis,7905 Page Ave,"St Louis,  MO 63133",63133
Kingshighway & Hwy 70 Currency Exchange,Payday Loan,City of St Louis,4541 N Kingshighway Blvd,"St Louis,  MO 63115",63115
Kingshighway Properties,Payday Loan,City of St Louis,1315 N Kingshighway Blvd,"St Louis,  MO 63113",63113
Kirks Diplomat Barber Shop,Hair and Beauty,City of St Louis,1434 Hodiamont Ave,"St Louis,  MO 63112",63112
Kritique Designs Beauty & Barber Salon,Hair and Beauty,St Louis,10849 W Florissant Ave,"St Louis,  MO 63136",63136
Kutt Factory Barber and Beauty Salon,Hair and Beauty,City of St Louis,5768 W Florissant Ave,"St Louis,  MO 63120",63120
Kym Beauty Salon,Hair and Beauty,City of St Louis,6050 N Pointe Blvd,"St Louis,  MO 63147",63147
L's Beauty Supply,Hair and Beauty,City of St Louis,1159 S Kingshighway Blvd,"St Louis,  MO 63110",63110
L's Beauty Supply,Hair and Beauty,City of St Louis,5766 W Florissant Ave,"St Louis,  MO 63120",63120
La Petite Spa,Hair and Beauty,City of St Louis,318 N Euclid Ave,"St Louis,  MO 63108",63108
La Rose Barber & Cosmetology Specialists,Hair and Beauty,City of St Louis,4326 W Florissant Ave,"St Louis,  MO 63115",63115
Ladies of Elegance Beauty Salon,Hair and Beauty,St Louis,6709 Olive Blvd,"St Louis,  MO 63130",63130
Ladies of Elegance Beauty Salon,Hair and Beauty,St Louis,7120 St Charles Rock Rd,"St Louis,  MO 63133",63133
Ladue Nails and Spa,Hair and Beauty,City of St Louis,4532 Lindell Blvd,"St Louis,  MO 63108",63108
Lanili Hair Care Salon,Hair and Beauty,City of St Louis,5860 Delmar Blvd,"St Louis,  MO 63112",63112
Lash Flow,Hair and Beauty,St Louis,Sumter Ave,"St Louis,  MO 63136",63136
Lashiful Studio,Hair and Beauty,City of St Louis,1708 Delmar Blvd,"St Louis,  MO 63103",63103
Laugh and Smoke,Liquor Store,St Louis,Ventura Dr,"St Louis,  MO 63136",63136
Lavish Looks Boutique,Hair and Beauty,City of St Louis,1051 Gimblin St,"St Louis,  MO 63147",63147
Lemon Spalon,Hair and Beauty,City of St Louis,322 N Euclid Ave,"St Louis,  MO 63108",63108
Lendnation,Payday Loan,St Louis,10220 W Florissant Ave,"St Louis,  MO 63136",63136
Lendnation,Payday Loan,St Louis,2550 Chambers Rd,"St Louis,  MO 63136",63136
Leonard's Barber College,Hair and Beauty,City of St Louis,4974 Natural Bridge Ave,"St Louis,  MO 63115",63115
Level 10 Hair Salon,Hair and Beauty,City of St Louis,5914 Mimika Ave,"St Louis,  MO 63147",63147
Lexan Nails,Hair and Beauty,St Louis,10819 W Florissant Ave,"St Louis,  MO 63136",63136
Linea Salon,Hair and Beauty,St Louis,616 North and South Rd,"St Louis,  MO 63130",63130
Loc Loft STL,Hair and Beauty,City of St Louis,4829 Goodfellow Blvd,"St Louis,  MO 63120",63120
Locs of Glory,Hair and Beauty,City of St Louis,5886 Delmar Blvd,"St Louis,  MO 63112",63112
Locticianterri,Hair and Beauty,City of St Louis,Enright Ave,"St Louis,  MO 63112",63112
Long Nails,Hair and Beauty,St Louis,8005 W Florissant Ave,"St Louis,  MO 63136",63136
Look Good Feel Good Salon & Spa,Hair and Beauty,City of St Louis,4946 Southwest Ave,"St Louis,  MO 63110",63110
Love Struck Virgin Remy,Hair and Beauty,St Louis,9375 Caddiefield Rd,"St Louis,  MO 63136",63136
Lovely Nails,Hair and Beauty,St Louis,10440 W Florissant Ave,"St Louis,  MO 63136",63136
Luvenia's New Breed Hair Fashion & Clothing Boutique,Hair and Beauty,St Louis,1584 Lucas and Hunt Rd,"St Louis,  MO 63133",63133
M & A Market,Liquor Store,City of St Louis,4231 E Natural Bridge Ave,"St Louis,  MO 63115",63115
M & E African Hair Braiding,Hair and Beauty,St Louis,9819 W Florissant Ave,"St Louis,  MO 63136",63136
Mafatta African Hair Braiding,Hair and Beauty,St Louis,7319 W Florissant Ave,"St Louis,  MO 63136",63136
Magnificent Tresses,Hair and Beauty,City of St Louis,4579 Laclede Ave,"St Louis,  MO 63108",63108
Mak's Salon,Hair and Beauty,St Louis,8108 Olive Blvd,"St Louis,  MO 63130",63130
Man & Woman's World Barber & Beauty Salon,Hair and Beauty,St Louis,7821 Olive Blvd,"St Louis,  MO 63130",63130
May's Mane Cul,Hair and Beauty,City of St Louis,3739 Shreve Ave,"St Louis,  MO 63115",63115
McNeal's Superette,Liquor Store,City of St Louis,5900 Lillian Ave,"St Louis,  MO 63136",63136
Midtown Barbershop,Hair and Beauty,City of St Louis,2919 Olive St,"St Louis,  MO 63103",63103
Mimi Beauty Supply,Hair and Beauty,City of St Louis,344 N Sarah St,"St Louis,  MO 63108",63108
Mimi's Beauty Supply,Hair and Beauty,St Louis,8976,"St Louis,  MO 63136",63136
Mini Mart,Liquor Store,City of St Louis,3106 Delmar Blvd,"St Louis,  MO 63103",63103
Missouri Payday Loan,Payday Loan,City of St Louis,1701 S Kingshighway Blvd,"St Louis,  MO 63110",63110
Missouri Title Loans,Payday Loan,City of St Louis,4976 Natural Bridge Ave,"St Louis,  MO 63115",63115
Missouri Title Loans,Payday Loan,St Louis,6985 Olive Blvd,"St Louis,  MO 63130",63130
Ml King Beauty Supply,Hair and Beauty,City of St Louis,310 N 8th St,"St Louis,  MO 63101",63101
Moe's Barbershop,Hair and Beauty,City of St Louis,4800 Carter Ave,"St Louis,  MO 63115",63115
Morgan Street Brewery,Liquor Store,City of St Louis,721 N 2nd St,"St Louis,  MO 63102",63102
Mounas and Sisters,Hair and Beauty,St Louis,9146 W Florissant Ave,"St Louis,  MO 63136",63136
Mulatto Cuts & Styles,Hair and Beauty,City of St Louis,4105 W Florissant Ave,"St Louis,  MO 63115",63115
Nail Center,Hair and Beauty,City of St Louis,912 Olive St,"St Louis,  MO 63101",63101
Nail Salon,Hair and Beauty,City of St Louis,3625 Page Blvd,"St Louis,  MO 63113",63113
Nail Studio,Hair and Beauty,City of St Louis,5215 Delmar Blvd,"St Louis,  MO 63108",63108
Nail Trap,Hair and Beauty,St Louis,9108 W Florissant Ave,"St Louis,  MO 63136",63136
Nailery,Hair and Beauty,St Louis,10990 New Halls Ferry Rd,"St Louis,  MO 63136",63136
Napps,Hair and Beauty,St Louis,6267 Delmar Blvd,"St Louis,  MO 63130",63130
Napps Natural Hair,Hair and Beauty,City of St Louis,1224 Washington Ave,"St Louis,  MO 63103",63103
Natural Bridge Ce,Payday Loan,City of St Louis,4300 Natural Bridge Ave,"St Louis,  MO 63115",63115
Natural Bridge Liquors,Liquor Store,City of St Louis,5956 Natural Bridge Ave,"St Louis,  MO 63120",63120
Natural Browz,Hair and Beauty,City of St Louis,1313 Washington Ave,"St Louis,  MO 63103",63103
Natural M's,Hair and Beauty,City of St Louis,5860 Delmar Blvd,"St Louis,  MO 63112",63112
Natural M's,Hair and Beauty,St Louis,6267 Delmar Blvd,"St Louis,  MO 63130",63130
Natural Uhuru,Hair and Beauty,City of St Louis,2012 S 39th St,"St Louis,  MO 63110",63110
New York Market,Liquor Store,St Louis,8701 Jennings Station Rd,"St Louis,  MO 63136",63136
Nice Beauty Supply,Hair and Beauty,St Louis,10044 W Florissant Ave,"St Louis,  MO 63136",63136
Nice Beauty Supply,Hair and Beauty,City of St Louis,718 N Tucker Blvd,"St Louis,  MO 63101",63101
Ninas Skin Studio,Hair and Beauty,City of St Louis,1909 Washington Ave,"St Louis,  MO 63103",63103
Nitira Mid-Class Mua,Hair and Beauty,City of St Louis,Peck St,"St Louis,  MO 63107",63107
Nitty Salon 1,Hair and Beauty,City of St Louis,4214 E Natural Bridge Ave,"St Louis,  MO 63115",63115
Nitty's Salon and Retail,Hair and Beauty,City of St Louis,4294 E Natural Bridge Ave,"St Louis,  MO 63115",63115
Northway Supermarket,Liquor Store,City of St Louis,5590 W Florissant Ave,"St Louis,  MO 63120",63120
Notch,Hair and Beauty,City of St Louis,4187 Manchester Ave,"St Louis,  MO 63110",63110
NU da Locsmyth,Hair and Beauty,St Louis,9699 Queensbury Ln,"St Louis,  MO 63136",63136
NU Fashion Beauty,Hair and Beauty,St Louis,1366 Kingsland Ave,"St Louis,  MO 63133",63133
NU Fashion Beauty Product,Hair and Beauty,St Louis,6623 Vernon Ave,"St Louis,  MO 63130",63130
NU Fashion Beauty Product Distributor,Hair and Beauty,St Louis,10835 Old Halls Ferry Rd,"St Louis,  MO 63136",63136
NU Fashion Beauty Product Distributor,Hair and Beauty,City of St Louis,3425 Union Blvd,"St Louis,  MO 63115",63115
NU Fashion Beauty Supply,Hair and Beauty,City of St Louis,1408 N Kingshighway Blvd,"St Louis,  MO 63113",63113
Omni Barber & Beauty Salon,Hair and Beauty,City of St Louis,2908 N Newstead Ave,"St Louis,  MO 63115",63115
Only Facial,Hair and Beauty,St Louis,7357 Lindell Blvd,"St Louis,  MO 63130",63130
Opal's Supreme Fox Hair Designers,Hair and Beauty,City of St Louis,2824 N Kingshighway Blvd,"St Louis,  MO 63115",63115
P X Plaza Liquors,Liquor Store,St Louis,7016 Page Ave,"St Louis,  MO 63133",63133
P-X Wine & Spirits,Liquor Store,City of St Louis,4938 Natural Bridge Ave,"St Louis,  MO 63115",63115
Pagedale Market,Liquor Store,St Louis,6707 Page Ave,"St Louis,  MO 63133",63133
Pam's Hair Design,Hair and Beauty,St Louis,7032 W Florissant Ave,"St Louis,  MO 63136",63136
Paradise Beauty,Hair and Beauty,City of St Louis,5800 Goodfellow Blvd,"St Louis,  MO 63147",63147
Paradise Salon,Hair and Beauty,City of St Louis,1923 Washington Ave,"St Louis,  MO 63103",63103
Parson's Beauty Salon Center,Hair and Beauty,City of St Louis,5977 Delmar Blvd,"St Louis,  MO 63112",63112
Paul Mitchell the School St. Louis,Hair and Beauty,City of St Louis,30 Maryland Plz,"St Louis,  MO 63108",63108
Peery's Styling Shop & Beauty Supply,Hair and Beauty,City of St Louis,8986 Halls Ferry Rd,"St Louis,  MO 63147",63147
Perfect Image,Hair and Beauty,City of St Louis,3519 N Market St,"St Louis,  MO 63106",63106
Perfect Image,Hair and Beauty,City of St Louis,3523 St Louis Ave,"St Louis,  MO 63106",63106
Phil & Son Complete Hair Styling,Hair and Beauty,City of St Louis,6167 Lillian Ave,"St Louis,  MO 63136",63136
Philip Johnson Salon,Hair and Beauty,City of St Louis,4581 Laclede Ave,"St Louis,  MO 63108",63108
Phillips Market,Liquor Store,City of St Louis,2931 N Newstead Ave,"St Louis,  MO 63115",63115
Phoenix Package Liquor II,Liquor Store,City of St Louis,1504 Hamilton Ave,"St Louis,  MO 63112",63112
Pink Beauty STL,Hair and Beauty,St Louis,9897 Halls Ferry Rd,"St Louis,  MO 63136",63136
Platinum Nails,Hair and Beauty,St Louis,6908 Olive Blvd,"St Louis,  MO 63130",63130
Poco Hair Company,Hair and Beauty,St Louis,7353 Lindell Blvd,"St Louis,  MO 63130",63130
Poro's Just US Hair Salon,Hair and Beauty,City of St Louis,5192 Dr Martin Luther King Dr,"St Louis,  MO 63113",63113
Premier Cuts & Stylez,Hair and Beauty,City of St Louis,4800 W Florissant Ave,"St Louis,  MO 63115",63115
Premier Nails and Spa,Hair and Beauty,City of St Louis,4477 Forest Park Ave,"St Louis,  MO 63108",63108
Pretty Kleen Brows,Hair and Beauty,City of St Louis,Delmar Blvd,"St Louis,  MO 63112",63112
Prince Beauty Supply,Hair and Beauty,St Louis,7007 Page Ave,"St Louis,  MO 63133",63133
Princess Beauty Supply,Hair and Beauty,St Louis,6911 W Florissant Ave,"St Louis,  MO 63136",63136
Princess Beauty Supply,Hair and Beauty,St Louis,9855 Edgefield Dr,"St Louis,  MO 63136",63136
Princess Beauty Supply & Fashion,Hair and Beauty,St Louis,6131 Natural Bridge Ave,"St Louis,  MO 63120",63120
Pro Long Nails,Hair and Beauty,St Louis,10724 W Florissant Ave,"St Louis,  MO 63136",63136
Provisions ST.Louis,Hair and Beauty,City of St Louis,228 N Euclid Ave,"St Louis,  MO 63108",63108
PX Liquor,Liquor Store,City of St Louis,7842 N Broadway,"St Louis,  MO 63147",63147
Quality Styles,Hair and Beauty,St Louis,5736 Hodiamont Ave,"St Louis,  MO 63136",63136
Queen's Wig Palace,Hair and Beauty,St Louis,8982 Jennings Station Rd,"St Louis,  MO 63136",63136
Racq Salon & Spa,Hair and Beauty,City of St Louis,2605 N 14th St,"St Louis,  MO 63106",63106
Randall's Wines and Spirits,Liquor Store,St Louis,11000 Old Halls Ferry Rd,"St Louis,  MO 63136",63136
Redbjammin,Hair and Beauty,City of St Louis,6123 W Florissant Ave,"St Louis,  MO 63136",63136
Remy Beauty and Hair,Hair and Beauty,St Louis,10732 W Florissant Ave,"St Louis,  MO 63136",63136
Revive Tan,Hair and Beauty,City of St Louis,4744 McPherson Ave,"St Louis,  MO 63108",63108
Rezults Salon,Hair and Beauty,City of St Louis,6018 Delmar Blvd,"St Louis,  MO 63112",63112
Rhone Rum Bar,Liquor Store,City of St Louis,2107 Chouteau Ave,"St Louis,  MO 63103",63103
RIC Nails Spa,Hair and Beauty,St Louis,881 Kingsland Ave,"St Louis,  MO 63130",63130
Rich Kuts & Styles,Hair and Beauty,City of St Louis,6123 W Florissant Ave,"St Louis,  MO 63136",63136
Ricki's Tops,Hair and Beauty,City of St Louis,2844 N Euclid Ave,"St Louis,  MO 63115",63115
Rickys Spot,Hair and Beauty,City of St Louis,5409 Riverview Blvd,"St Louis,  MO 63120",63120
Rodney & Carrol's Barber Shop,Hair and Beauty,St Louis,6813 W Florissant Ave,"St Louis,  MO 63136",63136
Roya's Brow Spa,Hair and Beauty,City of St Louis,346 N Sarah St,"St Louis,  MO 63108",63108
Royals Food Mart,Liquor Store,St Louis,Bircher Ave,"St Louis,  MO 63120",63120
Royals Liquor Mart,Liquor Store,City of St Louis,1403 Union Blvd,"St Louis,  MO 63113",63113
Ruff Endz,Hair and Beauty,City of St Louis,6042 Delmar Blvd,"St Louis,  MO 63112",63112
Sabrina Beauty Supply,Hair and Beauty,City of St Louis,4739 Goodfellow Blvd,"St Louis,  MO 63120",63120
Sage Skin Care,Hair and Beauty,St Louis,951 Gay Ave,"St Louis,  MO 63130",63130
Saint Louis All Stars,Hair and Beauty,St Louis,1965 Chambers Rd,"St Louis,  MO 63136",63136
Salama Beauty Supply,Hair and Beauty,City of St Louis,1521 N 13th St,"St Louis,  MO 63106",63106
Salon 7,Hair and Beauty,City of St Louis,109 N Newstead Ave,"St Louis,  MO 63108",63108
Salon B at the Park,Hair and Beauty,City of St Louis,Pershing Ave,"St Louis,  MO 63112",63112
Salon K,Hair and Beauty,St Louis,610 Kingsland Ave,"St Louis,  MO 63130",63130
Salon Mj2,Hair and Beauty,City of St Louis,5502 Natural Bridge Ave,"St Louis,  MO 63120",63120
Salon Selected,Hair and Beauty,St Louis,10821 W Florissant Ave,"St Louis,  MO 63136",63136
Salon Six Zero Seven,Hair and Beauty,City of St Louis,607 N 13th St,"St Louis,  MO 63103",63103
Salon Vibe,Hair and Beauty,City of St Louis,625 N Euclid Ave,"St Louis,  MO 63108",63108
Sam Light Loan,Payday Loan,City of St Louis,2601 Olive St,"St Louis,  MO 63103",63103
Sandy Shaver Dr,Hair and Beauty,City of St Louis,3676 Blaine Ave,"St Louis,  MO 63110",63110
Sarah's Barber & Beauty Salon,Hair and Beauty,City of St Louis,2818 N Vandeventer Ave,"St Louis,  MO 63107",63107
Satin Finish Beauty & Barber,Hair and Beauty,City of St Louis,3640 Natural Bridge Ave,"St Louis,  MO 63107",63107
Savanah Summer Luxury,Hair and Beauty,City of St Louis,4561 Washington Blvd,"St Louis,  MO 63108",63108
Savannah's Salon,Hair and Beauty,St Louis,2323 Chambers Rd,"St Louis,  MO 63136",63136
Save-A-Lot,Liquor Store,St Louis,6840 Page Ave,"St Louis,  MO 63133",63133
Scruggs Package Liquor,Liquor Store,City of St Louis,3746 St Louis Ave,"St Louis,  MO 63107",63107
Selah,Hair and Beauty,City of St Louis,1424 Washington Ave,"St Louis,  MO 63103",63103
Select Styles Barber Studio,Hair and Beauty,City of St Louis,1437 S Vandeventer Ave,"St Louis,  MO 63110",63110
Serenity Myo,Hair and Beauty,City of St Louis,362 N Boyle Ave,"St Louis,  MO 63108",63108
Seven Twenty-Five Liquor Mart,Liquor Store,City of St Louis,725 N Taylor Ave,"St Louis,  MO 63108",63108
Shack's Barber & Beauty Salon,Hair and Beauty,City of St Louis,1724 Olive St,"St Louis,  MO 63103",63103
Shapiro's Market,Liquor Store,City of St Louis,111 N Newstead Ave,"St Louis,  MO 63108",63108
Sharper Images,Hair and Beauty,City of St Louis,5224 W Florissant Ave,"St Louis,  MO 63115",63115
Shave Barbershop,Hair and Beauty,City of St Louis,323 De Baliviere Ave,"St Louis,  MO 63112",63112
Shear Lounge Salon,Hair and Beauty,City of St Louis,5506 Natural Bridge Ave,"St Louis,  MO 63120",63120
Shear Magic Salon,Hair and Beauty,City of St Louis,5316 Pershing Ave,"St Louis,  MO 63112",63112
Shegog's Barber Shop,Hair and Beauty,St Louis,7299 Olive Blvd,"St Louis,  MO 63130",63130
Shi Salon,Hair and Beauty,City of St Louis,4419 Olive St,"St Louis,  MO 63108",63108
Side Street Hair Designer,Hair and Beauty,St Louis,520 Melville Ave,"St Louis,  MO 63130",63130
Sistah Peace of Mind Salon,Hair and Beauty,St Louis,1523 North and South Rd,"St Louis,  MO 63130",63130
SJ Artistry Studios,Hair and Beauty,City of St Louis,N 9th St,"St Louis,  MO 63101",63101
So Flyy Hair Gallery,Hair and Beauty,City of St Louis,6001 Natural Bridge Ave,"St Louis,  MO 63120",63120
Social Affair,Hair and Beauty,City of St Louis,2232 Thurman Ave,"St Louis,  MO 63110",63110
Social Affair,Hair and Beauty,City of St Louis,4166 Flora Pl,"St Louis,  MO 63110",63110
Sophia Beard - Salon Lofts,Hair and Beauty,City of St Louis,4001 Chouteau Ave,"St Louis,  MO 63110",63110
Southside Barber & Beauty Salon,Hair and Beauty,City of St Louis,4264 Manchester Ave,"St Louis,  MO 63110",63110
Spa at Four Seasons Hotel St. Louis,Hair and Beauty,City of St Louis,999 N 2nd St,"St Louis,  MO 63102",63102
Spa Nail,Hair and Beauty,St Louis,6847 Olive Blvd,"St Louis,  MO 63130",63130
Spa Qsthetics,Hair and Beauty,City of St Louis,5860 Delmar Blvd,"St Louis,  MO 63112",63112
Sportsman Barber Shop,Hair and Beauty,City of St Louis,5809 Dr Martin Luther King Dr,"St Louis,  MO 63112",63112
St. Louis Barbershop,Hair and Beauty,City of St Louis,1708 Delmar Blvd,"St Louis,  MO 63103",63103
St. Louis Community Credit Union,Payday Loan,St Louis,10024 W Florissant Ave,"St Louis,  MO 63136",63136
Stacey Edwards,Hair and Beauty,City of St Louis,5209 Palm St,"St Louis,  MO 63115",63115
Stene S House of Beauty,Hair and Beauty,City of St Louis,5006 Plover Ave,"St Louis,  MO 63120",63120
Studio 16,Hair and Beauty,City of St Louis,1619 Washington Ave,"St Louis,  MO 63103",63103
Studio 7 Salon,Hair and Beauty,City of St Louis,554 Limit Ave,"St Louis,  MO 63130",63130
Studio El,Hair and Beauty,St Louis,6800 Olive Blvd,"St Louis,  MO 63130",63130
Studio Posh,Hair and Beauty,City of St Louis,5856 Delmar Blvd,"St Louis,  MO 63112",63112
Studio Tracie,Hair and Beauty,City of St Louis,Chouteau Ave,"St Louis,  MO 63110",63110
Studio314,Hair and Beauty,City of St Louis,710 N Tucker Blvd,"St Louis,  MO 63101",63101
Styled by Ashleyg,Hair and Beauty,City of St Louis,5715 Etzel Ave,"St Louis,  MO 63112",63112
Supercuts,Hair and Beauty,City of St Louis,4161 Lindell Blvd,"St Louis,  MO 63108",63108
Supreme Cuts,Hair and Beauty,City of St Louis,5097 Delmar Blvd,"St Louis,  MO 63108",63108
Sweethead Naturals,Hair and Beauty,St Louis,8133 Delmar Blvd,"St Louis,  MO 63130",63130
Swift's Barber & Beauty Salon,Hair and Beauty,St Louis,10101 W Florissant Ave,"St Louis,  MO 63136",63136
T.Moore Media,Hair and Beauty,City of St Louis,414 N 23rd St,"St Louis,  MO 63103",63103
Tapers Barber & Beauty Salon,Hair and Beauty,City of St Louis,2904 Market St,"St Louis,  MO 63103",63103
Tas Studio,Hair and Beauty,City of St Louis,1652 McLaran Ave,"St Louis,  MO 63147",63147
Tattoo Teezee Screen Printing,Hair and Beauty,City of St Louis,5900 Minerva Ave,"St Louis,  MO 63112",63112
Tayler-Made Barber Shop,Hair and Beauty,City of St Louis,5888 Delmar Blvd,"St Louis,  MO 63112",63112
Taylor's Master Barber Shop,Hair and Beauty,City of St Louis,3514 St Louis Ave,"St Louis,  MO 63106",63106
TB's Barber & Beauty,Hair and Beauty,City of St Louis,2810 N Grand Blvd,"St Louis,  MO 63107",63107
Third Rail,Liquor Store,City of St Louis,5625 Manchester Ave,"St Louis,  MO 63110",63110
Thirteenth and Washington Salon,Hair and Beauty,City of St Louis,412 N Tucker Blvd,"St Louis,  MO 63101",63101
"Thirteenth and Washington, Salon & Barber Shop",Hair and Beauty,City of St Louis,1300 Washington Ave,"St Louis,  MO 63103",63103
Tiara Linda Makeup Artistry,Hair and Beauty,St Louis,Winkler Dr,"St Louis,  MO 63136",63136
Tina's Nails,Hair and Beauty,City of St Louis,2604 Chouteau Ave,"St Louis,  MO 63103",63103
Titi African Hair Braiding,Hair and Beauty,St Louis,7034 W Florissant Ave,"St Louis,  MO 63136",63136
Titlemax,Payday Loan,City of St Louis,1311 N Grand Blvd,"St Louis,  MO 63106",63106
Titlemax,Payday Loan,St Louis,2474 Chambers Rd,"St Louis,  MO 63136",63136
Titlemax,Payday Loan,St Louis,7405 W Florissant Ave,"St Louis,  MO 63136",63136
Titlemax,Payday Loan,St Louis,9814 W Florissant Ave,"St Louis,  MO 63136",63136
Titlemax Title Secured Loans,Payday Loan,St Louis,6212 Dr Martin Luther King Dr,"St Louis,  MO 63133",63133
Tonette's Beauty Salon,Hair and Beauty,City of St Louis,5780 W Florissant Ave,"St Louis,  MO 63120",63120
Top Nail,Hair and Beauty,St Louis,7823 Olive Blvd,"St Louis,  MO 63130",63130
Total Discounts,Hair and Beauty,City of St Louis,3338 Union Blvd,"St Louis,  MO 63115",63115
Total Image Barber and Beauty,Hair and Beauty,St Louis,6800 Olive Blvd,"St Louis,  MO 63130",63130
Touba Professional Hair Braiding,Hair and Beauty,St Louis,9922 Halls Ferry Rd,"St Louis,  MO 63136",63136
Tropical Liqueurs,Liquor Store,City of St Louis,4104 Manchester Ave,"St Louis,  MO 63110",63110
TS Hair and Accessorie,Hair and Beauty,City of St Louis,4296 W Natural Bridge Ave,"St Louis,  MO 63115",63115
Utopia Salon & Spa,Hair and Beauty,City of St Louis,4484 W Pine Blvd,"St Louis,  MO 63108",63108
Uzuri Solutions Hair Art Gallery & Wellness Center,Hair and Beauty,City of St Louis,1224 Washington Ave,"St Louis,  MO 63103",63103
V Vegaz,Hair and Beauty,City of St Louis,6174 Delmar Blvd,"St Louis,  MO 63112",63112
Vancie's Hair Affair,Hair and Beauty,St Louis,6616 W Florissant Ave,"St Louis,  MO 63136",63136
Veterans Currency Exchange,Payday Loan,City of St Louis,900 N Grand Blvd,"St Louis,  MO 63106",63106
Vino Gallery,Liquor Store,City of St Louis,4701 McPherson Ave,"St Louis,  MO 63108",63108
Vita Bella Studio Salon,Hair and Beauty,City of St Louis,2024 Macklind Ave,"St Louis,  MO 63110",63110
Vogue Nails,Hair and Beauty,St Louis,7929 Page Ave,"St Louis,  MO 63133",63133
Wellston Currency Exchange,Payday Loan,City of St Louis,5854 Dr Martin Luther King Dr,"St Louis,  MO 63112",63112
West End Market,Liquor Store,City of St Louis,1148 Union Blvd,"St Louis,  MO 63113",63113
West Florissant Currency Exchange,Payday Loan,St Louis,7533 W Florissant Ave,"St Louis,  MO 63136",63136
Westside Barber Shop,Hair and Beauty,City of St Louis,2505 Goodfellow Blvd,"St Louis,  MO 63112",63112
Whip Lashes,Hair and Beauty,St Louis,11006 Ebert Dr,"St Louis,  MO 63136",63136
Wig Imports,Hair and Beauty,City of St Louis,6195 Delmar Blvd,"St Louis,  MO 63112",63112
Wiglife by Nikki,Hair and Beauty,City of St Louis,N Kingshighway Blvd,"St Louis,  MO 63113",63113
Williams Hair World,Hair and Beauty,City of St Louis,5632 Dr Martin Luther King Dr,"St Louis,  MO 63112",63112
Wines Kloset,Liquor Store,St Louis,7356 Ahern Ave,"St Louis,  MO 63130",63130
Womack Barber and Beauty Style,Hair and Beauty,St Louis,9416 Lewis and Clark Blvd,"St Louis,  MO 63136",63136
Wraggs To Riches Salon,Hair and Beauty,St Louis,10990 New Halls Ferry Rd,"St Louis,  MO 63136",63136
