title,category,county,address,address2
101- Concord,Gas Station,St Louis,5677 S Lindbergh Blvd,"St Louis,  MO 63123"
12oh7,Convenience,St Louis,5520 Albia Ter,"St Louis,  MO 63136"
1820 Market St #137,Convenience,City of St Louis,1820 Market St,"St Louis,  MO 63103"
2schae Cafe,"Grocery, Local",City of St Louis,275 Union Blvd,"St Louis,  MO 63108"
7-Eleven,Convenience,St Louis,2306 Chambers Rd,"St Louis,  MO 63136"
7-Eleven,Gas Station,St Louis,11202 Midland Blvd,"St Louis,  MO 63114"
7-Eleven,Gas Station,St Louis,1193 Colonnade Ctr,"St Louis,  MO 63131"
7-Eleven,Gas Station,St Louis,12545 Bennington Pl,"St Louis,  MO 63146"
7-Eleven,Gas Station,St Louis,13491 Olive Blvd,"Chesterfield,  MO 63017"
7-Eleven,Gas Station,St Louis,13515 Big Bend Rd,"St Louis,  MO 63122"
7-Eleven,Gas Station,City of St Louis,201 N 17th St,"St Louis,  MO 63103"
7-Eleven,Gas Station,St Louis,2107 Schuetz Rd,"St Louis,  MO 63146"
7-Eleven,Gas Station,St Louis,2425 S Big Bend Blvd,"St Louis,  MO 63143"
7-Eleven,Gas Station,St Louis,260 Hoffmeister Ave,"St Louis,  MO 63125"
7-Eleven,Gas Station,City of St Louis,2607 Gravois Ave,"St Louis,  MO 63118"
7-Eleven,Gas Station,City of St Louis,2807 Sulphur Ave,"St Louis,  MO 63139"
7-Eleven,Gas Station,City of St Louis,3160 Morganford Rd,"St Louis,  MO 63116"
7-Eleven,Gas Station,St Louis,4300 Woodson Rd,"St Louis,  MO 63134"
7-Eleven,Gas Station,City of St Louis,4948 Christy Blvd,"St Louis,  MO 63116"
7-Eleven,Gas Station,City of St Louis,5350 Chippewa St,"St Louis,  MO 63109"
7-Eleven,Gas Station,City of St Louis,5604 Gravois Ave,"St Louis,  MO 63116"
7-Eleven,Gas Station,St Louis,6085 N Lindbergh Blvd,"Hazelwood,  MO 63042"
7-Eleven,Gas Station,St Louis,6197 Lemay Ferry Rd,"St Louis,  MO 63129"
7-Eleven,Gas Station,St Louis,639 W Woodbine Ave,"St Louis,  MO 63122"
7-Eleven,Gas Station,City of St Louis,6909 Southwest Ave,"St Louis,  MO 63143"
7-Eleven,Gas Station,St Louis,703 Union Rd,"St Louis,  MO 63123"
7-Eleven,Gas Station,St Louis,8000 MacKenzie Rd,"St Louis,  MO 63123"
7-Eleven,Gas Station,St Louis,8159 Olive Blvd,"St Louis,  MO 63130"
7-Eleven,Gas Station,St Louis,8250 Watson Rd,"St Louis,  MO 63119"
7-Eleven,Gas Station,St Louis,8290 St Charles Rock Rd,"St Louis,  MO 63114"
7-Eleven,Gas Station,St Louis,900 Shackelford Rd,"Florissant,  MO 63031"
7-Eleven,Gas Station,St Louis,9866 Manchester Rd,"St Louis,  MO 63119"
A 1 Market & Package Liquor,"Grocery, Local",St Louis,7311 N Hanley Rd,"Hazelwood,  MO 63042"
A D M Milling,"Grocery, Local",City of St Louis,5020 Shreve Ave,"St Louis,  MO 63115"
A M Food,"Grocery, Local",St Louis,12087 Bellefontaine Rd,"St Louis,  MO 63138"
A to Z Laclede Market,"Grocery, Local",City of St Louis,4571 Laclede Ave,"St Louis,  MO 63108"
A&D Mini Mart,Convenience,St Louis,1130 N Florissant Rd,"St Louis,  MO 63135"
A&H Quick Shop,Convenience,St Louis,10649 Lackland Rd,"St Louis,  MO 63114"
A&M Markets,"Grocery, Local",St Louis,145 Graham Rd,"Florissant,  MO 63031"
A&S Mesnica,"Grocery, Local",City of St Louis,4905 Blow St,"St Louis,  MO 63109"
AB Mauri Foods,"Grocery, Local",St Louis,1350 Timberlake Manor Pkwy,"Chesterfield,  MO 63017"
Aboriginal Bli,Convenience,City of St Louis,3453 Wisconsin Ave,"St Louis,  MO 63118"
Adam Market,"Grocery, Local",City of St Louis,1247 Walton Ave,"St Louis,  MO 63113"
Adelaide Market,"Grocery, Local",City of St Louis,4129 W Florissant Ave,"St Louis,  MO 63115"
Adelias Alchemy,Convenience,City of St Louis,6700 Plateau Ave,"St Louis,  MO 63139"
Adso Service,Gas Station,City of St Louis,3710 N Grand Blvd,"St Louis,  MO 63107"
Afghan Market,"Grocery, Local",City of St Louis,3732 S Grand Blvd,"St Louis,  MO 63118"
African International Store,Convenience,City of St Louis,3949 Gravois Ave,"St Louis,  MO 63116"
African Naturals,"Grocery, Local",City of St Louis,4511 S Kingshighway Blvd,"St Louis,  MO 63109"
Airport Terminal Service,Gas Station,St Louis,130 Banshee Rd,"St Louis,  MO 63145"
AJ Market,"Grocery, Local",City of St Louis,8120 N Broadway,"St Louis,  MO 63147"
Akbar Grocery,"Grocery, Local",St Louis,10606 Page Ave,"St Louis,  MO 63132"
Akshar Foods,"Grocery, Local",St Louis,12419 St Charles Rock Rd,"Bridgeton,  MO 63044"
Al Amier International Grocery,"Grocery, Local",St Louis,7207 N Lindbergh Blvd,"Hazelwood,  MO 63042"
Al Amier Market,"Grocery, Local",St Louis,1139 N US Highway 67,"Florissant,  MO 63031"
Al Huda Market,"Grocery, Local",City of St Louis,3805 S Kingshighway Blvd,"St Louis,  MO 63109"
Al-Huda,"Grocery, Local",City of St Louis,4743 Morganford Rd,"St Louis,  MO 63116"
Alcorn Sunset Hills Food Mart,Gas Station,St Louis,12960 Gravois Rd,"St Louis,  MO 63127"
ALDI,"Grocery, Chain",St Louis,1033 Lemay Ferry Rd,"St Louis,  MO 63125"
ALDI,"Grocery, Chain",St Louis,10680 St Charles Rock Rd,"St Ann,  MO 63074"
ALDI,"Grocery, Chain",St Louis,10800 Bellefontaine Rd,"St Louis,  MO 63137"
ALDI,"Grocery, Chain",St Louis,11158 Lindbergh Business Ct,"St Louis,  MO 63123"
ALDI,"Grocery, Chain",St Louis,11185 S Towne Sq,"St Louis,  MO 63123"
ALDI,"Grocery, Chain",St Louis,1125 S Kirkwood Rd,"St Louis,  MO 63122"
ALDI,"Grocery, Chain",St Louis,11745 Olive Blvd,"St Louis,  MO 63141"
ALDI,"Grocery, Chain",St Louis,12145 Manchester Rd,"St Louis,  MO 63131"
ALDI,"Grocery, Chain",St Louis,12290 St Charles Rock Rd,"Bridgeton,  MO 63044"
ALDI,"Grocery, Chain",St Louis,14654 Manchester Rd,"Ballwin,  MO 63011"
ALDI,"Grocery, Chain",St Louis,15907 Manchester Rd,"Ballwin,  MO 63011"
ALDI,"Grocery, Chain",St Louis,15907 Manchester Rd,"Ballwin,  MO 63011"
ALDI,"Grocery, Chain",St Louis,21 Adams St,"St Louis,  MO 63135"
ALDI,"Grocery, Chain",St Louis,2505 N US Highway 67,"Florissant,  MO 63033"
ALDI,"Grocery, Chain",St Louis,300 THF Blvd,"Chesterfield,  MO 63005"
ALDI,"Grocery, Chain",City of St Louis,3616 Natural Bridge Ave,"St Louis,  MO 63107"
ALDI,"Grocery, Chain",City of St Louis,3721 S Grand Blvd,"St Louis,  MO 63118"
ALDI,"Grocery, Chain",City of St Louis,3865 Gravois Ave,"St Louis,  MO 63116"
ALDI,"Grocery, Chain",City of St Louis,6601 Gravois Ave,"St Louis,  MO 63116"
ALDI,"Grocery, Chain",City of St Louis,702 N Kingshighway Blvd,"St Louis,  MO 63108"
ALDI,"Grocery, Chain",St Louis,7369 Watson Rd,"St Louis,  MO 63119"
ALDI,"Grocery, Chain",St Louis,7701 Olive Blvd,"St Louis,  MO 63130"
ALDI,"Grocery, Chain",St Louis,7725 Manchester Rd,"St Louis,  MO 63143"
ALDI,"Grocery, Chain",St Louis,8445 Lucas and Hunt Rd,"St Louis,  MO 63136"
ALDI,"Grocery, Chain",St Louis,9274 Watson Rd,"St Louis,  MO 63126"
ALDI USA,"Grocery, Local",St Louis,11296 W Florissant Ave,"Florissant,  MO 63033"
ALDI USA,"Grocery, Local",St Louis,60 Fenton Plz,"Fenton,  MO 63026"
Ali Market,"Grocery, Local",City of St Louis,5870 Dr Martin Luther King Dr,"St Louis,  MO 63112"
Ali Market,"Grocery, Local",St Louis,5870 Martin Luther King Blvd,"St Louis,  MO 63140"
Ali's Gateway Market,"Grocery, Local",City of St Louis,4104 W Lee Ave,"St Louis,  MO 63115"
Alliance Foods,"Grocery, Local",St Louis,4227 Earth City Expy S,"Earth City,  MO 63045"
Almustafa Supermarket,"Grocery, Local",City of St Louis,4648 Gravois Ave,"St Louis,  MO 63116"
Almustafa Supermarket,"Grocery, Local",City of St Louis,4656 Gravois Ave,"St Louis,  MO 63116"
Alps Supermarket,"Grocery, Local",St Louis,750 S New Florissant Rd,"Florissant,  MO 63031"
Alvira Investments,Convenience,St Louis,19 Marsally Dr,"St Louis,  MO 63131"
Ambica Food,"Grocery, Local",St Louis,12264 St Charles Rock Rd,"Bridgeton,  MO 63044"
Amish Country Store,Convenience,St Louis,8001 MacKenzie Rd,"St Louis,  MO 63123"
Ana's Plaza Latino,"Grocery, Local",St Louis,10627 Lackland Rd,"St Louis,  MO 63114"
Ana's Plaza Latino,"Grocery, Local",St Louis,10707 Margatehall Dr,"Bridgeton,  MO 63044"
Andy's Auto Care,Gas Station,St Louis,8101 W Florissant Ave,"St Louis,  MO 63136"
Andy's Seasoning,"Grocery, Local",City of St Louis,2829 Chouteau Ave,"St Louis,  MO 63103"
Annas Plaza Latina,"Grocery, Local",St Louis,11080 Midland Blvd,"St Louis,  MO 63114"
Apex Oil Company,Gas Station,St Louis,8235 Forsyth Blvd,"St Louis,  MO 63105"
Aqua Systems,"Grocery, Local",St Louis,625 Hanley Industrial Ct,"St Louis,  MO 63144"
Arch Cafe,Convenience,City of St Louis,11 N 4th St,"St Louis,  MO 63102"
Arch Energy,Gas Station,St Louis,14905 Clayton Rd,"Chesterfield,  MO 63017"
Arch Quick Mart,Convenience,City of St Louis,218 N 4th St,"St Louis,  MO 63102"
Arco Construction Company,Gas Station,St Louis,900 N Rock Hill Rd,"St Louis,  MO 63119"
Arcobasso Foods,"Grocery, Local",City of St Louis,8014 N Broadway,"St Louis,  MO 63147"
Arcobasso Foods,"Grocery, Local",St Louis,8850 Pershall Rd,"Hazelwood,  MO 63042"
Arctic Ice,"Grocery, Local",St Louis,1498 Kinark Dr,"St Louis,  MO 63132"
Arrow Marketing,"Grocery, Local",St Louis,152 Clarkson Executive Park,"Ballwin,  MO 63011"
Art Market,"Grocery, Local",City of St Louis,2921 N Newstead Ave,"St Louis,  MO 63115"
Arvin Auto Service,Gas Station,St Louis,15971 Manchester Rd,"Ballwin,  MO 63011"
Asia Market,"Grocery, Local",St Louis,1243 Castillons Arcade Plz,"St Louis,  MO 63141"
Asian Spices,"Grocery, Local",St Louis,1928 McKelvey Rd,"Maryland Heights,  MO 63043"
Asian World,"Grocery, Local",City of St Louis,3106 Cherokee St,"St Louis,  MO 63118"
At Your Convenience,"Grocery, Local",City of St Louis,1222 Spruce St,"St Louis,  MO 63103"
Audi-K's,"Grocery, Local",City of St Louis,235 N Euclid Ave,"St Louis,  MO 63108"
Awesome Dogz,Convenience,St Louis,4139 Les Cherbourg Ln,"Florissant,  MO 63034"
Aziz Market,"Grocery, Local",St Louis,15328 Manchester Rd,"Ballwin,  MO 63011"
B & B Supermarket,"Grocery, Local",City of St Louis,954 Goodfellow Blvd,"St Louis,  MO 63112"
Babylon Grocery and Bakery,"Grocery, Local",City of St Louis,3801 Meramec St,"St Louis,  MO 63116"
Baghdad Market,"Grocery, Local",City of St Louis,3730 S Grand Blvd,"St Louis,  MO 63118"
Balkan Store & Bakery,"Grocery, Local",St Louis,13393 Olive Blvd,"Chesterfield,  MO 63017"
Ballas & Clayton Amoco Service,Gas Station,St Louis,12200 Clayton Rd,"St Louis,  MO 63131"
Banners Plus,Convenience,St Louis,1820 Stenton Path,"Chesterfield,  MO 63005"
Barn,Convenience,St Louis,1015 S Sappington Rd,"St Louis,  MO 63126"
Barnes Jewish Hospital,"Pharmacy, Local",City of St Louis,1 Barnes-Jewish Hospital Plz,"St Louis,  MO 63110"
Barnes-Jewish Hospital,"Pharmacy, Local",City of St Louis,216 S Kingshighway Blvd,"St Louis,  MO 63110"
Barnett's Market,"Grocery, Local",City of St Louis,2600 Virginia Ave,"St Louis,  MO 63118"
Baron Spices,"Grocery, Local",City of St Louis,1440 Kentucky Ave,"St Louis,  MO 63110"
Batory Foods,"Grocery, Local",St Louis,1832 Denton Ridge Ct,"Chesterfield,  MO 63017"
Bel Ridge P66,Gas Station,St Louis,9068 Natural Bridge Rd,"St Louis,  MO 63121"
Belmont Partners St. Louis,"Grocery, Local",St Louis,614 Cepi Dr,"Chesterfield,  MO 63005"
Ben's Market,"Grocery, Local",St Louis,5200 Hamilton Ave,"St Louis,  MO 63136"
Best of Missouri Market,"Grocery, Local",City of St Louis,4344 Shaw Blvd,"St Louis,  MO 63110"
Betty Elbrecht NC,Convenience,St Louis,9519 Everman Ave,"St Louis,  MO 63114"
Betty's Mini Market,"Grocery, Local",City of St Louis,2829 Marcus Ave,"St Louis,  MO 63115"
Beverly Hills Grocery & Liquor,"Grocery, Local",St Louis,6714 Natural Bridge Rd,"St Louis,  MO 63121"
Beverly Hills Pharmacy,"Pharmacy, Local",St Louis,7150 Natural Bridge Rd,"St Louis,  MO 63121"
BHS Pharmacy,"Pharmacy, Local",St Louis,763 S New Ballas Rd,"St Louis,  MO 63141"
BHS Pharmacy,"Pharmacy, Local",St Louis,Weldon Ave,"St Louis,  MO 63121"
Bi-Lo,"Grocery, Local",City of St Louis,5440 Dr Martin Luther King Dr,"St Louis,  MO 63112"
BI-LO,"Grocery, Local",City of St Louis,1354 Clara Ave,"St Louis,  MO 63112"
Big Lots,"Grocery, Chain",St Louis,10415 St Charles Rock Rd,"St Ann,  MO 63074"
Big Lots,"Grocery, Chain",St Louis,14810 Manchester Rd,"Ballwin,  MO 63011"
Big Lots,"Grocery, Chain",St Louis,4433 Lemay Ferry Rd,"St Louis,  MO 63129"
Big Lots,"Grocery, Chain",City of St Louis,4930 Christy Blvd,"St Louis,  MO 63116"
Big Lots,"Grocery, Chain",St Louis,691 Gravois Bluffs Blvd,"Fenton,  MO 63026"
Big Lots,"Grocery, Chain",St Louis,8563 Watson Rd,"St Louis,  MO 63119"
Bijoux Chocolates,Convenience,St Louis,2570 Barrett Place Dr,"Ballwin,  MO 63021"
BJC Behavioral Health Services,"Pharmacy, Local",City of St Louis,1430 Olive St,"St Louis,  MO 63103"
BJC Healthcare Associates,"Pharmacy, Local",St Louis,3844 S Lindbergh Blvd,"St Louis,  MO 63127"
Blue Sky Nutrition,Convenience,St Louis,8 Grandview Plaza Shopping Ctr,"Florissant,  MO 63033"
Blueprint Coffee,Convenience,City of St Louis,6225 Delmar Blvd,"St Louis,  MO 63130"
Bodega Mexicana Wholesale,"Grocery, Local",City of St Louis,6060 Manchester Ave,"St Louis,  MO 63110"
Bolyard's Meat & Provisions,"Grocery, Local",St Louis,2810 Sutton Blvd,"St Louis,  MO 63143"
Bombay Bazar,"Grocery, Local",St Louis,1761 Clarkson Rd,"Chesterfield,  MO 63017"
BP,Gas Station,St Louis,1 S Lindbergh Blvd,"St Louis,  MO 63141"
BP,Gas Station,St Louis,1032 S Florissant Rd,"St Louis,  MO 63135"
BP,Gas Station,St Louis,10500 Natural Bridge Rd,"St Louis,  MO 63134"
BP,Gas Station,St Louis,10633 New Halls Ferry Rd,"St Louis,  MO 63136"
BP,Gas Station,St Louis,10844 Bellefontaine Rd,"St Louis,  MO 63137"
BP,Gas Station,St Louis,10850 Manchester Rd,"St Louis,  MO 63122"
BP,Gas Station,St Louis,110 Long Rd,"Chesterfield,  MO 63005"
BP,Gas Station,City of St Louis,1104 Hampton Ave,"St Louis,  MO 63139"
BP,Gas Station,City of St Louis,1110 Salisbury St,"St Louis,  MO 63107"
BP,Gas Station,City of St Louis,1187 S Kingshighway Blvd,"St Louis,  MO 63110"
BP,Gas Station,St Louis,11940 Tesson Ferry Rd,"St Louis,  MO 63128"
BP,Gas Station,St Louis,12095 Benham Rd,"St Louis,  MO 63138"
BP,Gas Station,St Louis,1212 Fee Fee Rd,"St Louis,  MO 63146"
BP,Gas Station,St Louis,12815 New Halls Ferry Rd,"Florissant,  MO 63033"
BP,Gas Station,City of St Louis,1401 Chouteau Ave,"St Louis,  MO 63103"
BP,Gas Station,St Louis,1491 Kienlen Ave,"St Louis,  MO 63133"
BP,Gas Station,City of St Louis,1551 S Grand Blvd,"St Louis,  MO 63110"
BP,Gas Station,St Louis,18403 Convenience Way,"Chesterfield,  MO 63005"
BP,Gas Station,City of St Louis,2005 N Florissant Ave,"St Louis,  MO 63106"
BP,Gas Station,City of St Louis,205 S Vandeventer Ave,"St Louis,  MO 63110"
BP,Gas Station,St Louis,2400 Highway 109,"Wildwood,  MO 63040"
BP,Gas Station,St Louis,28 Clarkson Rd,"Ballwin,  MO 63011"
BP,Gas Station,St Louis,300 Highway 109,"Chesterfield,  MO 63005"
BP,Gas Station,City of St Louis,300 S Jefferson Ave,"St Louis,  MO 63103"
BP,Gas Station,City of St Louis,3140 Olive St,"St Louis,  MO 63103"
BP,Gas Station,St Louis,3157 S Brentwood Blvd,"St Louis,  MO 63119"
BP,Gas Station,City of St Louis,3258 S Jefferson Ave,"St Louis,  MO 63118"
BP,Gas Station,City of St Louis,3868 Dr Martin Luther King Dr,"St Louis,  MO 63106"
BP,Gas Station,St Louis,388 Lamp and Lantern Vlg,"Chesterfield,  MO 63017"
BP,Gas Station,St Louis,4036 Bayless Ave,"St Louis,  MO 63125"
BP,Gas Station,St Louis,4095 N US-67,"Florissant,  MO 63034"
BP,Gas Station,City of St Louis,4126 W Florissant Ave,"St Louis,  MO 63115"
BP,Gas Station,St Louis,420 Howdershell Rd,"Florissant,  MO 63031"
BP,Gas Station,St Louis,4207 Jennings Station Rd,"St Louis,  MO 63121"
BP,Gas Station,St Louis,425 N US Highway 67,"Florissant,  MO 63031"
BP,Gas Station,City of St Louis,4403 Laclede Ave,"St Louis,  MO 63108"
BP,Gas Station,St Louis,4403 N Hanley Rd,"St Louis,  MO 63134"
BP,Gas Station,St Louis,4504 S Lindbergh Blvd,"St Louis,  MO 63127"
BP,Gas Station,City of St Louis,4700 Bircher Blvd,"St Louis,  MO 63115"
BP,Gas Station,City of St Louis,5003 Goodfellow Blvd,"St Louis,  MO 63136"
BP,Gas Station,City of St Louis,5003 Natural Bridge Ave,"St Louis,  MO 63115"
BP,Gas Station,City of St Louis,504 Bates St,"St Louis,  MO 63111"
BP,Gas Station,St Louis,6250 Howdershell Rd,"Hazelwood,  MO 63042"
BP,Gas Station,St Louis,6700 Olive Blvd,"St Louis,  MO 63130"
BP,Gas Station,St Louis,6701 Natural Bridge Rd,"St Louis,  MO 63121"
BP,Gas Station,City of St Louis,6901 Hampton Ave,"St Louis,  MO 63109"
BP,Gas Station,City of St Louis,7003 Manchester Ave,"St Louis,  MO 63143"
BP,Gas Station,City of St Louis,701 Russell Blvd,"St Louis,  MO 63104"
BP,Gas Station,City of St Louis,710 Goodfellow Blvd,"St Louis,  MO 63112"
BP,Gas Station,St Louis,7201 Watson Rd,"St Louis,  MO 63119"
BP,Gas Station,St Louis,7329 St Charles Rock Rd,"St Louis,  MO 63133"
BP,Gas Station,St Louis,7360 Forsyth Blvd,"St Louis,  MO 63105"
BP,Gas Station,St Louis,7830 Clayton Rd,"St Louis,  MO 63117"
BP,Gas Station,St Louis,7996 Big Bend Blvd,"St Louis,  MO 63119"
BP,Gas Station,St Louis,8501 Morganford Rd,"St Louis,  MO 63123"
BP,Gas Station,City of St Louis,902 S Broadway,"St Louis,  MO 63102"
BP,Gas Station,St Louis,909 Chesterfield Pkwy E,"Chesterfield,  MO 63017"
BP,Gas Station,St Louis,9102 Halls Ferry Rd,"St Louis,  MO 63136"
BP,Gas Station,St Louis,9666 Watson Rd,"St Louis,  MO 63126"
BP,Gas Station,St Louis,9680 Olive Blvd,"St Louis,  MO 63132"
BP,Gas Station,St Louis,9720 Manchester Rd,"St Louis,  MO 63119"
BP,Gas Station,St Louis,9791 Page Ave,"St Louis,  MO 63132"
BP,Gas Station,City of St Louis,981 S Skinker Blvd,"St Louis,  MO 63105"
BP Natural Bridge,"Grocery, Local",St Louis,7430 Natural Bridge Rd,"St Louis,  MO 63121"
Brandi's Market,"Grocery, Local",City of St Louis,3659 Nebraska Ave,"St Louis,  MO 63118"
Breadsmith,"Grocery, Local",St Louis,10031 Manchester Rd,"St Louis,  MO 63122"
Brennan's,"Grocery, Local",City of St Louis,4659 Maryland Ave,"St Louis,  MO 63108"
Brick City Gardens,"Grocery, Local",St Louis,7515 Gannon Ave,"St Louis,  MO 63130"
Brickner-Galvin Enterprises,"Grocery, Local",St Louis,7181 Manchester Rd,"St Louis,  MO 63143"
Broadway Mart,Convenience,City of St Louis,4214 S Broadway,"St Louis,  MO 63111"
Broadway Mart,Gas Station,City of St Louis,6020 N Broadway,"St Louis,  MO 63147"
Broadway Meat Market,"Grocery, Local",City of St Louis,8306 N Broadway,"St Louis,  MO 63147"
Bru Tea LL,Convenience,City of St Louis,3320 Meramec St,"St Louis,  MO 63118"
Bucks,Gas Station,St Louis,8665 Big Bend Blvd,"St Louis,  MO 63119"
Buster's Service Station,Gas Station,City of St Louis,4118 N Florissant Ave,"St Louis,  MO 63107"
Butler Hill Gas & Food,Gas Station,St Louis,5204 Lemay Ferry Rd,"St Louis,  MO 63129"
Butterflies by God,Convenience,St Louis,1727 Parkway Acres Ct,"Maryland Heights,  MO 63043"
Cackle Farms,"Grocery, Local",St Louis,6845 Teson Rd,"Hazelwood,  MO 63042"
Cafe Blue,Convenience,St Louis,3140 Pershall Rd,"St Louis,  MO 63136"
Cafe Cornucopia,Gas Station,St Louis,7733 Forsyth Blvd,"St Louis,  MO 63105"
Caliber Coffee,Convenience,St Louis,Alberici Ave,"St Louis,  MO 63121"
California Grill,"Grocery, Local",City of St Louis,4164 S Grand Blvd,"St Louis,  MO 63118"
Camy Distributors,Convenience,St Louis,10409 St Charles Rock Rd,"St Ann,  MO 63074"
Capital Grille,Gas Station,St Louis,101 S Hanley Rd,"St Louis,  MO 63105"
Caramel House,Convenience,St Louis,9639 Olive Blvd,"St Louis,  MO 63132"
Cardio Pulmonary Research,"Pharmacy, Local",St Louis,222 S Woods Mill Rd,"Chesterfield,  MO 63017"
Care Plus Pharmacy,"Pharmacy, Local",City of St Louis,32 N Euclid Ave,"St Louis,  MO 63108"
Care STL Health,"Pharmacy, Local",City of St Louis,5471 Dr Martin Luther King Dr,"St Louis,  MO 63112"
Carniceria Latino Americana,"Grocery, Local",City of St Louis,2800 Cherokee St,"St Louis,  MO 63118"
Carrie's Corner Market,"Grocery, Local",City of St Louis,4500 Athlone Ave,"St Louis,  MO 63115"
Central Market,"Grocery, Local",City of St Louis,4162 N Newstead Ave,"St Louis,  MO 63115"
Ceta International Market,Convenience,St Louis,11683 W Florissant Ave,"Florissant,  MO 63033"
Charbonier Service,Gas Station,St Louis,520 Shackelford Rd,"Florissant,  MO 63031"
Charlie's Food Mart,"Grocery, Local",St Louis,12316 Bellefontaine Rd,"St Louis,  MO 63138"
Cheap Cheap,Gas Station,St Louis,1375 Dunn Rd,"St Louis,  MO 63138"
Cherokee Food Market,"Grocery, Local",City of St Louis,2850 Cherokee St,"St Louis,  MO 63118"
Cherrick L Horseradish,"Grocery, Local",City of St Louis,2020 N 9th St,"St Louis,  MO 63102"
Childrens Hospital,"Pharmacy, Local",City of St Louis,1 Children's Pl,"St Louis,  MO 63110"
China Town Market,"Grocery, Local",St Louis,8150 Olive Blvd,"St Louis,  MO 63130"
Chino's Snack Shop,Convenience,City of St Louis,706 Union Blvd,"St Louis,  MO 63108"
Chippewa Market,"Grocery, Local",City of St Louis,3025 Chippewa St,"St Louis,  MO 63118"
Chizom's Food Mart,"Grocery, Local",City of St Louis,4132 Dr Martin Luther King Dr,"St Louis,  MO 63113"
Cho Saigon Market,"Grocery, Local",City of St Louis,3127 Cherokee St,"St Louis,  MO 63118"
"Chocolate, Chocolate, Chocolate","Grocery, Local",St Louis,112 N Kirkwood Rd,"St Louis,  MO 63122"
CHP Blenders,"Grocery, Local",City of St Louis,1350 S Kingshighway Blvd,"St Louis,  MO 63110"
Christy Metro,Convenience,City of St Louis,9000 Riverview Dr,"St Louis,  MO 63137"
Christy's Fuel,Gas Station,City of St Louis,8430 Hall St,"St Louis,  MO 63147"
Cioci S Picture Mart,Convenience,St Louis,10400 Manchester Rd,"St Louis,  MO 63122"
Circle K,Convenience,St Louis,S Lindbergh Blvd,"St Louis,  MO 63127"
Circle K,Gas Station,St Louis,100 Old Towne Dr,"Eureka,  MO 63025"
Circle K,Gas Station,St Louis,1000 Bowles Ave,"Fenton,  MO 63026"
Circle K,Gas Station,St Louis,10691 St Charles Rock Rd,"St Ann,  MO 63074"
Circle K,Gas Station,St Louis,11011 Bellefontaine Rd,"St Louis,  MO 63138"
Circle K,Gas Station,St Louis,11077 Olive Blvd,"St Louis,  MO 63141"
Circle K,Gas Station,St Louis,1108 S Florissant Rd,"St Louis,  MO 63121"
Circle K,Gas Station,St Louis,11201 Old Saint Charles Rd,"Bridgeton,  MO 63044"
Circle K,Gas Station,St Louis,13655 Manchester Rd,"St Louis,  MO 63131"
Circle K,Gas Station,St Louis,1402 S Hanley Rd,"St Louis,  MO 63144"
Circle K,Gas Station,St Louis,1435 S Kirkwood Rd,"St Louis,  MO 63127"
Circle K,Gas Station,St Louis,14804 Clayton Rd,"Chesterfield,  MO 63017"
Circle K,Gas Station,City of St Louis,1514 Hampton Ave,"St Louis,  MO 63139"
Circle K,Gas Station,St Louis,1545 S New Florissant Rd,"Florissant,  MO 63031"
Circle K,Gas Station,St Louis,15530 Olive Blvd,"Chesterfield,  MO 63017"
Circle K,Gas Station,St Louis,18181 Old US-66,"Eureka,  MO 63025"
Circle K,Gas Station,St Louis,18201 Highway 66,"Pacific,  MO 63069"
Circle K,Gas Station,St Louis,1940 Union Rd,"St Louis,  MO 63125"
Circle K,Gas Station,St Louis,1999 McKelvey Rd,"Maryland Heights,  MO 63043"
Circle K,Gas Station,St Louis,2090 Craig Rd,"St Louis,  MO 63146"
Circle K,Gas Station,City of St Louis,2105 Hampton Ave,"St Louis,  MO 63139"
Circle K,Gas Station,City of St Louis,2707 McCausland Ave,"St Louis,  MO 63143"
Circle K,Gas Station,St Louis,280 Vance Rd,"Valley Park,  MO 63088"
Circle K,Gas Station,City of St Louis,3282 Jamieson Ave,"St Louis,  MO 63139"
Circle K,Gas Station,St Louis,3294 Telegraph Rd,"St Louis,  MO 63125"
Circle K,Gas Station,City of St Louis,35 S Grand Blvd,"St Louis,  MO 63103"
Circle K,Gas Station,St Louis,4089 Telegraph Rd,"St Louis,  MO 63129"
Circle K,Gas Station,St Louis,4132 N US-67,"Florissant,  MO 63034"
Circle K,Gas Station,St Louis,5253 Mattis Rd,"St Louis,  MO 63128"
Circle K,Gas Station,St Louis,5590 Telegraph Rd,"St Louis,  MO 63129"
Circle K,Gas Station,St Louis,595 Big Bend Rd,"Ballwin,  MO 63021"
Circle K,Gas Station,St Louis,7449 Olive Blvd,"St Louis,  MO 63130"
Circle K,Gas Station,St Louis,8199 Manchester Rd,"St Louis,  MO 63144"
Circle K,Gas Station,St Louis,8600 Watson Rd,"St Louis,  MO 63119"
Circle K,Gas Station,St Louis,900 Brookwood Ctr,"Fenton,  MO 63026"
Circle K,Gas Station,St Louis,9311 S Broadway,"St Louis,  MO 63125"
Circle K,Gas Station,St Louis,9931 Watson Rd,"St Louis,  MO 63126"
Circle K,Gas Station,St Louis,9950 Big Bend Blvd,"St Louis,  MO 63122"
Circle K,Gas Station,St Louis,9998 Tesson Ferry Rd,"St Louis,  MO 63123"
Circle of Knowledge,Convenience,St Louis,10980 Sunset Hills Plz,"St Louis,  MO 63127"
CITGO,Gas Station,St Louis,8536 Natural Bridge Rd,"St Louis,  MO 63121"
CITGO,Gas Station,St Louis,9725 Lackland Rd,"St Louis,  MO 63114"
City Green Market,"Grocery, Local",City of St Louis,4260 Manchester Ave,"St Louis,  MO 63110"
City Grocers,"Grocery, Local",City of St Louis,920 Olive St,"St Louis,  MO 63101"
City Market Emporium,"Grocery, Local",City of St Louis,4251 E Margaretta Ave,"St Louis,  MO 63115"
City Super Market,"Grocery, Local",City of St Louis,4331 Natural Bridge Ave,"St Louis,  MO 63115"
Citygrocery and Bakery,"Grocery, Local",City of St Louis,4043 Gravois Ave,"St Louis,  MO 63116"
Closed Door Pharmacy,"Pharmacy, Local",St Louis,,"St Louis,  MO 63128"
Cobra Wheels,Gas Station,St Louis,6879 Howdershell Rd,"Hazelwood,  MO 63042"
Colonial Village Pharmacy,"Pharmacy, Local",St Louis,7945 Big Bend Blvd,"St Louis,  MO 63119"
Columbia Auto Repair,Gas Station,City of St Louis,5335 Southwest Ave,"St Louis,  MO 63139"
Comic Grind,Convenience,St Louis,1507 Lanvale Dr,"St Louis,  MO 63119"
Commercial Coffee & Snack Service,Convenience,St Louis,2345 Grissom Dr,"St Louis,  MO 63146"
Community Pharmacy,"Pharmacy, Local",City of St Louis,115 N Euclid Ave,"St Louis,  MO 63108"
Community Pharmacy,"Pharmacy, Local",St Louis,628 N New Ballas Rd,"St Louis,  MO 63141"
Complete RX,"Pharmacy, Local",St Louis,16363 Lakefield Place Dr,"Wildwood,  MO 63040"
Complete Supplements B,Convenience,St Louis,739 N US Highway 67,"Florissant,  MO 63031"
Con Agra Dairy Foods,"Grocery, Local",St Louis,8501 Page Ave,"St Louis,  MO 63114"
Conaco Gravois,Gas Station,City of St Louis,6977 Gravois Ave,"St Louis,  MO 63116"
Concordia College D/B/A/ Conco,Convenience,St Louis,801 Seminary Pl,"St Louis,  MO 63105"
Conoco,Gas Station,St Louis,10320 Bellefontaine Rd,"St Louis,  MO 63137"
Conoco,Gas Station,St Louis,11603 Gravois Rd,"St Louis,  MO 63126"
Conoco,Gas Station,St Louis,1210 S Florissant Rd,"St Louis,  MO 63121"
Conoco,Gas Station,St Louis,1800 Lucas and Hunt Rd,"St Louis,  MO 63121"
Conoco,Gas Station,St Louis,1910 Woodson Rd,"St Louis,  MO 63114"
Conoco,Gas Station,City of St Louis,2323 S Jefferson Ave,"St Louis,  MO 63104"
Conoco,Gas Station,St Louis,2401 Chambers Rd,"St Louis,  MO 63136"
Conoco,Gas Station,St Louis,2965 Telegraph Rd,"St Louis,  MO 63125"
Conoco,Gas Station,City of St Louis,3165 S Kingshighway Blvd,"St Louis,  MO 63139"
Conoco,Gas Station,City of St Louis,4355 S Broadway,"St Louis,  MO 63111"
Conoco,Gas Station,City of St Louis,4560 N Broadway,"St Louis,  MO 63147"
Conoco,Gas Station,City of St Louis,4903 Goodfellow Blvd,"St Louis,  MO 63136"
Conoco,Gas Station,St Louis,525 N New Florissant Rd,"Florissant,  MO 63031"
Conoco,Gas Station,St Louis,8433 Page Ave,"St Louis,  MO 63130"
Conoco,Gas Station,St Louis,Jennings Station Rd,"St Louis,  MO 63121"
Conscious Apothecary L,Convenience,City of St Louis,2631 Oregon Ave,"St Louis,  MO 63118"
Continental Grocery,"Grocery, Local",City of St Louis,2808 Chippewa St,"St Louis,  MO 63118"
Corerind,Convenience,City of St Louis,3940 McDonald Ave,"St Louis,  MO 63116"
Corner Market,"Grocery, Local",St Louis,700 St Louis Ave,"Valley Park,  MO 63088"
Cornucopia,"Grocery, Local",St Louis,107 N Kirkwood Rd,"St Louis,  MO 63122"
Corum Health Services,"Pharmacy, Local",St Louis,14805 N Outer Forty Rd,"Chesterfield,  MO 63017"
Cost Plus World Market,"Grocery, Local",St Louis,238 THF Blvd,"Chesterfield,  MO 63005"
Cost Plus World Market,"Grocery, Local",St Louis,24 Brentwood Promenade Ct,"St Louis,  MO 63144"
Cost To Cost Supermarket,"Grocery, Local",City of St Louis,5805 Natural Bridge Ave,"St Louis,  MO 63120"
Costco,"Grocery, Chain",St Louis,301 Highlands Boulevard Dr,"Ballwin,  MO 63011"
Costco,"Grocery, Chain",St Louis,4200 Rusty Rd,"St Louis,  MO 63128"
Country Mart,"Grocery, Local",City of St Louis,915 Washington Ave,"St Louis,  MO 63101"
Covenant Theological Center,Convenience,St Louis,478 Covenant Ln,"St Louis,  MO 63141"
Crispy Edge,Convenience,City of St Louis,4168 Juniata St,"St Louis,  MO 63116"
Croquetter,"Grocery, Local",City of St Louis,4749 Westminster Pl,"St Louis,  MO 63108"
Crown 7,Convenience,St Louis,6211 N Lindbergh Blvd,"Hazelwood,  MO 63042"
Crown Mart,"Grocery, Local",City of St Louis,2501 N Grand Blvd,"St Louis,  MO 63106"
Crown Mart - 5558 MLK,Convenience,City of St Louis,5558 Dr Martin Luther King Dr,"St Louis,  MO 63112"
Crown Mart 15,Convenience,City of St Louis,Dr Martin Luther King Dr,"St Louis,  MO 63106"
Crown Mart 6,Convenience,City of St Louis,1513 N 13th St,"St Louis,  MO 63106"
Crown Square Market,"Grocery, Local",City of St Louis,2600 N 14th St,"St Louis,  MO 63106"
Crownway Mart,"Grocery, Local",St Louis,3161 Ashby Rd,"St Ann,  MO 63074"
Crownway Mart,"Grocery, Local",St Louis,9790 Natural Bridge Rd,"St Louis,  MO 63134"
Cupcake Fetishstl,"Grocery, Local",St Louis,100 St Francois St,"Florissant,  MO 63031"
Custards 1st Stand,"Grocery, Local",St Louis,4599 Chestnut Park Plz,"St Louis,  MO 63129"
CVS,"Pharmacy, Chain",St Louis,1042 S Kirkwood Rd,"St Louis,  MO 63122"
CVS,"Pharmacy, Chain",St Louis,10820 Manchester Rd,"St Louis,  MO 63122"
CVS,"Pharmacy, Chain",St Louis,11560 Olive Blvd,"St Louis,  MO 63141"
CVS,"Pharmacy, Chain",St Louis,12380 St Charles Rock Rd,"Bridgeton,  MO 63044"
CVS,"Pharmacy, Chain",St Louis,1272 Town and Country Crossing Dr,"Chesterfield,  MO 63017"
CVS,"Pharmacy, Chain",St Louis,14400 Clayton Rd,"Ballwin,  MO 63011"
CVS,"Pharmacy, Chain",St Louis,15025 Manchester Rd,"Ballwin,  MO 63011"
CVS,"Pharmacy, Chain",St Louis,1550 S New Florissant Rd,"Florissant,  MO 63031"
CVS,"Pharmacy, Chain",St Louis,15846 Manchester Rd,"Ballwin,  MO 63011"
CVS,"Pharmacy, Chain",St Louis,197 Gravois Bluffs Plaza Dr,"Fenton,  MO 63026"
CVS,"Pharmacy, Chain",St Louis,197 Gravois Bluffs Plaza Dr,"Fenton,  MO 63026"
CVS,"Pharmacy, Chain",St Louis,25 Brentwood Promenade Ct,"St Louis,  MO 63144"
CVS,"Pharmacy, Chain",City of St Louis,3925 Lindell Blvd,"St Louis,  MO 63108"
CVS,"Pharmacy, Chain",St Louis,40 THF Blvd,"Chesterfield,  MO 63005"
CVS,"Pharmacy, Chain",City of St Louis,4100 Gravois Ave,"St Louis,  MO 63116"
CVS,"Pharmacy, Chain",St Louis,4250 Rusty Rd,"St Louis,  MO 63128"
CVS,"Pharmacy, Chain",City of St Louis,4255 Hampton Ave,"St Louis,  MO 63109"
CVS,"Pharmacy, Chain",St Louis,696 N US Highway 67,"Florissant,  MO 63031"
CVS,"Pharmacy, Chain",St Louis,6999 Parker Rd,"Florissant,  MO 63033"
CVS,"Pharmacy, Chain",City of St Louis,7320 Gravois Ave,"St Louis,  MO 63116"
CVS,"Pharmacy, Chain",St Louis,7334 S Lindbergh Blvd,"St Louis,  MO 63125"
CVS,"Pharmacy, Chain",St Louis,7470 Manchester Rd,"St Louis,  MO 63143"
CVS,"Pharmacy, Chain",St Louis,8101 Clayton Rd,"St Louis,  MO 63117"
CVS,"Pharmacy, Chain",St Louis,8201,"St Louis,  MO 63119"
CVS,"Pharmacy, Chain",St Louis,8915 St Charles Rock Rd,"St Louis,  MO 63114"
CVS,"Pharmacy, Chain",St Louis,9141 Olive Blvd,"St Louis,  MO 63132"
CVS,"Pharmacy, Chain",St Louis,9433 Manchester Rd,"St Louis,  MO 63119"
D J's Mini Mart,Convenience,City of St Louis,1403 Union Blvd,"St Louis,  MO 63113"
D Mart,Convenience,St Louis,2664 S Big Bend Blvd,"St Louis,  MO 63143"
Dado Market,"Grocery, Local",St Louis,3533 Ritz Ctr,"St Louis,  MO 63125"
Dado's Cafe,"Grocery, Local",City of St Louis,5425 Hampton Ave,"St Louis,  MO 63109"
Dans Liquor,"Grocery, Local",St Louis,98 The Legends Pkwy,"Eureka,  MO 63025"
David Street Market & Deli,"Grocery, Local",City of St Louis,8125 Michigan Ave,"St Louis,  MO 63111"
Dellwood Market,"Grocery, Local",St Louis,1620 Chambers Rd,"St Louis,  MO 63136"
Delmar Market,Convenience,City of St Louis,4209 Delmar Blvd,"St Louis,  MO 63108"
Dennis G. Glore,"Grocery, Local",St Louis,120 S Virginia Ave,"Eureka,  MO 63025"
Des Peres Healthmart Pharmacy,"Pharmacy, Local",St Louis,2345,"St Louis,  MO 63122"
Desta's Market & Deli,Convenience,City of St Louis,2503 N Taylor Ave,"St Louis,  MO 63113"
Devoted Homecare,"Grocery, Local",St Louis,320 Brookes Dr,"Hazelwood,  MO 63042"
Diamond Drive Deli,Convenience,St Louis,1080 Lees Ln,"Florissant,  MO 63031"
Dierbergs Market,"Grocery, Chain",St Louis,1080 Lindemann Rd,"St Louis,  MO 63131"
Dierbergs Market,"Grocery, Chain",St Louis,11298 W Florissant Ave,"Florissant,  MO 63033"
Dierbergs Market,"Grocery, Chain",St Louis,11481 Olive Blvd,"St Louis,  MO 63141"
Dierbergs Market,"Grocery, Chain",St Louis,12420 Tesson Ferry Rd,"St Louis,  MO 63128"
Dierbergs Market,"Grocery, Chain",St Louis,12595 Olive Blvd,"St Louis,  MO 63141"
Dierbergs Market,"Grocery, Chain",St Louis,1322 Clarkson Clayton Ctr,"Ballwin,  MO 63011"
Dierbergs Market,"Grocery, Chain",St Louis,15201 Olive Blvd,"Chesterfield,  MO 63017"
Dierbergs Market,"Grocery, Chain",St Louis,16690 Swingley Ridge Rd,"Chesterfield,  MO 63017"
Dierbergs Market,"Grocery, Chain",St Louis,1730 Clarkson Rd,"Chesterfield,  MO 63017"
Dierbergs Market,"Grocery, Chain",St Louis,2460 Taylor Rd,"Wildwood,  MO 63040"
Dierbergs Market,"Grocery, Chain",St Louis,2460,"Wildwood,  MO 63040"
Dierbergs Market,"Grocery, Chain",St Louis,2516 Lemay Ferry Rd,"St Louis,  MO 63125"
Dierbergs Market,"Grocery, Chain",St Louis,3400 Hollenberg Dr,"Bridgeton,  MO 63044"
Dierbergs Market,"Grocery, Chain",St Louis,421 Lafayette Ctr,"Ballwin,  MO 63011"
Dierbergs Market,"Grocery, Chain",St Louis,450 Old Smizer Mill Rd,"Fenton,  MO 63026"
Dierbergs Market,"Grocery, Chain",St Louis,5640 Telegraph Rd,"St Louis,  MO 63129"
Dierbergs Market,"Grocery, Chain",St Louis,7233 Watson Rd,"St Louis,  MO 63119"
Dierbergs Market,"Grocery, Chain",St Louis,8 Four Seasons Shopping Ctr,"Chesterfield,  MO 63017"
Dierbergs Market,"Grocery, Chain",St Louis,8450 Eager Rd,"St Louis,  MO 63144"
Dierbergs Market,"Grocery, Chain",St Louis,9901 Manchester Rd,"St Louis,  MO 63119"
Digregorio's Market,"Grocery, Local",City of St Louis,5200 Daggett Ave,"St Louis,  MO 63110"
Dine Slu,"Grocery, Local",City of St Louis,221 N Grand Blvd,"St Louis,  MO 63103"
Dino's Deli,"Grocery, Local",St Louis,13729 Riverport Dr,"Maryland Heights,  MO 63043"
Ditalia,"Grocery, Local",City of St Louis,1401 S Boyle Ave,"St Louis,  MO 63110"
Dohmen Life Science Services,"Pharmacy, Local",St Louis,17877 Chesterfield Airport Rd,"Chesterfield,  MO 63005"
Don's Meat Market,"Grocery, Local",City of St Louis,4012 S Broadway,"St Louis,  MO 63118"
Down Right Goo,Convenience,City of St Louis,1019 Skinker Pkwy,"St Louis,  MO 63112"
Dr J's Market,"Grocery, Local",City of St Louis,3918 Page Blvd,"St Louis,  MO 63113"
Dr King Market,Convenience,St Louis,6166 Dr Martin Luther King Dr,"St Louis,  MO 63133"
Dream Market,Convenience,City of St Louis,5382 Dr Martin Luther King Dr,"St Louis,  MO 63112"
DS Market,"Grocery, Local",St Louis,6800 Olive Blvd,"St Louis,  MO 63130"
Duck in Market,Convenience,St Louis,324 St Louis Ave,"Valley Park,  MO 63088"
Duke Manufacturing,"Grocery, Local",City of St Louis,2305 N Broadway,"St Louis,  MO 63102"
Durango Grocery Store,"Grocery, Local",St Louis,10232 Page Ave,"St Louis,  MO 63132"
Dynamic Vending,"Grocery, Local",St Louis,5433 Eagle Industrial Ct,"Hazelwood,  MO 63042"
E&L Market,"Grocery, Local",City of St Louis,5120 Thekla Ave,"St Louis,  MO 63115"
Eagle's Nest Cafe,Convenience,City of St Louis,111 S 10th St,"St Louis,  MO 63102"
East East Oriental Grocery Store,"Grocery, Local",St Louis,8619 Olive Blvd,"St Louis,  MO 63132"
East Oriental Grocery Store,"Grocery, Local",St Louis,13365 Olive Blvd,"Chesterfield,  MO 63017"
Eberhart Pharmacy,"Pharmacy, Local",St Louis,4221 Bayless Ave,"St Louis,  MO 63123"
Eckert's St Louis Farm Market,"Grocery, Local",St Louis,11520 Gravois Rd,"St Louis,  MO 63126"
Economic Shop,"Grocery, Local",City of St Louis,2819 Cherokee St,"St Louis,  MO 63118"
Edible Arrangements,Convenience,St Louis,8151 Delmar Blvd,"St Louis,  MO 63130"
Edibles & Essentials,Convenience,City of St Louis,5815 Hampton Ave,"St Louis,  MO 63109"
Edmond's Chile,"Grocery, Local",City of St Louis,3236 Oregon Ave,"St Louis,  MO 63118"
El Burro Loco,"Grocery, Local",City of St Louis,313 N Euclid Ave,"St Louis,  MO 63108"
El Capral Mexican Grocery,"Grocery, Local",City of St Louis,2817 Cherokee St,"St Louis,  MO 63118"
El Morelia Super Mercado,"Grocery, Local",St Louis,12005 St Charles Rock Rd,"Bridgeton,  MO 63044"
El Pueblito,"Grocery, Local",St Louis,26 Stonegate Ctr,"Valley Park,  MO 63088"
El Rey Cooked Meats,"Grocery, Local",St Louis,6190 Bermuda Dr,"St Louis,  MO 63135"
El Toluco Taqueria & Grocery,"Grocery, Local",St Louis,14234 Manchester Rd,"Ballwin,  MO 63011"
El Torito,"Grocery, Local",City of St Louis,2753 Cherokee St,"St Louis,  MO 63118"
El Torito Supermarket,"Grocery, Local",City of St Louis,Lewis Pl,"St Louis,  MO 63113"
El Zocalo,"Grocery, Local",St Louis,2840 Woodson Rd,"St Louis,  MO 63114"
Elite Supermarket and Grill,"Grocery, Local",City of St Louis,8337 N Broadway,"St Louis,  MO 63147"
Ellisville Athletic Association,Convenience,St Louis,2301 Westhills Park Dr,"Ballwin,  MO 63011"
Emerson Market,"Grocery, Local",City of St Louis,4973 Emerson Ave,"St Louis,  MO 63120"
Energy Express,Gas Station,City of St Louis,1301 Hampton Ave,"St Louis,  MO 63139"
Energy Express 2,Gas Station,St Louis,W Lockwood Ave,"St Louis,  MO 63119"
Energy Express Travel Center,Gas Station,City of St Louis,4500 N Broadway,"St Louis,  MO 63147"
Esso Express,Gas Station,St Louis,,"Chesterfield,  MO 63005"
Estelle Foods,Convenience,City of St Louis,1119 N Tucker Blvd,"St Louis,  MO 63101"
Euclid A G Market,"Grocery, Local",City of St Louis,2318 N Euclid Ave,"St Louis,  MO 63113"
Eureka Market,"Grocery, Local",St Louis,225 Thresher Dr,"Eureka,  MO 63025"
Europa Market,Convenience,City of St Louis,5005 Gravois Ave,"St Louis,  MO 63116"
Europa Market Import Foods,"Grocery, Local",City of St Louis,8100 Water St,"St Louis,  MO 63111"
European Delicatessen,Convenience,St Louis,122 4 Seasons Shopping Ctr,"Chesterfield,  MO 63017"
European Delicatessen,"Grocery, Local",St Louis,10477 Old Olive St Rd,"St Louis,  MO 63141"
Everydaycircus,Convenience,St Louis,1703 Connemara Dr,"Ballwin,  MO 63021"
Express,Gas Station,St Louis,158 West County Ctr,"St Louis,  MO 63131"
Express,Gas Station,St Louis,18521 Outlet Blvd,"Chesterfield,  MO 63005"
Express,Gas Station,St Louis,2460 St Louis Galleria,"St Louis,  MO 63117"
Express Lane Market,Convenience,City of St Louis,3846 Keokuk St,"St Louis,  MO 63116"
Express Market,"Grocery, Local",City of St Louis,3016 Dr Martin Luther King Dr,"St Louis,  MO 63106"
Express Scripts,"Pharmacy, Local",St Louis,14000 Riverport Dr,"Maryland Heights,  MO 63043"
Express Scripts,"Pharmacy, Local",St Louis,4600 N Hanley Rd,"St Louis,  MO 63134"
Expressscripts,"Pharmacy, Local",St Louis,1 Express Way,"St Louis,  MO 63121"
Extra Virgin an Olive Ovation,"Grocery, Local",St Louis,8829 Ladue Rd,"St Louis,  MO 63124"
Exxon,Gas Station,St Louis,12785 New Halls Ferry Rd,"Florissant,  MO 63033"
Exxon,Gas Station,St Louis,4402 Jennings Station Rd,"St Louis,  MO 63121"
Exxon,Gas Station,St Louis,932 Lemay Ferry Rd,"St Louis,  MO 63125"
Exxonmobil,Gas Station,St Louis,9371 Olive Blvd,"St Louis,  MO 63132"
EZ Quick Mart,Convenience,St Louis,80 Meramec Valley Plz,"Valley Park,  MO 63088"
F&G Foods,"Grocery, Local",City of St Louis,5932 W Florissant Ave,"St Louis,  MO 63136"
Family Care Pharmacy,"Pharmacy, Local",St Louis,11125 Dunn Rd,"St Louis,  MO 63136"
Family Care Pharmacy,"Pharmacy, Local",St Louis,3023 N Ballas Rd,"St Louis,  MO 63131"
Family Dollar,"Grocery, Chain",St Louis,10459 St Charles Rock Rd,"St Ann,  MO 63074"
Family Dollar,"Grocery, Chain",St Louis,10809 New Halls Ferry Rd,"St Louis,  MO 63136"
Family Dollar,"Grocery, Chain",St Louis,12115 Bellefontaine Rd,"St Louis,  MO 63138"
Family Dollar,"Grocery, Chain",St Louis,12950 New Halls Ferry Rd,"Florissant,  MO 63033"
Family Dollar,"Grocery, Chain",St Louis,1326 S Florissant Rd,"St Louis,  MO 63121"
Family Dollar,"Grocery, Chain",City of St Louis,1549 S Jefferson Ave,"St Louis,  MO 63104"
Family Dollar,"Grocery, Chain",City of St Louis,2321 McCausland Ave,"St Louis,  MO 63143"
Family Dollar,"Grocery, Chain",St Louis,2568 N US Highway 67,"Florissant,  MO 63033"
Family Dollar,"Grocery, Chain",City of St Louis,3411 S Jefferson Ave,"St Louis,  MO 63118"
Family Dollar,"Grocery, Chain",City of St Louis,3731 Dr Martin Luther King Dr,"St Louis,  MO 63106"
Family Dollar,"Grocery, Chain",City of St Louis,4312 N Grand Blvd,"St Louis,  MO 63107"
Family Dollar,"Grocery, Chain",City of St Louis,5010 Enright Ave,"St Louis,  MO 63108"
Family Dollar,"Grocery, Chain",City of St Louis,5433 Southwest Ave,"St Louis,  MO 63139"
Family Dollar,"Grocery, Chain",City of St Louis,5935 Delmar Blvd,"St Louis,  MO 63112"
Family Dollar,"Grocery, Chain",City of St Louis,6000 Natural Bridge Ave,"St Louis,  MO 63120"
Family Dollar,"Grocery, Chain",St Louis,6215 Wells Ave,"St Louis,  MO 63133"
Family Dollar,"Grocery, Chain",St Louis,64 Fenton Plz,"Fenton,  MO 63026"
Family Dollar,"Grocery, Chain",St Louis,6440 W Florissant Ave,"St Louis,  MO 63136"
Family Dollar,"Grocery, Chain",St Louis,7318 Olive Blvd,"St Louis,  MO 63130"
Family Dollar,"Grocery, Chain",St Louis,7421 S Lindbergh Blvd,"St Louis,  MO 63125"
Family Dollar,"Grocery, Chain",St Louis,7935 Page Ave,"St Louis,  MO 63133"
Family Dollar,"Grocery, Chain",St Louis,8061 Watson Rd,"St Louis,  MO 63119"
Family Dollar,"Grocery, Chain",St Louis,831 Lemay Ferry Rd,"St Louis,  MO 63125"
Family Dollar,"Grocery, Chain",St Louis,8320 Airport Rd,"St Louis,  MO 63134"
Family Dollar,"Grocery, Chain",St Louis,8417 Gravois Rd,"St Louis,  MO 63123"
Family Dollar,"Grocery, Chain",St Louis,8740 MacKenzie Rd,"St Louis,  MO 63123"
Family Dollar,"Grocery, Chain",St Louis,9435 Olive Blvd,"St Louis,  MO 63132"
Family Dollar,"Grocery, Chain",St Louis,9730 St Charles Rock Rd,"St Louis,  MO 63114"
Family Market,"Grocery, Local",City of St Louis,3126 Magnolia Ave,"St Louis,  MO 63118"
Family Market,"Grocery, Local",City of St Louis,7619 Ivory Ave,"St Louis,  MO 63111"
Favazza Specialty Foods,"Grocery, Local",St Louis,2810 Mary Ave,"St Louis,  MO 63144"
Ferguson Market,Convenience,St Louis,9101 W Florissant Ave,"St Louis,  MO 63136"
Ferguson Super Service,Gas Station,St Louis,1803 Chambers Rd,"St Louis,  MO 63136"
Fields Foods,"Grocery, Chain",City of St Louis,1500 Lafayette Ave,"St Louis,  MO 63104"
Fields Foods,"Grocery, Chain",City of St Louis,1706 Washington Ave,"St Louis,  MO 63103"
Fine Foods International,"Grocery, Local",St Louis,9907 Baptist Church Rd,"St Louis,  MO 63123"
Firepot Chai,Convenience,City of St Louis,3983 Gratiot St,"St Louis,  MO 63110"
Firestone Complete Auto Care,Gas Station,St Louis,530 N US Highway 67,"Florissant,  MO 63031"
First Team,"Grocery, Local",St Louis,200 S Hanley Rd,"St Louis,  MO 63105"
Fit-Flavors,Convenience,St Louis,11615 Olive Blvd,"St Louis,  MO 63141"
Fit-Flavors,Convenience,St Louis,14842 Clayton Rd,"Chesterfield,  MO 63017"
Fitzpatrick Pharmacy,"Pharmacy, Local",St Louis,15394 Manchester Rd,"Ballwin,  MO 63011"
Flame & Smoke,Convenience,St Louis,7720 Drexel Dr,"St Louis,  MO 63130"
Fletcher Leake's Service Station,Gas Station,City of St Louis,4582 Dr Martin Luther King Dr,"St Louis,  MO 63113"
Florence Hill Health Center,"Pharmacy, Local",City of St Louis,5541 Riverview Blvd,"St Louis,  MO 63120"
Florissant Dairy Store,Convenience,St Louis,2975 Patterson Rd,"Florissant,  MO 63031"
Florissant Food & Package Liquor,"Grocery, Local",St Louis,1925 Washington St,"Florissant,  MO 63033"
Florissant Market Place,"Grocery, Local",St Louis,8186 N Lindbergh Blvd,"Florissant,  MO 63031"
Florissant Valley Family Medicine,Convenience,St Louis,3528 Patterson Rd,"Florissant,  MO 63031"
Food Pantry,"Grocery, Local",St Louis,2750 McKelvey Rd,"Maryland Heights,  MO 63043"
Forest Park Pharmacy,"Pharmacy, Local",City of St Louis,6125 Clayton Ave,"St Louis,  MO 63139"
Foundation Care Pharmacy,"Pharmacy, Local",St Louis,4010 Wedgeway Ct,"Earth City,  MO 63045"
Foundation Grounds,Convenience,St Louis,7298 Manchester Rd,"St Louis,  MO 63143"
Freddie Lee's American Gourmet Sauce,Convenience,City of St Louis,800 N Tucker Blvd,"St Louis,  MO 63101"
Freddie's Market,"Grocery, Local",St Louis,9052 Big Bend Blvd,"St Louis,  MO 63119"
Fresh Thyme Farmers Market,"Grocery, Chain",St Louis,1018 N Kirkwood Rd,"St Louis,  MO 63122"
Fresh Thyme Farmers Market,"Grocery, Chain",St Louis,13957 Manchester Rd,"Ballwin,  MO 63011"
Fresh Thyme Farmers Market,"Grocery, Chain",St Louis,9920 Lin Ferry Dr,"St Louis,  MO 63123"
Friedhoff's Service Station,Gas Station,St Louis,8500 Natural Bridge Rd,"St Louis,  MO 63121"
Frison Flea Market,"Grocery, Local",St Louis,7025 St Charles Rock Rd,"St Louis,  MO 63133"
Fritzs Custard-Floriss,Convenience,St Louis,1055 Saint Catherine St,"Florissant,  MO 63031"
Frosty Treats,Convenience,St Louis,7579 Mintert Industrial Dr,"St Louis,  MO 63135"
G & W Sausage Company,"Grocery, Local",City of St Louis,4828 Parker Ave,"St Louis,  MO 63116"
G&S Market,"Grocery, Local",City of St Louis,5101 St Louis Ave,"St Louis,  MO 63115"
Galaxy International Food,"Grocery, Local",City of St Louis,1730 Olive St,"St Louis,  MO 63103"
Garland Food Group,"Grocery, Local",St Louis,840 Sugar Hill Dr,"Ballwin,  MO 63021"
Garners Market,"Grocery, Local",St Louis,4301 Seibert Ave,"St Louis,  MO 63123"
Gateway Apothecary,"Pharmacy, Local",City of St Louis,4473 Forest Park Ave,"St Louis,  MO 63108"
Gateway Lobby Shop,Convenience,City of St Louis,1010 Market St,"St Louis,  MO 63101"
Gateway Lobby Shop,Convenience,City of St Louis,701 Market St,"St Louis,  MO 63101"
Gateway News Stand,Convenience,City of St Louis,200 N Broadway,"St Louis,  MO 63102"
Gateway Produce,"Grocery, Local",St Louis,8725 Scudder Rd,"St Louis,  MO 63134"
Gen Mex Foods,"Grocery, Local",St Louis,10035 Manchester Rd,"St Louis,  MO 63122"
Genarations Market and Deli,"Grocery, Local",City of St Louis,5643 Mimika Ave,"St Louis,  MO 63136"
Genoa Healthcare,"Pharmacy, Local",St Louis,9890 Clayton Rd,"St Louis,  MO 63124"
Gifts Scripts & More,"Pharmacy, Local",St Louis,7025 Howdershell Rd,"Hazelwood,  MO 63042"
Global Foods Market,"Grocery, Local",St Louis,421 N Kirkwood Rd,"St Louis,  MO 63122"
Globe Cut Rate Drug,"Pharmacy, Local",City of St Louis,1900 S Broadway,"St Louis,  MO 63104"
Globe Self Service Drug,"Pharmacy, Local",City of St Louis,2626 Cherokee St,"St Louis,  MO 63118"
GNC,Convenience,St Louis,11274 W Florissant Ave,"Florissant,  MO 63033"
GNC,Convenience,St Louis,11455 Olive Blvd,"St Louis,  MO 63141"
GNC,Convenience,St Louis,12260 St Charles Rock Rd,"Bridgeton,  MO 63044"
GNC,Convenience,St Louis,12304 Dorsett Rd,"Maryland Heights,  MO 63043"
GNC,Convenience,St Louis,1372 Clarkson Clayton Ctr,"Ballwin,  MO 63011"
GNC,Convenience,St Louis,206 N US Highway 67,"Florissant,  MO 63031"
GNC,Convenience,St Louis,31 Chesterfield Mall,"Chesterfield,  MO 63017"
GNC,Convenience,St Louis,3218 Laclede Station Rd,"St Louis,  MO 63143"
GNC,Convenience,St Louis,35 Gravois Bluffs Plaza Dr,"Fenton,  MO 63026"
GNC,Convenience,St Louis,455 Lafayette Ctr,"Ballwin,  MO 63011"
GNC,Convenience,St Louis,6638 Clayton Rd,"St Louis,  MO 63117"
GNC,Convenience,St Louis,7287 Watson Rd,"St Louis,  MO 63119"
GNC,Convenience,St Louis,8859 Ladue Rd,"St Louis,  MO 63124"
GNC,Convenience,St Louis,9126 Overland Plz,"St Louis,  MO 63114"
GNC #00689,Convenience,St Louis,204 THF Blvd,"Chesterfield,  MO 63005"
GNC #00908,Convenience,St Louis,2441 St Louis Galleria,"St Louis,  MO 63117"
GNC #8031,Convenience,St Louis,12685 Olive Blvd,"St Louis,  MO 63141"
GNC #8031,Convenience,St Louis,7546 Rannells Ave,"St Louis,  MO 63143"
GNC #9079,Convenience,St Louis,10 W County Ctr,"St Louis,  MO 63131"
Goeke Produce,Convenience,St Louis,449 St Ferdinand St,"Florissant,  MO 63031"
Golden Grocer Natural Foods,"Grocery, Local",City of St Louis,335 N Euclid Ave,"St Louis,  MO 63108"
Goldsmith Pharmacy,"Pharmacy, Local",St Louis,777 S New Ballas Rd,"St Louis,  MO 63141"
Good Life Growing,"Grocery, Local",City of St Louis,2720 N 14th St,"St Louis,  MO 63106"
Good Neighbor Pharmacy,"Pharmacy, Local",St Louis,1035 Bellevue Ave,"St Louis,  MO 63117"
Gordon Food Service,"Grocery, Local",St Louis,3200 Laclede Station Rd,"St Louis,  MO 63143"
Gourmet To Go,"Grocery, Local",St Louis,8182 Maryland Ave,"St Louis,  MO 63105"
Gourmet To Go,"Grocery, Local",St Louis,9828 Clayton Rd,"St Louis,  MO 63124"
Grab & Go Mart,Gas Station,St Louis,2525 Telegraph Rd,"St Louis,  MO 63125"
Grand BP Gas Mart,"Grocery, Local",City of St Louis,3182 S Grand Blvd,"St Louis,  MO 63118"
Grand Chinese Grocery,"Grocery, Local",City of St Louis,3469 S Grand Blvd,"St Louis,  MO 63118"
Grand Gas & Food,Gas Station,City of St Louis,3237 S Grand Blvd,"St Louis,  MO 63118"
Grand Petite Market,"Grocery, Local",City of St Louis,2017 Chouteau Ave,"St Louis,  MO 63103"
Grand Stop,"Grocery, Local",City of St Louis,1015 N Grand Blvd,"St Louis,  MO 63106"
Gravois Quick Stop,"Grocery, Local",City of St Louis,3765 Gravois Ave,"St Louis,  MO 63116"
Green Shag Market,"Grocery, Local",City of St Louis,5733 Manchester Ave,"St Louis,  MO 63110"
Grocery Grabbers,"Grocery, Local",St Louis,9474 Olive Blvd,"St Louis,  MO 63132"
Grocery Store,"Grocery, Local",City of St Louis,3101 Chippewa St,"St Louis,  MO 63118"
Gulf,Gas Station,City of St Louis,1300 N Tucker Blvd,"St Louis,  MO 63101"
Gulf,Gas Station,City of St Louis,5750 Natural Bridge Ave,"St Louis,  MO 63120"
Gurung Bazaar,Convenience,City of St Louis,3801 S Grand Blvd,"St Louis,  MO 63118"
Gus Market,"Grocery, Local",City of St Louis,1435 Destrehan St,"St Louis,  MO 63107"
Gustine Market,"Grocery, Local",City of St Louis,3155 Gustine Ave,"St Louis,  MO 63116"
H & D Market,"Grocery, Local",St Louis,4200 Jennings Station Rd,"St Louis,  MO 63121"
H&H Corner,Gas Station,St Louis,6901 Howdershell Rd,"Hazelwood,  MO 63042"
H&R Cellular,Convenience,City of St Louis,1408 N Kingshighway Blvd,"St Louis,  MO 63113"
Halls Ferry,Gas Station,St Louis,3575 Parker Spur,"Florissant,  MO 63033"
Hammer's Farm,Convenience,St Louis,15310 Old Halls Ferry Rd,"Florissant,  MO 63034"
Han-D-Mart,Gas Station,St Louis,163 Chambers Rd,"St Louis,  MO 63137"
Hanlen's Meat Shoppe & Cater,"Grocery, Local",St Louis,11037 Manchester Rd,"St Louis,  MO 63122"
Hanley Discount Cigare,"Grocery, Local",St Louis,6950 N Hanley Rd,"Hazelwood,  MO 63042"
Hanley Hills Grocery & Liquor,"Grocery, Local",St Louis,7921 Page Ave,"St Louis,  MO 63133"
Hard-E Foods,"Grocery, Local",City of St Louis,3228 N Broadway,"St Louis,  MO 63147"
Harsha Indian Groceries,"Grocery, Local",St Louis,14033 Manchester Rd,"Ballwin,  MO 63011"
Hawks Nest Tree Care,Convenience,St Louis,9623 Antigo Dr,"St Louis,  MO 63123"
Hazelwood 67,Gas Station,St Louis,7323 N Lindbergh Blvd,"Hazelwood,  MO 63042"
Head's Store,"Grocery, Local",St Louis,16561 Willow Glen Dr,"Wildwood,  MO 63040"
Health Connections,"Grocery, Local",St Louis,9248 Mountain Ash Trl,"St Louis,  MO 63126"
Healthy Shopper,"Grocery, Local",St Louis,139 Concord Plaza Shopping Ctr,"St Louis,  MO 63128"
Heirloom Bottl,Convenience,City of St Louis,4026 Shenandoah Ave,"St Louis,  MO 63110"
Here Today,"Grocery, Local",St Louis,7531 Watson Rd,"St Louis,  MO 63119"
Here Today,"Grocery, Local",St Louis,770 N US Highway 67,"Florissant,  MO 63031"
Here Today,"Grocery, Local",St Louis,772 Gravois Bluffs Blvd,"Fenton,  MO 63026"
Hickory Farms,Convenience,St Louis,291 Chesterfield Mall,"Chesterfield,  MO 63017"
Hickory Farms,Convenience,St Louis,44 W County Ctr,"St Louis,  MO 63131"
Hickory Farms #10495,Convenience,St Louis,85 Southcote Rd,"St Louis,  MO 63144"
HM Express,"Grocery, Local",St Louis,9241 Cedarberry Ct,"St Louis,  MO 63123"
Hollyberry Baking Company,"Grocery, Local",St Louis,284 East Ave,"St Louis,  MO 63119"
Home Storage Center and Bishops' Storehouse,"Grocery, Local",St Louis,12843 Pennridge Dr,"Bridgeton,  MO 63044"
Homer G Phillips Health Center,"Pharmacy, Local",City of St Louis,2425 Whittier St,"St Louis,  MO 63113"
Honey J's Snack Shop & Convient,Convenience,St Louis,1713 Kienlen Ave,"St Louis,  MO 63133"
Hood Goods,Convenience,St Louis,1425 San Salvador Dr,"St Louis,  MO 63138"
Horn of Africa Spice M,Convenience,St Louis,10290 Page Ave,"St Louis,  MO 63132"
Hot Stop Market,"Grocery, Local",City of St Louis,4739 Goodfellow Blvd,"St Louis,  MO 63120"
House of Corks,Convenience,St Louis,27 Sussex Dr,"St Louis,  MO 63144"
Huck's Food and Fuel,Convenience,City of St Louis,3463 Watson Rd,"St Louis,  MO 63139"
Huck's Food and Fuel,Gas Station,St Louis,10170 Manchester Rd,"St Louis,  MO 63122"
Huck's Food and Fuel,"Grocery, Local",City of St Louis,3443 Watson Rd,"St Louis,  MO 63139"
Hucks,"Grocery, Local",St Louis,3500 Patterson Rd,"Florissant,  MO 63031"
Hucks Bel-Ridge,Gas Station,St Louis,9038 Natural Bridge Rd,"St Louis,  MO 63121"
Hudson,Convenience,St Louis,10701 Lambert International Blvd,"St Louis,  MO 63145"
Hudson News,Convenience,St Louis,,"St Louis,  MO 63145"
Ices Plain and Fancy,Convenience,City of St Louis,2256 S 39th St,"St Louis,  MO 63110"
IGA,"Grocery, Chain",St Louis,12533 Bennington Pl,"St Louis,  MO 63146"
IGA,"Grocery, Chain",St Louis,1760 N US Highway 67,"Florissant,  MO 63033"
IGA,"Grocery, Chain",City of St Louis,6601 Michigan Ave,"St Louis,  MO 63111"
Impro,"Grocery, Local",City of St Louis,5201 Gravois Ave,"St Louis,  MO 63116"
Imran Pharmacy,"Pharmacy, Local",City of St Louis,3737 N Kingshighway Blvd,"St Louis,  MO 63115"
In and Out Market,"Grocery, Local",St Louis,1133 Bellevue Ave,"St Louis,  MO 63117"
In and Out Market,"Grocery, Local",St Louis,3603 Adie Rd,"St Ann,  MO 63074"
India Bazar,"Grocery, Local",St Louis,10755 Page Ave,"St Louis,  MO 63132"
International Food Products,"Grocery, Local",St Louis,150 Larkin Williams Ind Ct,"Fenton,  MO 63026"
International Grocery,"Grocery, Local",City of St Louis,4414 Morganford Rd,"St Louis,  MO 63116"
Iriskic Lemay Meat,"Grocery, Local",St Louis,2201 Lemay Ferry Rd,"St Louis,  MO 63125"
Ivp Care Pharmacy,"Pharmacy, Local",St Louis,11500 Olive Blvd,"St Louis,  MO 63141"
J & M Service,Gas Station,St Louis,885 N Lafayette St,"Florissant,  MO 63031"
J J Eats and Treats LL,Convenience,City of St Louis,3647 Warne Ave,"St Louis,  MO 63107"
J N Market,Convenience,St Louis,1763 New Florissant Rd N,"Florissant,  MO 63033"
Jag 4,Convenience,City of St Louis,8033 N Broadway,"St Louis,  MO 63147"
James Henry Provisions,"Grocery, Local",City of St Louis,434 N 4th St,"St Louis,  MO 63102"
Jamestown Mall,"Grocery, Local",St Louis,175 Jamestown Mall,"Florissant,  MO 63034"
Javalava,Convenience,St Louis,11888 Bellefontaine Rd,"St Louis,  MO 63138"
Jay International Food,"Grocery, Local",City of St Louis,3172 S Grand Blvd,"St Louis,  MO 63118"
Jefferson Mini-Mart,"Grocery, Local",City of St Louis,3111 N Jefferson Ave,"St Louis,  MO 63107"
Jennifer's Pharmacy,"Pharmacy, Local",St Louis,141 N Meramec Ave,"St Louis,  MO 63105"
Jennings Convenience Center,Convenience,St Louis,9311 Lewis and Clark Blvd,"St Louis,  MO 63136"
Jennings Sunoco Service & Repair,Gas Station,St Louis,8730 Jennings Station Rd,"St Louis,  MO 63136"
Jenny Market,"Grocery, Local",St Louis,929 Airport Rd,"St Louis,  MO 63135"
Joesph Bakery,"Grocery, Local",City of St Louis,4704 Gravois Ave,"St Louis,  MO 63116"
John Viviano & Sons Grocers,"Grocery, Local",City of St Louis,5139 Shaw Ave,"St Louis,  MO 63110"
John Zeisler Automotive,Gas Station,St Louis,7000 W Florissant Ave,"St Louis,  MO 63136"
Johnny's Mart,"Grocery, Local",City of St Louis,4300 Chippewa St,"St Louis,  MO 63116"
Jordan Valley Market,"Grocery, Local",City of St Louis,2918 N Vandeventer Ave,"St Louis,  MO 63107"
Juniper Pharmacy,"Pharmacy, Local",St Louis,522 N New Ballas Rd,"St Louis,  MO 63141"
Just Popped! Popcorn,Convenience,St Louis,4132 Seven Hills Dr,"Florissant,  MO 63033"
K D Market,"Grocery, Local",City of St Louis,1015 Locust St,"St Louis,  MO 63101"
K Square,"Grocery, Local",St Louis,7 Ladue Rdg,"St Louis,  MO 63124"
K&M Market,Convenience,City of St Louis,3878 Page Blvd,"St Louis,  MO 63113"
Kabine,Convenience,City of St Louis,6134 Virginia Ave,"St Louis,  MO 63111"
Kad L,Convenience,City of St Louis,3900 Lexington Ave,"St Louis,  MO 63107"
Kaiser 66 Mart,Gas Station,City of St Louis,5008 S Grand Blvd,"St Louis,  MO 63111"
Kakao Chocolate,"Grocery, Local",St Louis,7272 Manchester Rd,"St Louis,  MO 63143"
Karen Ann's Supplies,"Grocery, Local",St Louis,11553 Gravois Rd,"St Louis,  MO 63126"
KD Poppa's,"Grocery, Local",St Louis,912 N Harrison Ave,"St Louis,  MO 63122"
Keller Apothecary,"Pharmacy, Local",City of St Louis,5346 Devonshire Ave,"St Louis,  MO 63109"
Kenny's Discount Cigarettes,"Grocery, Local",City of St Louis,5477 N Kingshighway Blvd,"St Louis,  MO 63115"
Key Food,"Grocery, Local",City of St Louis,4611 Beck Ave,"St Louis,  MO 63116"
Kim's Herbs & Detox Center,Convenience,St Louis,9634 Olive Blvd,"St Louis,  MO 63132"
King's Fried Rice,"Grocery, Local",City of St Louis,3926 N Grand Blvd,"St Louis,  MO 63107"
Kings Market,"Grocery, Local",St Louis,6116 Dr Martin Luther King Dr,"St Louis,  MO 63133"
Kingsway Food Mart,Gas Station,City of St Louis,707 N Kingshighway Blvd,"St Louis,  MO 63108"
Kiran Shah Dba Meher Phillips,Convenience,City of St Louis,2327 Gravois Ave,"St Louis,  MO 63104"
Kirkwood Commons,"Grocery, Local",St Louis,100 N Kirkwood Rd,"St Louis,  MO 63122"
Kirkwood Deli & Grocery,"Grocery, Local",St Louis,500 W Essex Ave,"St Louis,  MO 63122"
Kirkwood Service Center,Gas Station,St Louis,401 N Kirkwood Rd,"St Louis,  MO 63122"
Kismet - University Ci,"Pharmacy, Local",St Louis,941 Midland Blvd,"St Louis,  MO 63130"
Klas Market,"Grocery, Local",St Louis,9440 Gravois Rd,"St Louis,  MO 63123"
Kmart,"Grocery, Chain",St Louis,1 Flower Valley Shopping Ctr,"Florissant,  MO 63033"
Kohn's Kosher Meat & Deli,"Grocery, Local",St Louis,10405 Old Olive St Rd,"St Louis,  MO 63141"
Koupps Koffee,"Grocery, Local",St Louis,1709 Dover Trace Dr,"Fenton,  MO 63026"
Kram Fish Company,"Grocery, Local",City of St Louis,1307 Biddle St,"St Louis,  MO 63106"
Krummenacher Pharmacy,"Pharmacy, Local",St Louis,11020 Olive Blvd,"St Louis,  MO 63141"
Kwik Shop,"Grocery, Local",St Louis,1253 Dunn Rd,"Florissant,  MO 63031"
Kwik Stop,Gas Station,St Louis,1342 Pennsylvania Ave,"St Louis,  MO 63133"
La Bodega Wholesale Foods,"Grocery, Local",City of St Louis,125 Potomac St,"St Louis,  MO 63118"
La Mexicana,"Grocery, Local",St Louis,10124 St Charles Rock Rd,"St Ann,  MO 63074"
La Mexicana,"Grocery, Local",St Louis,9128 St Charles Rock Rd,"St Louis,  MO 63114"
La Patisserie,Convenience,St Louis,2674 N US Highway 67,"Florissant,  MO 63033"
La Placita,"Grocery, Local",St Louis,7509 N Lindbergh Blvd,"Hazelwood,  MO 63042"
La Tejana,"Grocery, Local",St Louis,3149 N Lindbergh Blvd,"Bridgeton,  MO 63044"
La Tienda International,"Grocery, Local",St Louis,7459 S Lindbergh Blvd,"St Louis,  MO 63125"
La Tiendita,"Grocery, Local",St Louis,15821 Manchester Rd,"Ballwin,  MO 63011"
La Tropicana Distributing,"Grocery, Local",City of St Louis,7315 S Broadway,"St Louis,  MO 63111"
La Vecindad,Convenience,St Louis,9506 Lackland Rd,"St Louis,  MO 63114"
Ladue Automotive,Gas Station,St Louis,301 S Warson Rd,"St Louis,  MO 63124"
Ladue Development,"Pharmacy, Local",St Louis,950 Irongate Walk,"Ballwin,  MO 63011"
Ladue Market,"Grocery, Local",St Louis,9155 Clayton Rd,"St Louis,  MO 63124"
Ladue Pharmacy,"Pharmacy, Local",St Louis,9832 Clayton Rd,"St Louis,  MO 63124"
Lancme West County,Gas Station,St Louis,62 W County Ctr,"St Louis,  MO 63131"
Landshire,Convenience,City of St Louis,727 N 1st St,"St Louis,  MO 63102"
Larder & Cupboard,Convenience,St Louis,7310 Manchester Rd,"St Louis,  MO 63143"
Last Stop Liquors,Convenience,City of St Louis,8200 Alabama Ave,"St Louis,  MO 63111"
Lbomb,"Grocery, Local",City of St Louis,4300 Goodfellow Blvd,"St Louis,  MO 63120"
Ldi Pharmacy,"Pharmacy, Local",St Louis,701 Emerson Rd,"St Louis,  MO 63141"
Leader Drug Store,"Pharmacy, Local",St Louis,185 N New Ballas Rd,"St Louis,  MO 63141"
Legrand's Market & Catering,"Grocery, Local",City of St Louis,4414 Donovan Ave,"St Louis,  MO 63109"
Libby Leuchtman,Convenience,St Louis,875 Oakmoor Dr,"Fenton,  MO 63026"
Liberty Market,"Grocery, Local",St Louis,351 Chambers Rd,"St Louis,  MO 63137"
Lindenwood Drug,"Pharmacy, Local",City of St Louis,6903 Lansdowne Ave,"St Louis,  MO 63109"
Link Market at Nor,"Grocery, Local",St Louis,4398 N Hanley Rd,"St Louis,  MO 63121"
Link Market at Wellsto,"Grocery, Local",St Louis,6402 Plymouth Ave,"St Louis,  MO 63133"
Little India Markets,"Grocery, Local",St Louis,12346 Dorsett Rd,"Maryland Heights,  MO 63043"
Lobby Shop Plaza,Gas Station,City of St Louis,501 N Broadway,"St Louis,  MO 63102"
Local Harvest Grocery,"Grocery, Local",St Louis,12039 Old Big Bend Rd,"St Louis,  MO 63122"
Local Harvest Grocery,"Grocery, Local",City of St Louis,3108 Morgan Ford Rd,"St Louis,  MO 63116"
Logan University,Convenience,St Louis,1851 Schoettler Rd,"Chesterfield,  MO 63017"
Louisa Food Products,"Grocery, Local",St Louis,1918 Switzer Ave,"St Louis,  MO 63136"
Love's Country Store,Gas Station,St Louis,13945 Missouri Bottom Rd,"Bridgeton,  MO 63044"
Love's Travel Stop,Gas Station,City of St Louis,6124 N Broadway,"St Louis,  MO 63147"
Lucky Trading,"Grocery, Local",St Louis,1550 Page Industrial Ct,"St Louis,  MO 63132"
Lucky's Market,"Grocery, Local",St Louis,15830 Fountain Plaza Dr,"Chesterfield,  MO 63017"
Lucky's Market,"Grocery, Local",St Louis,9530 Manchester Rd,"St Louis,  MO 63119"
M & A Market,"Grocery, Local",City of St Louis,4231 E Natural Bridge Ave,"St Louis,  MO 63115"
M & E Food Market,"Grocery, Local",City of St Louis,8635 N Broadway,"St Louis,  MO 63147"
M & L Foods,"Grocery, Local",St Louis,1320 Bardot Ln,"St Louis,  MO 63146"
M & L Foods,"Grocery, Local",City of St Louis,6501 Hall St,"St Louis,  MO 63147"
M & M Market,"Grocery, Local",City of St Louis,1618 S Jefferson Ave,"St Louis,  MO 63104"
M & R Market,"Grocery, Local",City of St Louis,3811 S Kingshighway Blvd,"St Louis,  MO 63109"
M K Food Market,"Grocery, Local",St Louis,12033 Bellefontaine Rd,"St Louis,  MO 63138"
M&V Market,"Grocery, Local",City of St Louis,4300 N 20th St,"St Louis,  MO 63107"
M1 Food Market,"Grocery, Local",City of St Louis,4600 Pope Ave,"St Louis,  MO 63115"
Majic Market,"Grocery, Local",St Louis,568 Winding Trail Ln,"St Louis,  MO 63131"
Majik Mart,"Grocery, Local",St Louis,12779 New Halls Ferry Rd,"Florissant,  MO 63033"
Mak Fuels,Gas Station,St Louis,11105 Old Halls Ferry Rd,"St Louis,  MO 63136"
Malintzi Mexican Grocery,"Grocery, Local",St Louis,3831 Woodson Rd,"St Louis,  MO 63134"
Mally's Supermarket,"Grocery, Local",St Louis,7445 W Florissant Ave,"St Louis,  MO 63136"
Mama Market,"Grocery, Local",City of St Louis,5457 Page Blvd,"St Louis,  MO 63112"
Mama Markets,"Grocery, Local",City of St Louis,5754 Page Blvd,"St Louis,  MO 63112"
Mama Toscanos Raviolo,"Grocery, Local",City of St Louis,2201 Macklind Ave,"St Louis,  MO 63110"
Mamas Pretzels,"Grocery, Local",St Louis,6424 Weber Rd,"St Louis,  MO 63123"
Manchester Market,"Grocery, Local",City of St Louis,4519 Manchester Ave,"St Louis,  MO 63110"
Maria & Son,Convenience,City of St Louis,4201 Hereford St,"St Louis,  MO 63109"
Maria's Deli,"Grocery, Local",St Louis,8332 Lackland Rd,"St Louis,  MO 63114"
Market,"Grocery, Local",City of St Louis,3401 Winnebago St,"St Louis,  MO 63118"
Market at Bushes Grove,"Grocery, Local",St Louis,9160 Clayton Rd,"St Louis,  MO 63124"
Martin's Market,"Grocery, Local",City of St Louis,4324 Dr Martin Luther King Dr,"St Louis,  MO 63113"
Matt's Auto Service,Gas Station,St Louis,7901 Olive Blvd,"St Louis,  MO 63130"
Mauhaus Cat Cafe A,Convenience,St Louis,3608 Oxford Blvd,"St Louis,  MO 63143"
May's Place,Convenience,City of St Louis,4180 Manchester Ave,"St Louis,  MO 63110"
MC Namara's Auto & Tire,Gas Station,St Louis,814 S Lindbergh Blvd,"St Louis,  MO 63131"
McCarthy Spices & Blends,Convenience,St Louis,8501 Delport Dr,"St Louis,  MO 63114"
McLaran Discount Market,Convenience,City of St Louis,1823 McLaran Ave,"St Louis,  MO 63147"
McNeal's Superette,"Grocery, Local",City of St Louis,5900 Lillian Ave,"St Louis,  MO 63136"
MD Pharmacy,"Pharmacy, Local",St Louis,8500 Delmar Blvd,"St Louis,  MO 63124"
Meat Fair,"Grocery, Local",St Louis,2315 Chambers Rd,"St Louis,  MO 63136"
Medical Arts Clayton Pharmacy,"Pharmacy, Local",St Louis,7710 Carondelet Ave,"St Louis,  MO 63105"
Medicine & More Pharmacy,"Pharmacy, Local",St Louis,15870 Clayton Rd,"Ballwin,  MO 63011"
Medicine Shoppe,"Pharmacy, Chain",St Louis,10056 St Charles Rock Rd,"St Ann,  MO 63074"
Medicine Shoppe,"Pharmacy, Chain",St Louis,106 4 Seasons Shopping Ctr,"Chesterfield,  MO 63017"
Medicine Shoppe,"Pharmacy, Chain",St Louis,11330 Gravois Rd,"St Louis,  MO 63126"
Medicine Shoppe,"Pharmacy, Chain",St Louis,16 Stonegate Ctr,"Valley Park,  MO 63088"
Medicine Shoppe,"Pharmacy, Chain",St Louis,215 Thresher Dr,"Eureka,  MO 63025"
Medicine Shoppe,"Pharmacy, Chain",St Louis,2386 N US Highway 67,"Florissant,  MO 63033"
Medicine Shoppe,"Pharmacy, Chain",St Louis,2514 Woodson Rd,"St Louis,  MO 63114"
Medicine Shoppe,"Pharmacy, Chain",City of St Louis,3137 S Grand Blvd,"St Louis,  MO 63118"
Medicine Shoppe,"Pharmacy, Chain",St Louis,4441 Brown Rd,"St Louis,  MO 63134"
Medicine Shoppe,"Pharmacy, Chain",City of St Louis,625 N Euclid Ave,"St Louis,  MO 63108"
Medicine Shoppe,"Pharmacy, Chain",St Louis,7922 MacKenzie Rd,"St Louis,  MO 63123"
Meijer Mastercard,"Grocery, Local",St Louis,W County Ctr,"St Louis,  MO 63131"
Mel's Service,Gas Station,City of St Louis,3970 Wilmington Ave,"St Louis,  MO 63116"
Meramec Market,"Grocery, Local",City of St Louis,2821 Meramec St,"St Louis,  MO 63118"
Mercy Medical Group,"Pharmacy, Local",St Louis,15945 Clayton Rd,"Ballwin,  MO 63011"
Mercy Pharmacy - Old Tesson,"Pharmacy, Local",St Louis,12348 Old Tesson Rd,"St Louis,  MO 63128"
Mercy Specialty Pharmacy - St. Louis,"Pharmacy, Local",St Louis,607 S New Ballas Rd,"St Louis,  MO 63141"
Mesnica Pehlan,Convenience,City of St Louis,4716 Gravois Ave,"St Louis,  MO 63116"
Metropolitan Newsstand,Convenience,City of St Louis,211 N Broadway,"St Louis,  MO 63102"
Mickey's West County Car Wash,Gas Station,St Louis,13894 Manchester Rd,"Ballwin,  MO 63011"
Mid America Vapor,Convenience,St Louis,10018 Gravois Rd,"St Louis,  MO 63123"
Mid East Market,"Grocery, Local",St Louis,14325,"Ballwin,  MO 63011"
Mid-States Minority Supplier Development Council,Gas Station,City of St Louis,317 N 11th St,"St Louis,  MO 63101"
Midland Pharmacy,"Pharmacy, Local",St Louis,9628 Midland Blvd,"St Louis,  MO 63114"
Midwest Pasta,"Grocery, Local",City of St Louis,2023 Cherokee St,"St Louis,  MO 63118"
Midwest Petroleum,Gas Station,St Louis,11546 Larimore Rd,"St Louis,  MO 63138"
Midwest Petroleum,Gas Station,St Louis,13767 St Charles Rock Rd,"Bridgeton,  MO 63044"
Midwest Petroleum,Gas Station,St Louis,15302 Manchester Rd,"Ballwin,  MO 63011"
Midwest Petroleum,Gas Station,City of St Louis,1620 Union Blvd,"St Louis,  MO 63113"
Midwest Petroleum,Gas Station,St Louis,1955 Chambers Rd,"St Louis,  MO 63136"
Midwest Petroleum,Gas Station,City of St Louis,2821 N Vandeventer Ave,"St Louis,  MO 63107"
Midwest Petroleum,Gas Station,St Louis,3602 Woodson Rd,"St Louis,  MO 63114"
Midwest Petroleum - Conoco,Gas Station,City of St Louis,1314 Gravois Ave,"St Louis,  MO 63104"
Midwest Petroleum Company,Gas Station,City of St Louis,4216 W Natural Bridge Ave,"St Louis,  MO 63115"
Midwest Petroleum Company,Gas Station,St Louis,495 Southside Ave,"St Louis,  MO 63119"
Midwest Petroleum Company,Gas Station,City of St Louis,6760 Southwest Ave,"St Louis,  MO 63143"
Midwest Petroleum Company,Gas Station,St Louis,Jennings Station Rd,"St Louis,  MO 63121"
Mike's Distribution & More,"Grocery, Local",City of St Louis,5473 Arlington Ave,"St Louis,  MO 63120"
Milani Foods Institutional Div,"Grocery, Local",St Louis,63 Sennawood Dr,"Fenton,  MO 63026"
Mini Market 3,Convenience,St Louis,1132 N Florissant Rd,"St Louis,  MO 63135"
Mini Mart,Convenience,City of St Louis,5635 Prange Ave,"St Louis,  MO 63120"
Mini Mart,"Grocery, Local",City of St Louis,3106 Delmar Blvd,"St Louis,  MO 63103"
Miniature Market,"Grocery, Local",St Louis,13380 Manchester Rd,"St Louis,  MO 63131"
Miniature Market,"Grocery, Local",St Louis,14368 Manchester Rd,"Ballwin,  MO 63011"
Miss Dary's PI,Convenience,City of St Louis,924 N Garrison Ave,"St Louis,  MO 63106"
Missouri Black Expo,Convenience,City of St Louis,4411 N Newstead Ave,"St Louis,  MO 63115"
Mitchell's Express,Convenience,City of St Louis,5250 W Florissant Ave,"St Louis,  MO 63115"
Mo's Mart & Connect,"Grocery, Local",City of St Louis,2408 Union Blvd,"St Louis,  MO 63113"
Mobil,Gas Station,City of St Louis,1051 Hampton Ave,"St Louis,  MO 63139"
Mobil,Gas Station,St Louis,11070 Midland Blvd,"St Louis,  MO 63114"
Mobil,Gas Station,St Louis,11152 Manchester Rd,"St Louis,  MO 63122"
Mobil,Gas Station,St Louis,12239 Natural Bridge Rd,"Bridgeton,  MO 63044"
Mobil,Gas Station,St Louis,13500 Tesson Ferry Rd,"St Louis,  MO 63128"
Mobil,Gas Station,St Louis,13553 Riverport Dr N,"Maryland Heights,  MO 63043"
Mobil,Gas Station,St Louis,14807 Manchester Rd,"Ballwin,  MO 63011"
Mobil,Gas Station,City of St Louis,1515 N 13th St,"St Louis,  MO 63106"
Mobil,Gas Station,St Louis,16509 Manchester Rd,"Wildwood,  MO 63040"
Mobil,Gas Station,St Louis,17195 Chesterfield Airport Rd,"Chesterfield,  MO 63005"
Mobil,Gas Station,St Louis,17287 Wild Horse Creek Rd,"Chesterfield,  MO 63005"
Mobil,Gas Station,St Louis,1789 Clarkson Rd,"Chesterfield,  MO 63017"
Mobil,Gas Station,St Louis,1996 McKelvey Rd,"Maryland Heights,  MO 63043"
Mobil,Gas Station,St Louis,260 Vance Rd,"Valley Park,  MO 63088"
Mobil,Gas Station,St Louis,2600 Lemay Ferry Rd,"St Louis,  MO 63125"
Mobil,Gas Station,St Louis,3056 McKelvey Rd,"Bridgeton,  MO 63044"
Mobil,Gas Station,St Louis,3675 Dunn Rd,"Florissant,  MO 63033"
Mobil,Gas Station,City of St Louis,3853 Forest Park Ave,"St Louis,  MO 63103"
Mobil,Gas Station,City of St Louis,4501 Union Blvd,"St Louis,  MO 63115"
Mobil,Gas Station,St Louis,4550 Meramec Bottom Rd,"St Louis,  MO 63128"
Mobil,Gas Station,St Louis,4591 Telegraph Rd,"St Louis,  MO 63129"
Mobil,Gas Station,City of St Louis,4608 Dr Martin Luther King Dr,"St Louis,  MO 63113"
Mobil,Gas Station,City of St Louis,5588 Dr Martin Luther King Dr,"St Louis,  MO 63112"
Mobil,Gas Station,St Louis,5840 S Lindbergh Blvd,"St Louis,  MO 63123"
Mobil,Gas Station,St Louis,6161 Telegraph Rd,"St Louis,  MO 63129"
Mobil,Gas Station,St Louis,6800 N Hanley Rd,"St Louis,  MO 63134"
Mobil,Gas Station,St Louis,7001 Clayton Rd,"St Louis,  MO 63117"
Mobil,Gas Station,St Louis,7014 W Florissant Ave,"St Louis,  MO 63136"
Mobil,Gas Station,St Louis,8001 Page Ave,"St Louis,  MO 63114"
Mobil,Gas Station,St Louis,8554 St Charles Rock Rd,"St Louis,  MO 63114"
Mobil,Gas Station,St Louis,9401 Manchester Rd,"St Louis,  MO 63119"
Mobil,Gas Station,St Louis,9403 Page Ave,"St Louis,  MO 63132"
Mobil,Gas Station,City of St Louis,Pope Ave,"St Louis,  MO 63147"
Mobil,Gas Station,City of St Louis,Union Blvd,"St Louis,  MO 63115"
Mobil,"Grocery, Local",St Louis,3125 N US-67,"Florissant,  MO 63033"
Mockingbird Market,"Grocery, Local",St Louis,9200 Olive Blvd,"St Louis,  MO 63132"
Moline Acres Mart,"Grocery, Local",St Louis,2331 Chambers Rd,"St Louis,  MO 63136"
Molly's in Soulard,"Grocery, Local",City of St Louis,816 Geyer Ave,"St Louis,  MO 63104"
Montgomery Auto Service,Gas Station,St Louis,1915 Washington St,"Florissant,  MO 63033"
Morganford Market,"Grocery, Local",City of St Louis,4640 Morgan Ford Rd,"St Louis,  MO 63116"
Moto Mart,Gas Station,City of St Louis,11005 Riverview Dr,"St Louis,  MO 63138"
Moto Mart,Gas Station,St Louis,20 S Elam Ave,"Valley Park,  MO 63088"
Moto Mart,Gas Station,St Louis,3298 Rider Trl S,"Earth City,  MO 63045"
Moto Mart,Gas Station,St Louis,5695 Fox Creek Rd,"Pacific,  MO 63069"
Mr Freeze Ice Cream,Convenience,St Louis,5409 Bermuda Dr,"St Louis,  MO 63121"
Mr Wizard's,Convenience,St Louis,2101 S Big Bend Blvd,"St Louis,  MO 63117"
Muhammad's Com,Convenience,St Louis,10041 Elise Dr,"St Louis,  MO 63123"
N&M Market,"Grocery, Local",City of St Louis,4201 Manchester Ave,"St Louis,  MO 63110"
Namaste Mart,"Grocery, Local",St Louis,4812 Forman Rd,"St Louis,  MO 63123"
Narrow Gauge Brewing Company,Convenience,St Louis,1595 N US Highway 67,"Florissant,  MO 63031"
Nasiib Halal Store,"Grocery, Local",City of St Louis,3702 Gravois Ave,"St Louis,  MO 63116"
National Vinegar,"Grocery, Local",St Louis,1750 S Brentwood Blvd,"St Louis,  MO 63144"
Natural Bridge Liquors,Convenience,City of St Louis,5956 Natural Bridge Ave,"St Louis,  MO 63120"
Natural Way,Convenience,St Louis,12345 Olive Blvd,"St Louis,  MO 63141"
Natural Way,"Grocery, Local",St Louis,468 Old Smizer Mill Rd,"Fenton,  MO 63026"
Neels Pharmacy,"Pharmacy, Local",St Louis,8 Crestwood Executive Ctr,"St Louis,  MO 63126"
Neighborhood Convenien,Convenience,City of St Louis,1206 Goodfellow Blvd,"St Louis,  MO 63112"
Nelson Products,Convenience,St Louis,2639 Laclede Station Rd,"St Louis,  MO 63143"
New Dawn Natural Foods,"Grocery, Local",City of St Louis,3536 Arsenal St,"St Louis,  MO 63118"
New Florissant Amoco,Gas Station,St Louis,1590 S New Florissant Rd,"Florissant,  MO 63031"
New King Mart,Convenience,City of St Louis,4361 Dr Martin Luther King Dr,"St Louis,  MO 63113"
New York Market,"Grocery, Local",St Louis,8701 Jennings Station Rd,"St Louis,  MO 63136"
Nice Food Market,"Grocery, Local",St Louis,9715 Breckenridge Rd,"St Louis,  MO 63114"
Nikken Foods,"Grocery, Local",City of St Louis,4984 Manchester Ave,"St Louis,  MO 63110"
Ninth Street Deli,"Grocery, Local",City of St Louis,900 Shenandoah Ave,"St Louis,  MO 63104"
No Strings Attached,Convenience,City of St Louis,207 N 9th St,"St Louis,  MO 63101"
North America Food & Beverage,"Grocery, Local",St Louis,267 Glen Valley Dr,"Chesterfield,  MO 63017"
North Broadway Truck Stop,Gas Station,City of St Louis,3000 N Broadway,"St Louis,  MO 63147"
Northway Supermarket,"Grocery, Local",City of St Louis,5590 W Florissant Ave,"St Louis,  MO 63120"
Nosser Service Station,Gas Station,St Louis,8001 Gravois Rd,"St Louis,  MO 63123"
Nutritionhq,Convenience,St Louis,9430 Manchester Rd,"St Louis,  MO 63119"
O'Malley's Market,"Grocery, Local",St Louis,9820 Lackland Rd,"St Louis,  MO 63114"
Oaza,"Grocery, Local",City of St Louis,6220 Gravois Ave,"St Louis,  MO 63116"
Old Vienna,"Grocery, Local",St Louis,345 S Old Highway 141,"Fenton,  MO 63026"
Olive Express Mart,Gas Station,City of St Louis,614 Olive St,"St Louis,  MO 63101"
Olive Supermarket,"Grocery, Local",St Louis,8041 Olive Blvd,"St Louis,  MO 63130"
Omars C Store,"Grocery, Local",City of St Louis,1912 Carr Dr,"St Louis,  MO 63106"
Omars Food Shop,"Grocery, Local",City of St Louis,1307 Goodfellow Blvd,"St Louis,  MO 63112"
On the Hill Health Mart Pharmacy,"Pharmacy, Local",City of St Louis,5378 Southwest Ave,"St Louis,  MO 63139"
On the Run,Convenience,St Louis,17151,"Chesterfield,  MO 63005"
On the Run,Convenience,St Louis,8566 St Charles Rock Rd,"St Louis,  MO 63114"
On the Run,Gas Station,St Louis,2120 S Brentwood Blvd,"St Louis,  MO 63144"
On the Run,Gas Station,City of St Louis,3225 Hampton Ave,"St Louis,  MO 63139"
One Zero Zero Four Snack Shop,"Grocery, Local",St Louis,1004 Sutter Ave,"St Louis,  MO 63130"
Orlando Schnuck Markets,"Grocery, Local",St Louis,2050 Dorsett Vlg,"Maryland Heights,  MO 63043"
Outtakes Quick Cuisine,Convenience,City of St Louis,10 S Broadway,"St Louis,  MO 63102"
P & C Quality Foods,"Grocery, Local",St Louis,9607 S Broadway,"St Louis,  MO 63125"
Page Discount Market,"Grocery, Local",City of St Louis,1220 N Vandeventer Ave,"St Louis,  MO 63113"
Page Market,"Grocery, Local",St Louis,10208 Page Ave,"St Louis,  MO 63132"
Pagedale Market,"Grocery, Local",St Louis,6707 Page Ave,"St Louis,  MO 63133"
Pan-Asia Supermarket,"Grocery, Local",St Louis,14246 Manchester Rd,"Ballwin,  MO 63011"
Papagayos,"Grocery, Local",City of St Louis,4658 Gravois Ave,"St Louis,  MO 63116"
Park N Shop,Convenience,St Louis,8886 Jennings Station Rd,"St Louis,  MO 63136"
Parker's Table at Oakland & Yale,Convenience,St Louis,7118 Oakland Ave,"St Louis,  MO 63117"
Parsons Oil Company,Gas Station,St Louis,12926 New Halls Ferry Rd,"Florissant,  MO 63033"
Paul Bros Service,Gas Station,St Louis,9640 Lackland Rd,"St Louis,  MO 63114"
Paul's Market,"Grocery, Local",St Louis,1020 N Elizabeth Ave,"St Louis,  MO 63135"
Pearlies Pickles,"Grocery, Local",City of St Louis,1102 McLaran Ave,"St Louis,  MO 63147"
Penny Saver,Convenience,City of St Louis,3430 Itaska St,"St Louis,  MO 63111"
Penzeys Spices,Convenience,St Louis,7338 Manchester Blvd,"St Louis,  MO 63143"
Penzeys Spices,"Grocery, Local",St Louis,222 THF Blvd,"Chesterfield,  MO 63005"
Penzeys Spices,"Grocery, Local",St Louis,246 THF Blvd,"Chesterfield,  MO 63005"
People's Health Centers,"Pharmacy, Local",City of St Louis,5701 Delmar Blvd,"St Louis,  MO 63112"
Pete's Shur-Sav,"Grocery, Local",St Louis,7434 Olive Blvd,"St Louis,  MO 63130"
Petra Oil,Gas Station,City of St Louis,1113 Salisbury St,"St Louis,  MO 63107"
Petro Mart,Gas Station,St Louis,14201 Olive Blvd,"Chesterfield,  MO 63017"
Petro Mart,Gas Station,St Louis,2701 Telegraph Rd,"St Louis,  MO 63125"
Petro Mart,Gas Station,St Louis,698 Gravois Bluffs Blvd,"Fenton,  MO 63026"
Petro Mart,Gas Station,St Louis,859 Meramec Station Rd,"Valley Park,  MO 63088"
Petro-Mart,Gas Station,St Louis,1430 S Kirkwood Rd,"St Louis,  MO 63127"
Phil Mart,Gas Station,St Louis,7250 Lansdowne Ave,"St Louis,  MO 63119"
Phillips 66,Gas Station,City of St Louis,1001 S Broadway,"St Louis,  MO 63104"
Phillips 66,Gas Station,St Louis,10221 Page Ave,"St Louis,  MO 63132"
Phillips 66,Gas Station,St Louis,10393 W Florissant Ave,"St Louis,  MO 63136"
Phillips 66,Gas Station,St Louis,105 Dunn Rd,"Florissant,  MO 63031"
Phillips 66,Gas Station,St Louis,10620 New Halls Ferry Rd,"St Louis,  MO 63136"
Phillips 66,Gas Station,St Louis,10866 Lilac Ave,"St Louis,  MO 63137"
Phillips 66,Gas Station,St Louis,10901 Old Halls Ferry Rd,"St Louis,  MO 63136"
Phillips 66,Gas Station,St Louis,11900 Dorsett Rd,"Maryland Heights,  MO 63043"
Phillips 66,Gas Station,City of St Louis,1199 Riverview Blvd,"St Louis,  MO 63147"
Phillips 66,Gas Station,St Louis,1200 Shackelford Rd,"Florissant,  MO 63031"
Phillips 66,Gas Station,St Louis,1210 Lemay Ferry Rd,"St Louis,  MO 63125"
Phillips 66,Gas Station,St Louis,12188 Bellefontaine Rd,"St Louis,  MO 63138"
Phillips 66,Gas Station,St Louis,12218 St Charles Rock Rd,"Bridgeton,  MO 63044"
Phillips 66,Gas Station,St Louis,12421 Dorsett Rd,"Maryland Heights,  MO 63043"
Phillips 66,Gas Station,St Louis,13010 Tesson Ferry Rd,"St Louis,  MO 63128"
Phillips 66,Gas Station,City of St Louis,1310 N Grand Blvd,"St Louis,  MO 63106"
Phillips 66,Gas Station,St Louis,13898 Manchester Rd,"Ballwin,  MO 63011"
Phillips 66,Gas Station,St Louis,1395 Dunn Rd,"Florissant,  MO 63031"
Phillips 66,Gas Station,St Louis,13970 Manchester Rd,"Ballwin,  MO 63011"
Phillips 66,Gas Station,St Louis,14024 Olive Blvd,"Chesterfield,  MO 63017"
Phillips 66,Gas Station,St Louis,14181 Manchester Rd,"Ballwin,  MO 63011"
Phillips 66,Gas Station,St Louis,15401 Clayton Rd,"Ballwin,  MO 63011"
Phillips 66,Gas Station,St Louis,15670 Manchester Rd,"Ballwin,  MO 63011"
Phillips 66,Gas Station,St Louis,158 Long Rd,"Chesterfield,  MO 63005"
Phillips 66,Gas Station,City of St Louis,1655 S Jefferson Ave,"St Louis,  MO 63104"
Phillips 66,Gas Station,St Louis,18423 Old Olive Street Rd,"Chesterfield,  MO 63005"
Phillips 66,Gas Station,St Louis,2099 Smizer Station Rd,"Valley Park,  MO 63088"
Phillips 66,Gas Station,City of St Louis,2110 Chouteau Ave,"St Louis,  MO 63103"
Phillips 66,Gas Station,St Louis,2130 Kienlen Ave,"St Louis,  MO 63121"
Phillips 66,Gas Station,St Louis,2401 Highway 109,"Wildwood,  MO 63040"
Phillips 66,Gas Station,St Louis,2609 Dunn Rd,"St Louis,  MO 63136"
Phillips 66,Gas Station,City of St Louis,2724 Watson Rd,"St Louis,  MO 63139"
Phillips 66,Gas Station,St Louis,2730 Union Rd,"St Louis,  MO 63125"
Phillips 66,Gas Station,St Louis,2885 Patterson Rd,"Florissant,  MO 63031"
Phillips 66,Gas Station,St Louis,301 W 5th St,"Eureka,  MO 63025"
Phillips 66,Gas Station,St Louis,3033 S Hanley Rd,"St Louis,  MO 63143"
Phillips 66,Gas Station,St Louis,3307 Lemay Ferry Rd,"St Louis,  MO 63125"
Phillips 66,Gas Station,City of St Louis,3518 S Grand Blvd,"St Louis,  MO 63118"
Phillips 66,Gas Station,St Louis,3555 Dunn Rd,"Florissant,  MO 63033"
Phillips 66,Gas Station,City of St Louis,3605 S Broadway,"St Louis,  MO 63118"
Phillips 66,Gas Station,City of St Louis,3700 Union Blvd,"St Louis,  MO 63115"
Phillips 66,Gas Station,St Louis,400 N Kirkwood Rd,"St Louis,  MO 63122"
Phillips 66,Gas Station,St Louis,4205 Butler Hill Rd,"St Louis,  MO 63129"
Phillips 66,Gas Station,City of St Louis,4251 Lindell Blvd,"St Louis,  MO 63108"
Phillips 66,Gas Station,City of St Louis,4300 S Kingshighway Blvd,"St Louis,  MO 63109"
Phillips 66,Gas Station,St Louis,4317 Butler Hill Rd,"St Louis,  MO 63128"
Phillips 66,Gas Station,City of St Louis,4347 S Broadway,"St Louis,  MO 63111"
Phillips 66,Gas Station,St Louis,4390 Telegraph Rd,"St Louis,  MO 63129"
Phillips 66,Gas Station,St Louis,4403 Lemay Ferry Rd,"St Louis,  MO 63129"
Phillips 66,Gas Station,St Louis,4466 S Lindbergh Blvd,"St Louis,  MO 63127"
Phillips 66,Gas Station,City of St Louis,4553 S Broadway,"St Louis,  MO 63111"
Phillips 66,Gas Station,St Louis,5245 Towne South Rd,"St Louis,  MO 63128"
Phillips 66,Gas Station,City of St Louis,5728 W Florissant Ave,"St Louis,  MO 63120"
Phillips 66,Gas Station,City of St Louis,6001 W Florissant Ave,"St Louis,  MO 63136"
Phillips 66,Gas Station,St Louis,6150 Natural Bridge Ave,"St Louis,  MO 63120"
Phillips 66,Gas Station,City of St Louis,7000 Manchester Ave,"St Louis,  MO 63143"
Phillips 66,Gas Station,St Louis,7001 S Lindbergh Blvd,"St Louis,  MO 63125"
Phillips 66,Gas Station,St Louis,7001,"St Louis,  MO 63125"
Phillips 66,Gas Station,City of St Louis,710 Russell Blvd,"St Louis,  MO 63104"
Phillips 66,Gas Station,St Louis,7498 Delmar Blvd,"St Louis,  MO 63130"
Phillips 66,Gas Station,St Louis,767 N New Ballas Rd,"St Louis,  MO 63141"
Phillips 66,Gas Station,St Louis,7741 S Big Bend Blvd,"St Louis,  MO 63119"
Phillips 66,Gas Station,St Louis,8231 N Lindbergh Blvd,"Florissant,  MO 63031"
Phillips 66,Gas Station,St Louis,8341 Olive Blvd,"St Louis,  MO 63132"
Phillips 66,Gas Station,St Louis,8601 Airport Rd,"St Louis,  MO 63134"
Phillips 66,Gas Station,St Louis,8729 Jennings Station Rd,"St Louis,  MO 63136"
Phillips 66,Gas Station,City of St Louis,8815 N Broadway,"St Louis,  MO 63147"
Phillips 66,Gas Station,St Louis,901 Meramec Station Rd,"Valley Park,  MO 63088"
Phillips 66,Gas Station,St Louis,9037 St Charles Rock Rd,"St Louis,  MO 63114"
Phillips 66,Gas Station,St Louis,9398 Olive Blvd,"St Louis,  MO 63132"
Phillips 66,Gas Station,St Louis,949 Chambers Rd,"St Louis,  MO 63137"
Phillips 66,Gas Station,St Louis,9601 Manchester Rd,"St Louis,  MO 63119"
Phillips 66,Gas Station,St Louis,982 S Highway Dr,"Fenton,  MO 63026"
Phillips 66,Gas Station,St Louis,9860 MacKenzie Rd,"St Louis,  MO 63123"
Phillips 66,Gas Station,St Louis,Rider Trl S,"Earth City,  MO 63045"
Phillips 66 Gas,Gas Station,St Louis,Natural Bridge Rd,"St Louis,  MO 63121"
Phillips Market,"Grocery, Local",City of St Louis,2931 N Newstead Ave,"St Louis,  MO 63115"
Philly Market,"Grocery, Local",St Louis,8017 Airport Rd,"St Louis,  MO 63134"
Piekutowski's European Style Sausage,Convenience,City of St Louis,4100 N Florissant Ave,"St Louis,  MO 63107"
Pimped Out Pickles,"Grocery, Local",City of St Louis,2801 N Kingshighway Blvd,"St Louis,  MO 63113"
Pioneer Shoppe,Convenience,City of St Louis,909 Chestnut St,"St Louis,  MO 63101"
Pit Stop Convenience Store,Convenience,City of St Louis,6920 Chippewa St,"St Louis,  MO 63109"
PJ's Convenient Store,Convenience,St Louis,2321 Hord Ave,"St Louis,  MO 63136"
Planet Health,"Grocery, Local",St Louis,5 Clarkson Rd,"Ballwin,  MO 63011"
Platinum Market 2,Convenience,City of St Louis,3221 N Newstead Ave,"St Louis,  MO 63115"
Poppa Bubble,Convenience,St Louis,1155 St Louis Galleria,"St Louis,  MO 63117"
Precision Foods,"Grocery, Local",St Louis,11457 Olde Cabin Rd,"St Louis,  MO 63141"
Premier Pharmacy,"Pharmacy, Local",St Louis,3550 McKelvey Rd,"Bridgeton,  MO 63044"
Price Chopper,"Grocery, Local",City of St Louis,2747 Goodfellow Blvd,"St Louis,  MO 63112"
Prime Food Marketing,"Grocery, Local",St Louis,37 St Anthony Ln,"Florissant,  MO 63031"
Prouhet Farm,"Grocery, Local",St Louis,13117 Prouhet Farm Rd,"Bridgeton,  MO 63044"
Pure Plates STL,"Grocery, Local",St Louis,703 Long Road Crossing Dr,"Chesterfield,  MO 63005"
Pure Tea Lief,"Pharmacy, Local",St Louis,860 Tyson Dr,"Florissant,  MO 63031"
Puritan Springs Water,"Grocery, Local",St Louis,3539 Rider Trl S,"Earth City,  MO 63045"
PX Liquor,Convenience,St Louis,7016 Page Ave,"St Louis,  MO 63133"
Quarter Jay S Everythi,Convenience,City of St Louis,5514 Lilian Ave,"St Louis,  MO 63120"
Que Huong Market,"Grocery, Local",City of St Louis,3200 Chippewa St,"St Louis,  MO 63118"
Quick 1,"Grocery, Local",St Louis,1 Midland Ave,"Maryland Heights,  MO 63043"
Quick Fuel,Gas Station,St Louis,13880 St Charles Rock Rd,"Bridgeton,  MO 63044"
Quick Fuel,Gas Station,City of St Louis,7710 Polk St,"St Louis,  MO 63111"
Quick Shop Market,"Grocery, Local",City of St Louis,4478 Natural Bridge Ave,"St Louis,  MO 63115"
Quick Shop Market,"Grocery, Local",St Louis,7823 St Charles Rock Rd,"St Louis,  MO 63114"
Quick Shop Mart,Convenience,St Louis,5531 Jennings Station Rd,"St Louis,  MO 63136"
Quick Stop,Convenience,St Louis,2301 McKelvey Rd,"Maryland Heights,  MO 63043"
Quick Stop,Gas Station,City of St Louis,8880 N Broadway,"St Louis,  MO 63147"
QuikTrip,Gas Station,St Louis,10768 W Florissant Ave,"St Louis,  MO 63136"
QuikTrip,Gas Station,St Louis,10793 Page Ave,"St Louis,  MO 63132"
QuikTrip,Gas Station,St Louis,10845 Lilac Ave,"St Louis,  MO 63137"
QuikTrip,Gas Station,St Louis,11444 St Charles Rock Rd,"Bridgeton,  MO 63044"
QuikTrip,Gas Station,St Louis,11802 Lusher Rd,"St Louis,  MO 63138"
QuikTrip,Gas Station,St Louis,11829 Lackland Rd,"St Louis,  MO 63146"
QuikTrip,Gas Station,St Louis,12200 Dorsett Rd,"Maryland Heights,  MO 63043"
QuikTrip,Gas Station,St Louis,12700 St Charles Rock Rd,"Bridgeton,  MO 63044"
QuikTrip,Gas Station,St Louis,13099 Tesson Ferry Rd,"St Louis,  MO 63128"
QuikTrip,Gas Station,St Louis,14800 Manchester Rd,"Ballwin,  MO 63011"
QuikTrip,Gas Station,St Louis,150 Howdershell Rd,"Florissant,  MO 63031"
QuikTrip,Gas Station,St Louis,1530 S Hanley Rd,"St Louis,  MO 63144"
QuikTrip,Gas Station,St Louis,15902 Manchester Rd,"Ballwin,  MO 63011"
QuikTrip,Gas Station,St Louis,16100 Manchester Rd,"Ballwin,  MO 63011"
QuikTrip,Gas Station,City of St Louis,1615 S Kingshighway Blvd,"St Louis,  MO 63110"
QuikTrip,Gas Station,St Louis,1907 Hawkins Rd,"Fenton,  MO 63026"
QuikTrip,Gas Station,St Louis,1923 Bowles Ave,"Fenton,  MO 63026"
QuikTrip,Gas Station,St Louis,2105 N US Highway 67,"Florissant,  MO 63033"
QuikTrip,Gas Station,City of St Louis,2166 Hampton Ave,"St Louis,  MO 63139"
QuikTrip,Gas Station,City of St Louis,2600 Chouteau Ave,"St Louis,  MO 63103"
QuikTrip,Gas Station,St Louis,2621 Woodson Rd,"St Louis,  MO 63114"
QuikTrip,Gas Station,St Louis,2633 S Big Bend Blvd,"St Louis,  MO 63143"
QuikTrip,Gas Station,St Louis,2791 Dunn Rd,"St Louis,  MO 63136"
QuikTrip,Gas Station,City of St Louis,2851 Gravois Ave,"St Louis,  MO 63118"
QuikTrip,Gas Station,St Louis,290 E 4th St,"Eureka,  MO 63025"
QuikTrip,Gas Station,St Louis,3010 S Big Bend Blvd,"St Louis,  MO 63143"
QuikTrip,Gas Station,City of St Louis,3291 S Kingshighway Blvd,"St Louis,  MO 63139"
QuikTrip,Gas Station,St Louis,3475 Lemay Ferry Rd,"St Louis,  MO 63125"
QuikTrip,Gas Station,St Louis,3638 Bayless Ave,"St Louis,  MO 63125"
QuikTrip,Gas Station,City of St Louis,4101 Gravois Ave,"St Louis,  MO 63116"
QuikTrip,Gas Station,St Louis,4435 Telegraph Rd,"St Louis,  MO 63129"
QuikTrip,Gas Station,St Louis,4450 Meramec Bottom Rd,"St Louis,  MO 63129"
QuikTrip,Gas Station,St Louis,5909 Howdershell Rd,"Hazelwood,  MO 63042"
QuikTrip,Gas Station,St Louis,604 Big Bend Rd,"Ballwin,  MO 63021"
QuikTrip,Gas Station,St Louis,6312 S Lindbergh Blvd,"St Louis,  MO 63123"
QuikTrip,Gas Station,St Louis,6805 N Hanley Rd,"St Louis,  MO 63134"
QuikTrip,Gas Station,City of St Louis,6900 Gravois Ave,"St Louis,  MO 63116"
QuikTrip,Gas Station,St Louis,7400 N Lindbergh Blvd,"Hazelwood,  MO 63042"
QuikTrip,Gas Station,St Louis,8000 Watson Rd,"St Louis,  MO 63119"
QuikTrip,Gas Station,St Louis,8583 St Charles Rock Rd,"St Louis,  MO 63114"
QuikTrip,Gas Station,St Louis,8815 Page Ave,"St Louis,  MO 63114"
QuikTrip,Gas Station,City of St Louis,904 S Vandeventer Ave,"St Louis,  MO 63110"
QuikTrip,Gas Station,St Louis,9099 Natural Bridge Rd,"St Louis,  MO 63121"
QuikTrip,Gas Station,St Louis,9101 Gravois Rd,"St Louis,  MO 63123"
QuikTrip,Gas Station,St Louis,9404 Page Ave,"St Louis,  MO 63132"
QuikTrip,Gas Station,St Louis,9951 Big Bend Blvd,"St Louis,  MO 63122"
R & J Brokerage,"Grocery, Local",City of St Louis,4200 Papin St,"St Louis,  MO 63110"
Ralcorp Holdings,Convenience,City of St Louis,800 Market St,"St Louis,  MO 63101"
Ranells Market and Cafe,"Grocery, Local",City of St Louis,3152 Lafayette Ave,"St Louis,  MO 63104"
Raqqa Food Mart,"Grocery, Local",St Louis,352 Chambers Rd,"St Louis,  MO 63137"
Rasch Service Center,Gas Station,St Louis,11149 Manchester Rd,"St Louis,  MO 63122"
Ray's Quik Stop,Convenience,St Louis,9445 Pancho Dr,"St Louis,  MO 63123"
Ready Medical Pharmacy,"Pharmacy, Local",St Louis,13080 Tesson Ferry Rd,"St Louis,  MO 63128"
Red Brick Pizza,Gas Station,St Louis,18 S County Center Way,"St Louis,  MO 63129"
Reem Gas Mart,Gas Station,City of St Louis,4901 Southwest Ave,"St Louis,  MO 63110"
Regal Food One,"Grocery, Local",City of St Louis,1532 Tower Grove Ave,"St Louis,  MO 63110"
Regal Foods,"Grocery, Local",City of St Louis,3852 Virginia Ave,"St Louis,  MO 63118"
Regal Foods,"Grocery, Local",City of St Louis,3971 McRee Ave,"St Louis,  MO 63110"
Regal Market,"Grocery, Local",City of St Louis,2800 N Sarah St,"St Louis,  MO 63115"
Regal Meat Market,"Grocery, Local",City of St Louis,5791 Thekla Ave,"St Louis,  MO 63120"
Rehoboth Pharmacy,"Pharmacy, Local",St Louis,9944 W Florissant Ave,"St Louis,  MO 63136"
Restaurant Depot,"Grocery, Local",City of St Louis,6455 Manchester Ave,"St Louis,  MO 63139"
River City Nutrition,"Grocery, Local",St Louis,833 S Kirkwood Rd,"St Louis,  MO 63122"
RK Market,Convenience,City of St Louis,4600 Delor St,"St Louis,  MO 63116"
RK Market,Convenience,St Louis,7535 S Lindbergh Blvd,"St Louis,  MO 63125"
Road Ranger,Gas Station,St Louis,205 N Highway Dr,"Fenton,  MO 63026"
Road Ranger,Gas Station,St Louis,205 Soccer Park Rd,"Fenton,  MO 63026"
Rock Bottom Wholesale,"Grocery, Local",City of St Louis,1120 Howard St,"St Louis,  MO 63106"
Roger's Produce,"Grocery, Local",St Louis,625 E Lockwood Ave,"St Louis,  MO 63119"
Roha,"Grocery, Local",City of St Louis,5015 Manchester Ave,"St Louis,  MO 63110"
Roughneck Beard Company,Convenience,St Louis,7282 Manchester Rd,"St Louis,  MO 63143"
Royal Food Market,"Grocery, Local",St Louis,10711 Margatehall Dr,"Bridgeton,  MO 63044"
Royal Food Market,"Grocery, Local",St Louis,8516 Airport Rd,"St Louis,  MO 63134"
Ruler,"Grocery, Chain",St Louis,10009 Bellefontaine Rd,"St Louis,  MO 63137"
Ruler Foods,"Grocery, Local",St Louis,11050 St Charles Rock Rd,"St Ann,  MO 63074"
Ruler Foods,"Grocery, Local",City of St Louis,2700 S Grand Blvd,"St Louis,  MO 63118"
S & M Market,"Grocery, Local",City of St Louis,5001 N Kingshighway Blvd,"St Louis,  MO 63115"
S&D Quick Mart,Convenience,St Louis,7201 Natural Bridge Rd,"St Louis,  MO 63121"
Saint Anthony's Retail Pharmacy,"Pharmacy, Local",St Louis,10004 Kennerly Rd,"St Louis,  MO 63128"
Saint Johns Mercy Pharmacy,"Pharmacy, Local",St Louis,12680 Olive Blvd,"St Louis,  MO 63141"
Saint Louis Food Mart,"Grocery, Local",St Louis,1467 Chambers Rd,"St Louis,  MO 63135"
"Saint Louis Halal Meat, Grocery & Foods - Baba's Restaurant","Grocery, Local",St Louis,10276 Page Ave,"St Louis,  MO 63132"
Saint Lukes Pharmacy,"Pharmacy, Local",St Louis,224 S Woods Mill Rd,"Chesterfield,  MO 63017"
Sal Produce,Convenience,St Louis,5471 Langsworth Dr,"St Louis,  MO 63129"
Salam Market,"Grocery, Local",St Louis,14063 Manchester Rd,"Ballwin,  MO 63011"
Salama Market,"Grocery, Local",City of St Louis,3301 Arsenal St,"St Louis,  MO 63118"
Salama Super Market,"Grocery, Local",City of St Louis,1444 N 14th St,"St Louis,  MO 63106"
Salama Supermarket,"Grocery, Local",City of St Louis,1525 Chouteau Ave,"St Louis,  MO 63103"
Salama Supermarket,"Grocery, Local",City of St Louis,4873 St Louis Ave,"St Louis,  MO 63115"
Salamah's,"Grocery, Local",City of St Louis,3901 Shaw Blvd,"St Louis,  MO 63110"
Salamas Market,"Grocery, Local",City of St Louis,4956 St Louis Ave,"St Louis,  MO 63115"
Salume Beddu,"Grocery, Local",City of St Louis,3467 Hampton Ave,"St Louis,  MO 63139"
Sam's Club,"Grocery, Chain",St Louis,10248 Big Bend Blvd,"St Louis,  MO 63122"
Sam's Club,"Grocery, Chain",St Louis,10248 Big Bend Rd,"St Louis,  MO 63122"
Sam's Club,"Grocery, Chain",St Louis,10735 W Florissant Ave,"St Louis,  MO 63136"
Sam's Club,"Grocery, Chain",St Louis,13455 Manchester Rd,"St Louis,  MO 63131"
Sam's Club,"Grocery, Chain",St Louis,196 THF Blvd,"Chesterfield,  MO 63005"
Sam's Club,"Grocery, Chain",St Louis,2100 Maplewood Commons Dr,"St Louis,  MO 63143"
Sam's Club,"Grocery, Chain",St Louis,4512 Lemay Ferry Rd,"St Louis,  MO 63129"
Sam's Meat Market,"Grocery, Local",St Louis,9241 W Florissant Ave,"St Louis,  MO 63136"
Sam's St Louis Packing,"Grocery, Local",City of St Louis,4257 Shreve Ave,"St Louis,  MO 63115"
Sams Foods World Marke,"Grocery, Local",City of St Louis,3900 S Grand Blvd,"St Louis,  MO 63118"
Sams Market,"Grocery, Local",City of St Louis,4501 Margaretta Ave,"St Louis,  MO 63115"
Sappington Automotive,Gas Station,St Louis,11411 Gravois Rd,"St Louis,  MO 63126"
Savalon Market,"Grocery, Local",City of St Louis,5545 S Grand Blvd,"St Louis,  MO 63111"
Save-A-Lot,"Grocery, Chain",St Louis,1001 Majestic Dr,"Fenton,  MO 63026"
Save-A-Lot,"Grocery, Chain",St Louis,10030 W Florissant Ave,"St Louis,  MO 63136"
Save-A-Lot,"Grocery, Chain",St Louis,11977 St Charles Rock Rd,"Bridgeton,  MO 63044"
Save-A-Lot,"Grocery, Chain",St Louis,12958 New Halls Ferry Rd,"Florissant,  MO 63033"
Save-A-Lot,"Grocery, Chain",St Louis,1501 S Florissant Rd,"St Louis,  MO 63121"
Save-A-Lot,"Grocery, Chain",City of St Louis,1601,"St Louis,  MO 63104"
Save-A-Lot,"Grocery, Chain",St Louis,3160 Telegraph Rd,"St Louis,  MO 63125"
Save-A-Lot,"Grocery, Chain",City of St Louis,3427 S Jefferson Ave,"St Louis,  MO 63118"
Save-A-Lot,"Grocery, Chain",City of St Louis,3645 Page Blvd,"St Louis,  MO 63113"
Save-A-Lot,"Grocery, Chain",St Louis,3661 Reavis Barracks Rd,"St Louis,  MO 63125"
Save-A-Lot,"Grocery, Chain",City of St Louis,4324 Loughborough Ave,"St Louis,  MO 63116"
Save-A-Lot,"Grocery, Chain",St Louis,468 N US Highway 67,"Florissant,  MO 63031"
Save-A-Lot,"Grocery, Chain",City of St Louis,5437 Southwest Ave,"St Louis,  MO 63139"
Save-A-Lot,"Grocery, Chain",St Louis,6840 Page Ave,"St Louis,  MO 63133"
Save-A-Lot,"Grocery, Chain",St Louis,8000 St Charles Rock Rd,"St Louis,  MO 63114"
Save-A-Lot,"Grocery, Chain",City of St Louis,8960 Riverview Blvd,"St Louis,  MO 63147"
Save-A-Lot,"Grocery, Chain",St Louis,91 N Oaks Plz,"St Louis,  MO 63121"
Save-A-Lot,"Grocery, Chain",St Louis,9430 Midland Blvd,"St Louis,  MO 63114"
Saveway Food Co.,"Grocery, Local",City of St Louis,5110 N Broadway,"St Louis,  MO 63147"
Savory Deli,"Grocery, Local",City of St Louis,500 N Broadway,"St Louis,  MO 63102"
Sazazza's Specialty Foods,"Grocery, Local",St Louis,148 Millwell Dr,"Maryland Heights,  MO 63043"
Schnucks,"Grocery, Chain",St Louis,10070 Gravois Rd,"St Louis,  MO 63123"
Schnucks,"Grocery, Chain",St Louis,10148 W Florissant Ave,"St Louis,  MO 63136"
Schnucks,"Grocery, Chain",City of St Louis,1020 Loughborough Ave,"St Louis,  MO 63111"
Schnucks,"Grocery, Chain",St Louis,10233 Manchester Rd,"St Louis,  MO 63122"
Schnucks,"Grocery, Chain",St Louis,1027 Claytonia Ter,"St Louis,  MO 63117"
Schnucks,"Grocery, Chain",St Louis,10275 Clayton Rd,"St Louis,  MO 63124"
Schnucks,"Grocery, Chain",City of St Louis,1030 Cass Ave,"St Louis,  MO 63106"
Schnucks,"Grocery, Chain",St Louis,1032,"St Louis,  MO 63125"
Schnucks,"Grocery, Chain",St Louis,10431 St Charles Rock Rd,"St Ann,  MO 63074"
Schnucks,"Grocery, Chain",St Louis,1060 Schnucks Woodsmill Plz,"Chesterfield,  MO 63017"
Schnucks,"Grocery, Chain",St Louis,10622 Baptist Church Rd,"St Louis,  MO 63128"
Schnucks,"Grocery, Chain",St Louis,10634 St Charles Rock Rd,"St Ann,  MO 63074"
Schnucks,"Grocery, Chain",St Louis,10650 Olive Blvd,"St Louis,  MO 63141"
Schnucks,"Grocery, Chain",St Louis,11253 St Charles Rock Rd,"Bridgeton,  MO 63044"
Schnucks,"Grocery, Chain",St Louis,11420 Lackland Rd,"St Louis,  MO 63146"
Schnucks,"Grocery, Chain",St Louis,11550 Page Service Dr,"St Louis,  MO 63146"
Schnucks,"Grocery, Chain",St Louis,1160 Shackelford Rd,"Florissant,  MO 63031"
Schnucks,"Grocery, Chain",St Louis,11945 Manchester Rd,"St Louis,  MO 63131"
Schnucks,"Grocery, Chain",St Louis,1225 N Florissant Rd,"St Louis,  MO 63135"
Schnucks,"Grocery, Chain",St Louis,1225 S Florissant Rd,"St Louis,  MO 63121"
Schnucks,"Grocery, Chain",St Louis,12332 Manchester Rd,"St Louis,  MO 63131"
Schnucks,"Grocery, Chain",St Louis,12756 Olive Blvd,"St Louis,  MO 63141"
Schnucks,"Grocery, Chain",St Louis,1393 Big Bend Crossing Dr,"Valley Park,  MO 63088"
Schnucks,"Grocery, Chain",St Louis,1393 Big Bend Rd,"Ballwin,  MO 63021"
Schnucks,"Grocery, Chain",St Louis,13987 New Halls Ferry Rd,"Florissant,  MO 63033"
Schnucks,"Grocery, Chain",St Louis,141 Hilltown Village Ctr,"Chesterfield,  MO 63017"
Schnucks,"Grocery, Chain",St Louis,1520 S Brentwood Blvd,"St Louis,  MO 63144"
Schnucks,"Grocery, Chain",St Louis,15425 Manchester Rd,"Ballwin,  MO 63011"
Schnucks,"Grocery, Chain",St Louis,16580 Manchester Rd,"Wildwood,  MO 63040"
Schnucks,"Grocery, Chain",St Louis,2030 Dorsett Rd,"Maryland Heights,  MO 63043"
Schnucks,"Grocery, Chain",St Louis,245 E 5th St,"Eureka,  MO 63025"
Schnucks,"Grocery, Chain",St Louis,2511 Kehrs Mill Rd,"Chesterfield,  MO 63017"
Schnucks,"Grocery, Chain",City of St Louis,315 N 9th St,"St Louis,  MO 63101"
Schnucks,"Grocery, Chain",City of St Louis,3430 S Grand Blvd,"St Louis,  MO 63118"
Schnucks,"Grocery, Chain",City of St Louis,3431 Union Blvd,"St Louis,  MO 63115"
Schnucks,"Grocery, Chain",City of St Louis,3915 Watson Rd,"St Louis,  MO 63109"
Schnucks,"Grocery, Chain",City of St Louis,3960 Lindell Blvd,"St Louis,  MO 63108"
Schnucks,"Grocery, Chain",City of St Louis,4171 Lindell Blvd,"St Louis,  MO 63108"
Schnucks,"Grocery, Chain",St Louis,4333 Butler Hill Rd,"St Louis,  MO 63128"
Schnucks,"Grocery, Chain",St Louis,49 N Florissant Rd,"St Louis,  MO 63135"
Schnucks,"Grocery, Chain",City of St Louis,5055 Arsenal St,"St Louis,  MO 63139"
Schnucks,"Grocery, Chain",St Louis,5434 Southfield Ctr,"St Louis,  MO 63123"
Schnucks,"Grocery, Chain",St Louis,5519 Oakville Shopping Ctr,"St Louis,  MO 63129"
Schnucks,"Grocery, Chain",St Louis,5780 S Lindbergh Blvd,"St Louis,  MO 63123"
Schnucks,"Grocery, Chain",St Louis,6600 Clayton Rd,"St Louis,  MO 63117"
Schnucks,"Grocery, Chain",City of St Louis,7057 Chippewa St,"St Louis,  MO 63119"
Schnucks,"Grocery, Chain",City of St Louis,710 N Kingshighway Blvd,"St Louis,  MO 63108"
Schnucks,"Grocery, Chain",St Louis,74 Grandview Plaza Shopping Ctr,"Florissant,  MO 63033"
Schnucks,"Grocery, Chain",City of St Louis,7450 Hampton Ave,"St Louis,  MO 63109"
Schnucks,"Grocery, Chain",St Louis,8037 W Florissant Ave,"St Louis,  MO 63136"
Schnucks,"Grocery, Chain",St Louis,8200 N Lindbergh Blvd,"Florissant,  MO 63031"
Schnucks,"Grocery, Chain",St Louis,8800 Manchester Rd,"St Louis,  MO 63144"
Schnucks,"Grocery, Chain",St Louis,8867 Ladue Rd,"St Louis,  MO 63124"
Schnucks,"Grocery, Chain",St Louis,9070 St Charles Rock Rd,"St Louis,  MO 63114"
Schnucks,"Grocery, Chain",St Louis,9074 Overland Plz,"St Louis,  MO 63114"
Schnucks,"Grocery, Chain",St Louis,9074 Overland Plz,"St Louis,  MO 63114"
Schnucks,"Grocery, Chain",St Louis,9220 Shortline Dr,"St Louis,  MO 63132"
Schnucks,"Grocery, Chain",St Louis,9540 Watson Rd,"St Louis,  MO 63126"
Schnucks,"Grocery, Chain",St Louis,Belle Meade Rd,"St Louis,  MO 63131"
Schnucks,"Grocery, Chain",St Louis,N Woods Mill Rd,"Chesterfield,  MO 63017"
Schnucks Sierra Vista,"Grocery, Local",St Louis,1589 Sierra Vista Plz,"St Louis,  MO 63138"
Schnucks University City Pharmacy,"Grocery, Local",St Louis,6920 Olive Blvd,"St Louis,  MO 63130"
Schreiber Foods,"Grocery, Local",St Louis,18604 Babler Meadows Dr,"Wildwood,  MO 63038"
Schroeter's Roadside Stand,Convenience,St Louis,4676 Meramec Bottom Rd,"St Louis,  MO 63128"
Schunucks Supermarkets Hampton,"Grocery, Local",City of St Louis,60 Hampton Village Plz,"St Louis,  MO 63109"
Scimart,"Grocery, Local",St Louis,655 Leffingwell Ave,"St Louis,  MO 63122"
Scooters Snacks & More,Convenience,City of St Louis,5110 Natural Bridge Ave,"St Louis,  MO 63115"
Seafood City Grocery,"Grocery, Local",St Louis,8020 Olive Blvd,"St Louis,  MO 63130"
Sedra Market,"Grocery, Local",City of St Louis,4002 Shreve Ave,"St Louis,  MO 63115"
Seema Enterprises,"Grocery, Local",St Louis,14238 Manchester Rd,"Ballwin,  MO 63011"
Seema World Travel,"Grocery, Local",St Louis,10635 Page Ave,"St Louis,  MO 63132"
Seni Market,Convenience,St Louis,3153 N Lindbergh Blvd,"Bridgeton,  MO 63044"
Sensient Colors,"Grocery, Local",City of St Louis,2526 Baldwin St,"St Louis,  MO 63106"
Sensient Pharmaceutical Tech,"Grocery, Local",City of St Louis,2515 N Jefferson Ave,"St Louis,  MO 63106"
Seoul Mart,"Grocery, Local",St Louis,140 4 Seasons Shopping Ctr,"Chesterfield,  MO 63017"
Seven Twenty-Five Liquor Mart,Convenience,City of St Louis,725 N Taylor Ave,"St Louis,  MO 63108"
Shapiro's Market,"Grocery, Local",City of St Louis,111 N Newstead Ave,"St Louis,  MO 63108"
Shark Professional Pharmacy,"Pharmacy, Local",St Louis,88 Washington St,"Florissant,  MO 63031"
Shaw Market,"Grocery, Local",City of St Louis,4200 Shaw Blvd,"St Louis,  MO 63110"
Shaw's Coffee,Convenience,City of St Louis,5147 Shaw Ave,"St Louis,  MO 63110"
Shell,Gas Station,St Louis,10701 Page Ave,"St Louis,  MO 63132"
Shell,Gas Station,St Louis,12151 Clayton Rd,"St Louis,  MO 63131"
Shell,Gas Station,City of St Louis,1815 Arsenal St,"St Louis,  MO 63118"
Shell,Gas Station,St Louis,2707 S Big Bend Blvd,"St Louis,  MO 63143"
Shell,Gas Station,St Louis,5215 Lucas and Hunt Rd,"St Louis,  MO 63121"
Shell,Gas Station,City of St Louis,6211 Delmar Blvd,"St Louis,  MO 63130"
Shell,Gas Station,City of St Louis,721 N Tucker Blvd,"St Louis,  MO 63101"
Shell,Gas Station,City of St Louis,8200 S Broadway,"St Louis,  MO 63111"
Shell,Gas Station,St Louis,8835 Natural Bridge Rd,"St Louis,  MO 63121"
Shell,Gas Station,St Louis,9035 Gravois Rd,"St Louis,  MO 63123"
Shell,Gas Station,St Louis,9708 Natural Bridge Rd,"St Louis,  MO 63134"
Shell Gas,Gas Station,St Louis,12804 Manchester Rd,"St Louis,  MO 63131"
Shell Gas,Gas Station,St Louis,14302 Manchester Rd,"Ballwin,  MO 63011"
Shell Oil/Circle K,Gas Station,St Louis,2285 N Highway 141,"Fenton,  MO 63026"
Shell Service Station,Gas Station,St Louis,Wengler Rd,"Pacific,  MO 63069"
Shell Station,Gas Station,City of St Louis,4675 Natural Bridge Ave,"St Louis,  MO 63115"
Sherman Produce,Convenience,City of St Louis,44 Produce Row,"St Louis,  MO 63102"
Sherman Produce Co,"Grocery, Local",City of St Louis,2 Produce Row,"St Louis,  MO 63102"
Shop 'n Save,"Grocery, Chain",St Louis,1032 Lemay Ferry Rd,"St Louis,  MO 63125"
Shop 'n Save,"Grocery, Chain",St Louis,1144 Meramec Station Rd,"Ballwin,  MO 63021"
Shop 'n Save,"Grocery, Chain",St Louis,175 Flower Valley Shopping Ctr,"Florissant,  MO 63033"
Shop 'n Save,"Grocery, Chain",City of St Louis,1865 Gravois Ave,"St Louis,  MO 63104"
Shop 'n Save,"Grocery, Chain",St Louis,196 Mayfair Plaza Shopping Ctr,"Florissant,  MO 63033"
Shop 'n Save,"Grocery, Chain",St Louis,2183 Charbonier Rd,"Florissant,  MO 63031"
Shop 'n Save,"Grocery, Chain",City of St Louis,4447 Natural Bridge Ave,"St Louis,  MO 63115"
Shop 'n Save,"Grocery, Chain",St Louis,45 Gravois Bluffs Plaza Dr,"Fenton,  MO 63026"
Shop 'n Save,"Grocery, Chain",St Louis,9521 Lewis and Clark Blvd,"St Louis,  MO 63136"
Shop N Save,Gas Station,St Louis,10632 St Charles Rock Rd,"St Ann,  MO 63074"
Shop N Save Fuel,Gas Station,St Louis,8970 St Charles Rock Rd,"St Louis,  MO 63114"
Shopping Stop,"Grocery, Local",St Louis,6515 Wydown Blvd,"St Louis,  MO 63105"
Short Stop,"Grocery, Local",St Louis,3072 McKelvey Rd,"Bridgeton,  MO 63044"
Show Me Medicare,"Pharmacy, Local",St Louis,13655 Riverport Dr,"Maryland Heights,  MO 63043"
Shur-Sav Markets,"Grocery, Local",City of St Louis,1301 Union Blvd,"St Louis,  MO 63113"
SIA's Italian Ice,"Grocery, Local",St Louis,12878 Manchester Rd,"St Louis,  MO 63131"
Simon and Sons Produce,Convenience,St Louis,5116 Peyton Place Ct,"St Louis,  MO 63128"
Six Stars Market,"Grocery, Local",City of St Louis,8701 Riverview Blvd,"St Louis,  MO 63147"
Skeeters Frozen Custard,Convenience,St Louis,9622 Lackland Rd,"St Louis,  MO 63114"
Skylink Wireless,Convenience,City of St Louis,5000 Delmar Blvd,"St Louis,  MO 63108"
Slam,Convenience,St Louis,1364 Hudson Hills Dr,"St Louis,  MO 63135"
SLSG Soccer Park,Convenience,St Louis,1 Soccer Park Rd,"Fenton,  MO 63026"
smart Mart,Convenience,St Louis,6811 Howdershell Rd,"Hazelwood,  MO 63042"
Smitty's Food and Drink,"Grocery, Local",St Louis,14876 Clayton Rd,"Chesterfield,  MO 63017"
Smokehouse Market,"Grocery, Local",St Louis,16806 Chesterfield Airport Rd,"Chesterfield,  MO 63005"
Smokers Pitstop Liquor & Tobacco,Convenience,St Louis,550 E Osage St,"Pacific,  MO 63069"
Snac-Pac,"Grocery, Local",City of St Louis,4369 Lee Ave,"St Louis,  MO 63115"
Snax,Convenience,St Louis,7334 St Charles Rock Rd,"St Louis,  MO 63133"
Sole Survivor,Convenience,St Louis,7401 Manchester Rd,"St Louis,  MO 63143"
Soll's Gateway Market,"Grocery, Local",City of St Louis,1206 N Kingshighway Blvd,"St Louis,  MO 63113"
Soulard Spice Shop,"Grocery, Local",City of St Louis,730 Carroll St,"St Louis,  MO 63104"
South Public Market,"Grocery, Local",City of St Louis,7701 S Broadway,"St Louis,  MO 63111"
Southside Discount Market,"Grocery, Local",City of St Louis,5009 Virginia Ave,"St Louis,  MO 63111"
Spanish Like Market,"Grocery, Local",St Louis,11937 Larimore Rd,"St Louis,  MO 63138"
Speedee Oil Change & Tune-Up,Gas Station,St Louis,9945 Watson Rd,"St Louis,  MO 63126"
Speedy Gas,Gas Station,City of St Louis,4206 S Grand Blvd,"St Louis,  MO 63111"
Speedy Gas C49010895,Gas Station,St Louis,Manchester Rd,"Ballwin,  MO 63011"
Spire,Gas Station,City of St Louis,700 Market St,"St Louis,  MO 63101"
Spire Natural Gas Fueling Solutions,Gas Station,St Louis,4231 Cypress Rd,"St Ann,  MO 63074"
SSM RX Express,"Pharmacy, Local",St Louis,12266 Depaul Dr,"Bridgeton,  MO 63044"
St Alexius,"Pharmacy, Local",City of St Louis,3933 S Broadway,"St Louis,  MO 63118"
St John Market,"Grocery, Local",St Louis,3314 Brown Rd,"St Louis,  MO 63114"
St Louis Children's Hospital,"Pharmacy, Local",City of St Louis,1 Childrens Pl,"St Louis,  MO 63110"
St Louis Food Systems,"Grocery, Local",St Louis,18511 Outlet Blvd,"Chesterfield,  MO 63005"
St Louis Hills Pharmacy,"Pharmacy, Local",City of St Louis,4365 Chippewa St,"St Louis,  MO 63116"
St Louis Job Corps Center,Convenience,City of St Louis,4333 Goodfellow Blvd,"St Louis,  MO 63120"
St Louis Parenting & Resources,Convenience,City of St Louis,4322 Wyoming St,"St Louis,  MO 63116"
St Louis Produce Market,"Grocery, Local",City of St Louis,1 Produce Row,"St Louis,  MO 63102"
St. Louis Wholesale Foods,"Grocery, Local",St Louis,1780 Burns Ave,"St Louis,  MO 63132"
Stand,Convenience,City of St Louis,801 Chestnut St,"St Louis,  MO 63101"
Star Grocery,"Grocery, Local",City of St Louis,2733 Cherokee St,"St Louis,  MO 63118"
Star Shop,Gas Station,City of St Louis,3934 S Grand Blvd,"St Louis,  MO 63118"
Starrs,"Grocery, Local",St Louis,1135 S Big Bend Blvd,"St Louis,  MO 63117"
Statscript Pharmacy,"Pharmacy, Local",St Louis,7800 Clayton Rd,"St Louis,  MO 63117"
Stefa Pharmacy,"Pharmacy, Local",City of St Louis,2653 Locust St,"St Louis,  MO 63103"
STL Convention Center,Convenience,City of St Louis,801 Convention Plz,"St Louis,  MO 63101"
STL Mart,"Grocery, Local",City of St Louis,1224 Washington Ave,"St Louis,  MO 63103"
STL Smoke Shop,Convenience,St Louis,8625 Olive Blvd,"St Louis,  MO 63132"
Stlbrothers Market,Convenience,City of St Louis,3301 Minnesota Ave,"St Louis,  MO 63118"
Stop Here Right Quick,Convenience,City of St Louis,3525 St Louis Ave,"St Louis,  MO 63106"
Stop in Market,"Grocery, Local",City of St Louis,4263 W Page Blvd,"St Louis,  MO 63113"
Stop N Go Flowers,Convenience,City of St Louis,2101 Gravois Ave,"St Louis,  MO 63104"
Straub's,"Grocery, Chain",St Louis,13414 Clayton Rd,"St Louis,  MO 63131"
Straub's,"Grocery, Chain",St Louis,211 W Lockwood Ave,"St Louis,  MO 63119"
Straub's,"Grocery, Chain",City of St Louis,302 N Kingshighway Blvd,"St Louis,  MO 63108"
Street Corner,Convenience,St Louis,85 S County Center Way,"St Louis,  MO 63129"
Sugaree Baking,Convenience,City of St Louis,1242 Tamm Ave,"St Louis,  MO 63139"
Sullins Gas & Wash,Gas Station,St Louis,S Brentwood Blvd,"St Louis,  MO 63119"
Summit Produce Kirkwood Farmers Market,"Grocery, Local",St Louis,150 E Argonne Dr,"St Louis,  MO 63122"
Sun Drenched Foods,"Grocery, Local",St Louis,460 Woodlawn Ave,"St Louis,  MO 63119"
Sunce Europa Bakery & Grocery,"Grocery, Local",St Louis,2610 Telegraph Rd,"St Louis,  MO 63125"
Sunshine Food Mart,"Grocery, Local",City of St Louis,2200 S Jefferson Ave,"St Louis,  MO 63104"
Super Valu,"Grocery, Local",St Louis,7100 Hazelwood Ln,"St Louis,  MO 63130"
Supermarket Merchandising & Supply,"Grocery, Local",City of St Louis,5200 Virginia Ave,"St Louis,  MO 63111"
SuperValu,"Grocery, Local",St Louis,10805 Old Halls Ferry Rd,"St Louis,  MO 63136"
SuperValu,"Grocery, Local",St Louis,7355 Manchester Rd,"St Louis,  MO 63143"
Supplement Superstore,Convenience,St Louis,17225 Chesterfield Airport Rd,"Chesterfield,  MO 63005"
Supplement Superstore,Convenience,St Louis,7437 S Lindbergh Blvd,"St Louis,  MO 63125"
Supplement Superstore,"Grocery, Local",St Louis,14004 Manchester Rd,"Ballwin,  MO 63011"
Supplement Superstore,"Grocery, Local",St Louis,699 Gravois Bluffs Blvd,"Fenton,  MO 63026"
Supplement Superstore,"Grocery, Local",St Louis,8184 N Lindbergh Blvd,"Florissant,  MO 63031"
Supplement Superstore,"Grocery, Local",St Louis,8420 Eager Rd,"St Louis,  MO 63144"
Sweet 'c's..Soul' Food,"Grocery, Local",City of St Louis,2812 N Grand Blvd,"St Louis,  MO 63107"
T & P Market,"Grocery, Local",City of St Louis,5900 Minerva Ave,"St Louis,  MO 63112"
T-N-T Groceries,"Grocery, Local",St Louis,6711 St Louis Ave,"St Louis,  MO 63121"
T's Snack Shack,Convenience,City of St Louis,3846 W Florissant Ave,"St Louis,  MO 63107"
Taj Market,"Grocery, Local",City of St Louis,3243 Gravois Ave,"St Louis,  MO 63118"
Tamale Man,"Grocery, Local",St Louis,901 N US Highway 67,"Florissant,  MO 63031"
Target,"Grocery, Chain",St Louis,1042 S Kirkwood Rd,"St Louis,  MO 63122"
Target,"Grocery, Chain",St Louis,12275 St Charles Rock Rd,"Bridgeton,  MO 63044"
Target,"Grocery, Chain",St Louis,1272 Town and Country Crossing Dr,"Chesterfield,  MO 63017"
Target,"Grocery, Chain",St Louis,15025 Manchester Rd,"Ballwin,  MO 63011"
Target,"Grocery, Chain",St Louis,197 Gravois Bluffs Plaza Dr,"Fenton,  MO 63026"
Target,"Grocery, Chain",St Louis,2341 N US Highway 67,"Florissant,  MO 63033"
Target,"Grocery, Chain",St Louis,25 Brentwood Promenade Ct,"St Louis,  MO 63144"
Target,"Grocery, Chain",St Louis,40 THF Blvd,"Chesterfield,  MO 63005"
Target,"Grocery, Chain",St Louis,4250 Rusty Rd,"St Louis,  MO 63128"
Target,"Grocery, Chain",City of St Louis,4255 Hampton Ave,"St Louis,  MO 63109"
Tasty Shack,"Grocery, Local",City of St Louis,3909 Gravois Ave,"St Louis,  MO 63116"
Tawakal Grocery,"Grocery, Local",City of St Louis,3308 Meramec St,"St Louis,  MO 63118"
Taylor's Sausage,"Grocery, Local",City of St Louis,1822 N Grand Blvd,"St Louis,  MO 63106"
Tesson Ferry Market,Convenience,St Louis,11722 Baptist Church Rd,"St Louis,  MO 63128"
The Corner,"Grocery, Local",City of St Louis,2605 Washington Ave,"St Louis,  MO 63103"
The Fudgery,Convenience,City of St Louis,601 Clark Ave,"St Louis,  MO 63102"
Thies Farm & Greenhouse,"Grocery, Local",St Louis,4215 N Hanley Rd,"St Louis,  MO 63121"
Thies Farm and Market,Convenience,St Louis,Creve Coeur Mill Rd,"St Louis,  MO 63146"
Thoele Convenience Store 750,Gas Station,St Louis,6025 Howdershell Rd,"Hazelwood,  MO 63042"
Thomas Coffee Acquisition,Convenience,City of St Louis,922 S Boyle Ave,"St Louis,  MO 63110"
Thomas Prime Food Marketing,"Grocery, Local",St Louis,4284 Rider Trl N,"Earth City,  MO 63045"
Tienda Centro Americana,"Grocery, Local",St Louis,7168 Manchester Rd,"St Louis,  MO 63143"
Tire Mart,Convenience,City of St Louis,1815 Locust St,"St Louis,  MO 63103"
Tocco Foods,"Grocery, Local",City of St Louis,826 E Prairie Ave,"St Louis,  MO 63107"
Tom Jon's,Convenience,City of St Louis,2660 Chouteau Ave,"St Louis,  MO 63103"
Tower Grove Creamery,Convenience,City of St Louis,3101 S Grand Blvd,"St Louis,  MO 63118"
Tower Grove Farmers' Market,Convenience,City of St Louis,3877 Connecticut St,"St Louis,  MO 63116"
Town & Country Pharmacies,"Pharmacy, Local",St Louis,1049 N Clay Ave,"St Louis,  MO 63122"
Trader Joe's,"Grocery, Chain",St Louis,11505 Olive Blvd,"St Louis,  MO 63141"
Trader Joe's,"Grocery, Chain",St Louis,13343 Manchester Rd,"St Louis,  MO 63131"
Trader Joe's,"Grocery, Chain",St Louis,1679 Clarkson Rd,"Chesterfield,  MO 63017"
Trader Joe's,"Grocery, Chain",St Louis,48 Brentwood Promenade Ct,"St Louis,  MO 63144"
Trail Lodge Tea,Convenience,St Louis,9109 Grant Park Dr,"St Louis,  MO 63123"
Trog's Service Station,Gas Station,St Louis,10456 Manchester Rd,"St Louis,  MO 63122"
Twinkle Brews,Convenience,St Louis,929 Jeanerette Dr,"St Louis,  MO 63130"
U-Gas,Gas Station,St Louis,895 Bolger Ct,"Fenton,  MO 63026"
Ulta Beauty,"Grocery, Local",St Louis,121 Highlands Boulevard Dr,"Ballwin,  MO 63011"
Unique Market,"Grocery, Local",St Louis,9641 St Charles Rock Rd,"St Louis,  MO 63114"
United Fruit & Produce,"Grocery, Local",City of St Louis,55 Produce Row,"St Louis,  MO 63102"
United Mart,Gas Station,City of St Louis,4901 Union Blvd,"St Louis,  MO 63115"
United Provisions,"Grocery, Local",City of St Louis,6241 Delmar Blvd,"St Louis,  MO 63130"
Universal Market Plus,"Grocery, Local",City of St Louis,1138 Hodiamont Ave,"St Louis,  MO 63112"
Universal Supermarket,"Grocery, Local",City of St Louis,4330 S Broadway,"St Louis,  MO 63111"
Uptown Market,"Grocery, Local",St Louis,100 Shepley Dr,"St Louis,  MO 63137"
Urban Buds,Convenience,City of St Louis,4736 Tennessee Ave,"St Louis,  MO 63111"
Urban Safety Solutions,Convenience,St Louis,6614 Clayton Rd,"St Louis,  MO 63117"
Urzi's Italian Market,"Grocery, Local",City of St Louis,5430 Southwest Ave,"St Louis,  MO 63139"
US Durum Milling,"Grocery, Local",City of St Louis,7900 Van Buren St,"St Louis,  MO 63111"
US Food and Liquor,"Grocery, Local",St Louis,3167 Ashby Rd,"St Ann,  MO 63074"
US Foods,"Grocery, Local",St Louis,17395 Edison Ave,"Chesterfield,  MO 63005"
USA Halal Meat,"Grocery, Local",St Louis,2925 Lemay Ferry Rd,"St Louis,  MO 63125"
Vaccaro & Sons Produce,"Grocery, Local",City of St Louis,14 Produce Row,"St Louis,  MO 63102"
Valero,Gas Station,St Louis,10201 St Charles Rock Rd,"St Ann,  MO 63074"
Vallentina's Market,"Grocery, Local",City of St Louis,5031 Gravois Ave,"St Louis,  MO 63116"
Vanguard Truck Centers,Gas Station,City of St Louis,2350 Chouteau Ave,"St Louis,  MO 63103"
Vapor Exchange,Convenience,St Louis,6604 Delmar Blvd,"St Louis,  MO 63130"
Veritas,"Grocery, Local",St Louis,15860 Fountain Plaza Dr,"Chesterfield,  MO 63017"
Veteran Dry Goods,Convenience,City of St Louis,5312 Sunshine Dr,"St Louis,  MO 63109"
Vincent's 12th Street Market,"Grocery, Local",City of St Louis,2400 S 12th St,"St Louis,  MO 63104"
Vine Mediterranean Grocery,"Grocery, Local",City of St Louis,3171 S Grand Blvd,"St Louis,  MO 63118"
Virginia Market,"Grocery, Local",St Louis,4011 High Aire Dr,"St Louis,  MO 63125"
Virginia Market,"Grocery, Local",City of St Louis,4661 Virginia Ave,"St Louis,  MO 63111"
Virginia Oil,Gas Station,City of St Louis,3224 Keokuk St,"St Louis,  MO 63118"
Vitamin World,Convenience,St Louis,5555 St Louis Mills Blvd,"Hazelwood,  MO 63042"
Vivianos Festa Italiano,"Grocery, Local",St Louis,62 Fenton Plz,"Fenton,  MO 63026"
Vom Fass,Convenience,St Louis,7314 Manchester Rd,"St Louis,  MO 63143"
Waberi Store,"Grocery, Local",City of St Louis,2724 Cherokee St,"St Louis,  MO 63118"
Wainwright Snack Shop,Convenience,City of St Louis,111 N 7th St,"St Louis,  MO 63101"
Walgreens,"Pharmacy, Chain",St Louis,1 Grasso Plz,"St Louis,  MO 63123"
Walgreens,"Pharmacy, Chain",St Louis,100 Plaza Dr,"Wildwood,  MO 63040"
Walgreens,"Pharmacy, Chain",St Louis,10000 W Florissant Ave,"St Louis,  MO 63136"
Walgreens,"Pharmacy, Chain",St Louis,1001 Bowles Ave,"Fenton,  MO 63026"
Walgreens,"Pharmacy, Chain",St Louis,10500 Saint Charles Rock Rd,"St Ann,  MO 63074"
Walgreens,"Pharmacy, Chain",St Louis,10700 Page Ave,"St Louis,  MO 63132"
Walgreens,"Pharmacy, Chain",St Louis,10941 Olive Blvd,"St Louis,  MO 63141"
Walgreens,"Pharmacy, Chain",St Louis,11404 St Charles Rock Rd,"Bridgeton,  MO 63044"
Walgreens,"Pharmacy, Chain",St Louis,11590 Gravois Rd,"St Louis,  MO 63126"
Walgreens,"Pharmacy, Chain",St Louis,12006 Manchester Rd,"St Louis,  MO 63131"
Walgreens,"Pharmacy, Chain",St Louis,1205 Sulphur Spring Rd,"Ballwin,  MO 63021"
Walgreens,"Pharmacy, Chain",St Louis,12098 Lusher Rd,"St Louis,  MO 63138"
Walgreens,"Pharmacy, Chain",City of St Louis,1225 Union Blvd,"St Louis,  MO 63113"
Walgreens,"Pharmacy, Chain",St Louis,12345 St Charles Rock Rd,"Bridgeton,  MO 63044"
Walgreens,"Pharmacy, Chain",St Louis,12400 Old Halls Ferry Rd,"Florissant,  MO 63033"
Walgreens,"Pharmacy, Chain",St Louis,12509 Dorsett Rd,"Maryland Heights,  MO 63043"
Walgreens,"Pharmacy, Chain",St Louis,12661 Olive Blvd,"St Louis,  MO 63141"
Walgreens,"Pharmacy, Chain",St Louis,1302 Clarkson Clayton Ctr,"Ballwin,  MO 63011"
Walgreens,"Pharmacy, Chain",St Louis,1391 Big Bend Rd,"Ballwin,  MO 63021"
Walgreens,"Pharmacy, Chain",St Louis,13992 Manchester Rd,"Ballwin,  MO 63011"
Walgreens,"Pharmacy, Chain",City of St Louis,1400 N Grand Blvd,"St Louis,  MO 63106"
Walgreens,"Pharmacy, Chain",St Louis,14529 Manchester Rd,"Ballwin,  MO 63011"
Walgreens,"Pharmacy, Chain",St Louis,14950 Clayton Rd,"Chesterfield,  MO 63017"
Walgreens,"Pharmacy, Chain",St Louis,15253 Manchester Rd,"Ballwin,  MO 63011"
Walgreens,"Pharmacy, Chain",City of St Louis,1530 Lafayette Ave,"St Louis,  MO 63104"
Walgreens,"Pharmacy, Chain",St Louis,15390 New Halls Ferry Rd,"Florissant,  MO 63031"
Walgreens,"Pharmacy, Chain",St Louis,16105 Manchester Rd,"Ballwin,  MO 63011"
Walgreens,"Pharmacy, Chain",St Louis,1705 Shackelford Rd,"Florissant,  MO 63031"
Walgreens,"Pharmacy, Chain",St Louis,190 N Florissant Rd,"St Louis,  MO 63135"
Walgreens,"Pharmacy, Chain",St Louis,2 Grandview Plaza Shopping Ctr,"Florissant,  MO 63033"
Walgreens,"Pharmacy, Chain",St Louis,2202 Chambers Rd,"St Louis,  MO 63136"
Walgreens,"Pharmacy, Chain",City of St Louis,2310 McCausland Ave,"St Louis,  MO 63143"
Walgreens,"Pharmacy, Chain",City of St Louis,2340 Hampton Ave,"St Louis,  MO 63139"
Walgreens,"Pharmacy, Chain",St Louis,2401 S Brentwood Blvd,"St Louis,  MO 63144"
Walgreens,"Pharmacy, Chain",St Louis,250 E 4th St,"Eureka,  MO 63025"
Walgreens,"Pharmacy, Chain",St Louis,2700 Telegraph Rd,"St Louis,  MO 63125"
Walgreens,"Pharmacy, Chain",City of St Louis,2933,"St Louis,  MO 63139"
Walgreens,"Pharmacy, Chain",St Louis,3160 N US Highway 67,"Florissant,  MO 63033"
Walgreens,"Pharmacy, Chain",St Louis,3300 Brown Rd,"St Louis,  MO 63114"
Walgreens,"Pharmacy, Chain",City of St Louis,3631 Gravois Ave,"St Louis,  MO 63116"
Walgreens,"Pharmacy, Chain",City of St Louis,3660 Vista Ave,"St Louis,  MO 63110"
Walgreens,"Pharmacy, Chain",City of St Louis,3720 N Kingshighway Blvd,"St Louis,  MO 63115"
Walgreens,"Pharmacy, Chain",City of St Louis,3822 S Kingshighway Blvd,"St Louis,  MO 63109"
Walgreens,"Pharmacy, Chain",City of St Louis,3920 Hampton Ave,"St Louis,  MO 63109"
Walgreens,"Pharmacy, Chain",City of St Louis,4140 S Broadway,"St Louis,  MO 63118"
Walgreens,"Pharmacy, Chain",City of St Louis,4218 Lindell Blvd,"St Louis,  MO 63108"
Walgreens,"Pharmacy, Chain",St Louis,4400 Lemay Ferry Rd,"St Louis,  MO 63129"
Walgreens,"Pharmacy, Chain",St Louis,441 N Kirkwood Rd,"St Louis,  MO 63122"
Walgreens,"Pharmacy, Chain",St Louis,460 N US Highway 67,"Florissant,  MO 63031"
Walgreens,"Pharmacy, Chain",City of St Louis,4925 Southwest Ave,"St Louis,  MO 63110"
Walgreens,"Pharmacy, Chain",St Louis,500 Howdershell Rd,"Florissant,  MO 63031"
Walgreens,"Pharmacy, Chain",St Louis,5050 Lemay Ferry Rd,"St Louis,  MO 63129"
Walgreens,"Pharmacy, Chain",St Louis,5414 Telegraph Rd,"St Louis,  MO 63129"
Walgreens,"Pharmacy, Chain",City of St Louis,5550 S Grand Blvd,"St Louis,  MO 63111"
Walgreens,"Pharmacy, Chain",St Louis,5764 S Lindbergh Blvd,"St Louis,  MO 63123"
Walgreens,"Pharmacy, Chain",St Louis,5790 Lucas and Hunt Rd,"St Louis,  MO 63136"
Walgreens,"Pharmacy, Chain",St Louis,6071 Telegraph Rd,"St Louis,  MO 63129"
Walgreens,"Pharmacy, Chain",City of St Louis,6411 Gravois Ave,"St Louis,  MO 63116"
Walgreens,"Pharmacy, Chain",St Louis,651 Lemay Ferry Rd,"St Louis,  MO 63125"
Walgreens,"Pharmacy, Chain",St Louis,6733 Clayton Rd,"St Louis,  MO 63117"
Walgreens,"Pharmacy, Chain",St Louis,701 Gravois Bluffs Blvd,"Fenton,  MO 63026"
Walgreens,"Pharmacy, Chain",St Louis,7199 Natural Bridge Rd,"St Louis,  MO 63121"
Walgreens,"Pharmacy, Chain",City of St Louis,7339 Gravois Ave,"St Louis,  MO 63116"
Walgreens,"Pharmacy, Chain",St Louis,7398 N Lindbergh Blvd,"Hazelwood,  MO 63042"
Walgreens,"Pharmacy, Chain",St Louis,7501 Olive Blvd,"St Louis,  MO 63130"
Walgreens,"Pharmacy, Chain",St Louis,8390 Delmar Blvd,"St Louis,  MO 63124"
Walgreens,"Pharmacy, Chain",St Louis,8571 Watson Rd,"St Louis,  MO 63119"
Walgreens,"Pharmacy, Chain",St Louis,917 Chesterfield Pkwy E,"Chesterfield,  MO 63017"
Walgreens,"Pharmacy, Chain",St Louis,9285 Halls Ferry Rd,"St Louis,  MO 63136"
Walgreens,"Pharmacy, Chain",St Louis,9320 Lackland Rd,"St Louis,  MO 63114"
Walgreens,"Pharmacy, Chain",St Louis,9395 Olive Blvd,"St Louis,  MO 63132"
Walgreens,"Pharmacy, Chain",St Louis,97 Long Rd,"Chesterfield,  MO 63005"
Walgreens,"Pharmacy, Chain",St Louis,9801 Manchester Rd,"St Louis,  MO 63119"
Walgreens,"Pharmacy, Chain",St Louis,9807 Watson Rd,"St Louis,  MO 63126"
Walgreens,"Pharmacy, Chain",St Louis,9978 Kennerly Rd,"St Louis,  MO 63128"
Walmart,"Grocery, Chain",St Louis,100 THF Blvd,"Chesterfield,  MO 63005"
Walmart,"Grocery, Chain",St Louis,10735 W Florissant Ave,"St Louis,  MO 63136"
Walmart,"Grocery, Chain",St Louis,10741 W Florissant Ave,"St Louis,  MO 63136"
Walmart,"Grocery, Chain",St Louis,11900 St Charles Rock Rd,"Bridgeton,  MO 63044"
Walmart,"Grocery, Chain",St Louis,1202 S Kirkwood Rd,"St Louis,  MO 63122"
Walmart,"Grocery, Chain",St Louis,131 Eureka Towne Center Dr,"Eureka,  MO 63025"
Walmart,"Grocery, Chain",City of St Louis,1391 Hodiamont Ave,"St Louis,  MO 63112"
Walmart,"Grocery, Chain",St Louis,1900 Maplewood Commons Dr,"St Louis,  MO 63143"
Walmart,"Grocery, Chain",St Louis,201 Highlands Boulevard Dr,"Ballwin,  MO 63011"
Walmart,"Grocery, Chain",St Louis,3270 Telegraph Rd,"St Louis,  MO 63125"
Walmart,"Grocery, Chain",St Louis,3390 N US Highway 67,"Florissant,  MO 63033"
Walmart,"Grocery, Chain",St Louis,653 Gravois Bluffs Blvd,"Fenton,  MO 63026"
Walmart,"Grocery, Chain",St Louis,7437 Watson Rd,"St Louis,  MO 63119"
Washington Ave Post,"Grocery, Local",City of St Louis,1315 Washington Ave,"St Louis,  MO 63103"
Waterway Carwash,Gas Station,St Louis,10559 Old Olive St Rd,"St Louis,  MO 63141"
Waterway Carwash,Gas Station,St Louis,11988 Westline Industrial Dr,"St Louis,  MO 63146"
Waterway Gas & Wash,Gas Station,St Louis,15606 Olive Blvd,"Chesterfield,  MO 63017"
We'LL Bring It,"Grocery, Local",St Louis,35 Godfrey Ln,"St Louis,  MO 63135"
Wellston Food Market,"Grocery, Local",St Louis,6250 Page Ave,"St Louis,  MO 63133"
West End Market,"Grocery, Local",City of St Louis,1148 Union Blvd,"St Louis,  MO 63113"
West Florissant Currency Exchange,Gas Station,St Louis,7533 W Florissant Ave,"St Louis,  MO 63136"
West Pine Pharmacy,"Pharmacy, Local",City of St Louis,4401 W Pine Blvd,"St Louis,  MO 63108"
Western Oil,Gas Station,St Louis,14898 Clayton Rd,"Chesterfield,  MO 63017"
Western Oil,Gas Station,St Louis,3473 Rider Trl S,"Earth City,  MO 63045"
Westwood Catering,"Grocery, Local",St Louis,190 N Sappington Rd,"St Louis,  MO 63122"
Whole Foods,"Grocery, Local",St Louis,1160 Town and Country Crossing Dr,"Chesterfield,  MO 63017"
Whole Foods Market,"Grocery, Chain",St Louis,1601 S Brentwood Blvd,"St Louis,  MO 63144"
Whole Foods Market,"Grocery, Chain",City of St Louis,4577 W Pine Blvd,"St Louis,  MO 63108"
William A Straub,"Grocery, Local",St Louis,8282 Forsyth Blvd,"St Louis,  MO 63105"
Williams Pharmacy,"Pharmacy, Local",St Louis,7010 Pershing Ave,"St Louis,  MO 63130"
Wine & Cheese Place,"Grocery, Local",St Louis,457 N New Ballas Rd,"St Louis,  MO 63141"
Wing Hing Trading,"Grocery, Local",St Louis,2020 Woodson Rd,"St Louis,  MO 63114"
Winkelmann,"Pharmacy, Local",City of St Louis,3300 Meramec St,"St Louis,  MO 63118"
Woodson Grocery & Liquor,"Grocery, Local",St Louis,2146 Woodson Rd,"St Louis,  MO 63114"
World News,Convenience,St Louis,4 S Central Ave,"St Louis,  MO 63105"
Worldwide International Food Market,"Grocery, Local",St Louis,7238 N Lindbergh Blvd,"Hazelwood,  MO 63042"
Worldwide International Foods,"Grocery, Local",St Louis,8430 Olive Blvd,"St Louis,  MO 63132"
Wu Oncology Pharmacy,"Pharmacy, Local",City of St Louis,4921 Park View Pl,"St Louis,  MO 63110"
Wu Student Union 2,Convenience,City of St Louis,1 Brookings Dr,"St Louis,  MO 63130"
Wu Student Union 3,Convenience,City of St Louis,700 Rosedale Ave,"St Louis,  MO 63112"
Xpressmart,Convenience,City of St Louis,305 De Baliviere Ave,"St Louis,  MO 63112"
Ya Hala Restaurant,"Grocery, Local",St Louis,12434 St Charles Rock Rd,"Bridgeton,  MO 63044"
Yeatman Market,"Grocery, Local",City of St Louis,4401 Athlone Ave,"St Louis,  MO 63115"
Yeatman Market 2,Convenience,City of St Louis,4300 Lee Ave,"St Louis,  MO 63115"
Yo Mini Mart,Convenience,City of St Louis,1916 Union Blvd,"St Louis,  MO 63113"
Yoshi,Gas Station,City of St Louis,N 9th St,"St Louis,  MO 63101"
Your Corner Market,"Grocery, Local",City of St Louis,6200 Michigan Ave,"St Louis,  MO 63111"
Yours Market,"Grocery, Local",City of St Louis,8005 N Broadway,"St Louis,  MO 63147"
Zuppa's,"Grocery, Local",St Louis,13736 Riverport Dr,"Maryland Heights,  MO 63043"
ZX,Gas Station,St Louis,1220 S Big Bend Blvd,"St Louis,  MO 63117"
