title,category,county,address,address2,zip,address_full
Advance Auto Parts,Auto Parts,St Clair,1604 Camp Jackson Rd,"East St Louis, IL 62206",62206,"1604 Camp Jackson Rd, East St Louis, IL 62206"
Al's Automotive Supply,Auto Parts,St Clair,1217 Camp Jackson Rd,"East St Louis, IL 62206",62206,"1217 Camp Jackson Rd, East St Louis, IL 62206"
All Type Auto Parts,Auto Parts,St Clair,3465 Camp Jackson Rd,"East St Louis, IL 62206",62206,"3465 Camp Jackson Rd, East St Louis, IL 62206"
American Auto Sales & Salvage,Auto Parts,St Clair,2001 Missouri Ave,"East St Louis, IL 62205",62205,"2001 Missouri Ave, East St Louis, IL 62205"
American Mobile Service,Auto Parts,St Clair,1300 Queeny Ave,"East St Louis, IL 62206",62206,"1300 Queeny Ave, East St Louis, IL 62206"
AutoZone,Auto Parts,St Clair,1687 Camp Jackson Rd,"East St Louis, IL 62206",62206,"1687 Camp Jackson Rd, East St Louis, IL 62206"
AutoZone,Auto Parts,St Clair,2615 State St,"East St Louis, IL 62205",62205,"2615 State St, East St Louis, IL 62205"
B Auto Parts,Auto Parts,St Clair,500 Madison Rd,"East St Louis, IL 62201",62201,"500 Madison Rd, East St Louis, IL 62201"
Bob's Auto Parts & Repair,Auto Parts,St Clair,4802 Old Missouri Ave,"East St Louis, IL 62207",62207,"4802 Old Missouri Ave, East St Louis, IL 62207"
Bud's Trailer Repair,Auto Parts,St Clair,6301 St Clair Ave,"East St Louis, IL 62203",62203,"6301 St Clair Ave, East St Louis, IL 62203"
Cahokia Discount Mufflers,Auto Parts,St Clair,2804 Camp Jackson Rd,"East St Louis, IL 62206",62206,"2804 Camp Jackson Rd, East St Louis, IL 62206"
Dynamic Drivetrain Services,Auto Parts,St Clair,1 Twin Lake Dr,"East St Louis, IL 62203",62203,"1 Twin Lake Dr, East St Louis, IL 62203"
Grand Street Auto Parts,Auto Parts,St Clair,4400 Grand St,"East St Louis, IL 62207",62207,"4400 Grand St, East St Louis, IL 62207"
Haven Glass,Auto Parts,St Clair,2224 State St,"East St Louis, IL 62205",62205,"2224 State St, East St Louis, IL 62205"
Long R L & Son Wholesale Motor Parts,Auto Parts,St Clair,1520 Summit Ave,"East St Louis, IL 62205",62205,"1520 Summit Ave, East St Louis, IL 62205"
M & M Tire Service,Auto Parts,St Clair,3204 Camp Jackson Rd,"East St Louis, IL 62206",62206,"3204 Camp Jackson Rd, East St Louis, IL 62206"
Marty's Used Car & Truck Parts,Auto Parts,St Clair,2014 Camp Jackson Rd,"East St Louis, IL 62206",62206,"2014 Camp Jackson Rd, East St Louis, IL 62206"
McKay Auto Parts,Auto Parts,Madison,8201 Collinsville Rd,"East St Louis, IL 62201",62201,"8201 Collinsville Rd, East St Louis, IL 62201"
Mid-States Custom Exhaust,Auto Parts,St Clair,99 Water St,"East St Louis, IL 62206",62206,"99 Water St, East St Louis, IL 62206"
Mudd Duck Auto,Auto Parts,St Clair,7704 Millstadt Rd,"East St Louis, IL 62206",62206,"7704 Millstadt Rd, East St Louis, IL 62206"
O'Reilly Auto Parts,Auto Parts,St Clair,2614 State St,"East St Louis, IL 62205",62205,"2614 State St, East St Louis, IL 62205"
Pick A Part,Auto Parts,St Clair,6111 Bunkum Rd,"East St Louis, IL 62204",62204,"6111 Bunkum Rd, East St Louis, IL 62204"
Speedway Salvage,Auto Parts,St Clair,520 Madison Rd,"East St Louis, IL 62201",62201,"520 Madison Rd, East St Louis, IL 62201"
Stokes Brothers Automatic Transmission,Auto Parts,St Clair,529 Cooper Dr,"East St Louis, IL 62206",62206,"529 Cooper Dr, East St Louis, IL 62206"
Trans-Supply,Auto Parts,St Clair,2100 Summit Ave,"East St Louis, IL 62205",62205,"2100 Summit Ave, East St Louis, IL 62205"
Van Shop,Auto Parts,St Clair,2213 Doris Ave,"East St Louis, IL 62206",62206,"2213 Doris Ave, East St Louis, IL 62206"
Vanmeters Drive Axles & Rebuilders,Auto Parts,St Clair,2714 Camp Jackson Rd,"East St Louis, IL 62206",62206,"2714 Camp Jackson Rd, East St Louis, IL 62206"
Bintu African Hair Braiding,Hair and Beauty,St Clair,1117 State St,"East St Louis, IL 62201",62201,"1117 State St, East St Louis, IL 62201"
Collins Wig Shop,Hair and Beauty,St Clair,223 Collinsville Ave,"East St Louis, IL 62201",62201,"223 Collinsville Ave, East St Louis, IL 62201"
First Choice Barber Shop,Hair and Beauty,St Clair,1008 Camp Jackson Rd,"East St Louis, IL 62206",62206,"1008 Camp Jackson Rd, East St Louis, IL 62206"
Glam,Hair and Beauty,St Clair,809 Park St,"East St Louis, IL 62206",62206,"809 Park St, East St Louis, IL 62206"
Hair Shoppe,Hair and Beauty,St Clair,1026 Camp Jackson Rd,"East St Louis, IL 62206",62206,"1026 Camp Jackson Rd, East St Louis, IL 62206"
Hollywood Beauty Supply 3,Hair and Beauty,St Clair,1040 Camp Jackson Rd,"East St Louis, IL 62206",62206,"1040 Camp Jackson Rd, East St Louis, IL 62206"
Ke'Nique Salon,Hair and Beauty,St Clair,703 Upper Cahokia Rd,"East St Louis, IL 62206",62206,"703 Upper Cahokia Rd, East St Louis, IL 62206"
Latasha Lashes,Hair and Beauty,St Clair,Missouri Ave,"East St Louis, IL 62201",62201,"Missouri Ave, East St Louis, IL 62201"
Ora Kurl Palace,Hair and Beauty,St Clair,510 Missouri Ave,"East St Louis, IL 62201",62201,"510 Missouri Ave, East St Louis, IL 62201"
PEP's Barber & Beauty Salon,Hair and Beauty,St Clair,1751 Ridge Ave,"East St Louis, IL 62205",62205,"1751 Ridge Ave, East St Louis, IL 62205"
Royale Beauty Supplies,Hair and Beauty,St Clair,1004 Camp Jackson Rd,"East St Louis, IL 62206",62206,"1004 Camp Jackson Rd, East St Louis, IL 62206"
Royale Beauty Supplies,Hair and Beauty,St Clair,933 St Louis Ave,"East St Louis, IL 62201",62201,"933 St Louis Ave, East St Louis, IL 62201"
St Elizabeth Temple,Hair and Beauty,St Clair,303 Washington St,"Brooklyn, IL 62059",62059,"303 Washington St, Brooklyn, IL 62059"
Styles by Tyan,Hair and Beauty,St Clair,1709 Henrietta Ave,"East St Louis, IL 62205",62205,"1709 Henrietta Ave, East St Louis, IL 62205"
US Nails,Hair and Beauty,St Clair,1020 Camp Jackson Rd,"East St Louis, IL 62206",62206,"1020 Camp Jackson Rd, East St Louis, IL 62206"
1st Lady's Child Development Center,Childcare,St Clair,5503 N Park Dr,"East St Louis, IL 62204",62204,"5503 N Park Dr, East St Louis, IL 62204"
Busy Bee's Learning Academy,Childcare,St Clair,516 N 12th St,"East St Louis, IL 62201",62201,"516 N 12th St, East St Louis, IL 62201"
Cahokia Head Start Center,Childcare,St Clair,150 Edgar St,"East St Louis, IL 62206",62206,"150 Edgar St, East St Louis, IL 62206"
Catholic Day Care Center,Childcare,St Clair,617 Summit Ave,"East St Louis, IL 62201",62201,"617 Summit Ave, East St Louis, IL 62201"
Delta Child Development Center,Childcare,St Clair,1012 S 15th St,"East St Louis, IL 62207",62207,"1012 S 15th St, East St Louis, IL 62207"
Hamilton Learning Center,Childcare,St Clair,3232 State St,"East St Louis, IL 62205",62205,"3232 State St, East St Louis, IL 62205"
Kiddy Kamp Academy,Childcare,St Clair,6106 State St,"East St Louis, IL 62203",62203,"6106 State St, East St Louis, IL 62203"
Kids of Hope Child Development Center,Childcare,St Clair,516 N 12th St,"East St Louis, IL 62201",62201,"516 N 12th St, East St Louis, IL 62201"
Kids of Hope Child Development Ctr,Childcare,St Clair,4001 State St,"East St Louis, IL 62205",62205,"4001 State St, East St Louis, IL 62205"
Kim's Kids,Childcare,St Clair,1000 Gaty Ave,"East St Louis, IL 62201",62201,"1000 Gaty Ave, East St Louis, IL 62201"
Lessie Bates Davis Adult Day Services,Childcare,St Clair,1045 State St,"East St Louis, IL 62201",62201,"1045 State St, East St Louis, IL 62201"
Lessie Bates Davis Neighborhood House,Childcare,St Clair,1200 N 13th St,"East St Louis, IL 62205",62205,"1200 N 13th St, East St Louis, IL 62205"
Lighthouse Learning Center,Childcare,St Clair,1826 Jerome Ln,"East St Louis, IL 62206",62206,"1826 Jerome Ln, East St Louis, IL 62206"
Lovejoy Head Start Center,Childcare,St Clair,120 6th St,"Brooklyn, IL 62059",62059,"120 6th St, Brooklyn, IL 62059"
Marah's Child Care,Childcare,St Clair,1815 Kansas Ave,"East St Louis, IL 62205",62205,"1815 Kansas Ave, East St Louis, IL 62205"
New Day Recovery Club. Washington Park,Childcare,St Clair,4046 Forest Blvd,"East St Louis, IL 62204",62204,"4046 Forest Blvd, East St Louis, IL 62204"
Powell's Academy,Childcare,St Clair,1205 N 71st St,"East St Louis, IL 62203",62203,"1205 N 71st St, East St Louis, IL 62203"
Powell's Academy,Childcare,St Clair,1206 N 71st St,"East St Louis, IL 62203",62203,"1206 N 71st St, East St Louis, IL 62203"
Rainbow Castle Daycare,Childcare,St Clair,805 Nelson Ave,"East St Louis, IL 62206",62206,"805 Nelson Ave, East St Louis, IL 62206"
Saint Joseph School Head Start,Childcare,St Clair,501 Katherine Dunham Pl,"East St Louis, IL 62201",62201,"501 Katherine Dunham Pl, East St Louis, IL 62201"
Small Steps Learning Center,Childcare,St Clair,1916 Lincoln Ave,"East St Louis, IL 62204",62204,"1916 Lincoln Ave, East St Louis, IL 62204"
Southern Illinois University at Edwardsville,Childcare,St Clair,601 James R Thompson Blvd,"East St Louis, IL 62201",62201,"601 James R Thompson Blvd, East St Louis, IL 62201"
Tweetyann Land,Childcare,St Clair,2640 Market St,"East St Louis, IL 62207",62207,"2640 Market St, East St Louis, IL 62207"
Uni-Pres Kindercottage,Childcare,St Clair,564 Veronica Ave,"East St Louis, IL 62205",62205,"564 Veronica Ave, East St Louis, IL 62205"
Another Level,Convenience,St Clair,600 Martin Luther King Dr,"East St Louis, IL 62201",62201,"600 Martin Luther King Dr, East St Louis, IL 62201"
Big C Convenience,Convenience,St Clair,2720 State St,"East St Louis, IL 62205",62205,"2720 State St, East St Louis, IL 62205"
Casino Queen,Convenience,St Clair,200,"East St Louis, IL 62201",62201,"200, East St Louis, IL 62201"
Crown Mart,Convenience,St Clair,1601 Kingshighway,"East St Louis, IL 62204",62204,"1601 Kingshighway, East St Louis, IL 62204"
Daves Quick Shop,Convenience,St Clair,815 S 15th St,"East St Louis, IL 62207",62207,"815 S 15th St, East St Louis, IL 62207"
Demange Produce,Convenience,St Clair,5750 Pocket Rd,"East St Louis, IL 62205",62205,"5750 Pocket Rd, East St Louis, IL 62205"
East Side Meat Company,Convenience,St Clair,510 Martin Luther King Dr,"East St Louis, IL 62201",62201,"510 Martin Luther King Dr, East St Louis, IL 62201"
G & P Confectionery,Convenience,St Clair,1332 Bond Ave,"East St Louis, IL 62201",62201,"1332 Bond Ave, East St Louis, IL 62201"
Genos Quick Stop,Convenience,St Clair,600 N 16th St,"East St Louis, IL 62205",62205,"600 N 16th St, East St Louis, IL 62205"
In and Out Mini Mart,Convenience,St Clair,906 N 11th St,"East St Louis, IL 62201",62201,"906 N 11th St, East St Louis, IL 62201"
La Esquinita,Convenience,St Clair,8505 Collinsville Rd,"East St Louis, IL 62201",62201,"8505 Collinsville Rd, East St Louis, IL 62201"
La Tiendita Mexican GR,Convenience,St Clair,5110 Collinsville Rd,"East St Louis, IL 62201",62201,"5110 Collinsville Rd, East St Louis, IL 62201"
Mello Freeze,Convenience,St Clair,1437 Bond Ave,"East St Louis, IL 62201",62201,"1437 Bond Ave, East St Louis, IL 62201"
MS Mini Mart,Convenience,St Clair,3903 Waverly Ave,"East St Louis, IL 62204",62204,"3903 Waverly Ave, East St Louis, IL 62204"
Na'Imah's Crea,Convenience,St Clair,2205 Missouri Ave,"East St Louis, IL 62205",62205,"2205 Missouri Ave, East St Louis, IL 62205"
Novacich Meat Market,Convenience,Madison,8401 Collinsville Rd,"East St Louis, IL 62201",62201,"8401 Collinsville Rd, East St Louis, IL 62201"
Paparazzi Piec,Convenience,St Clair,1630 Boismenue Ave,"East St Louis, IL 62207",62207,"1630 Boismenue Ave, East St Louis, IL 62207"
Quick Stop 2,Convenience,St Clair,823 Upper Cahokia Rd,"East St Louis, IL 62206",62206,"823 Upper Cahokia Rd, East St Louis, IL 62206"
Quik Stuff 2,Convenience,St Clair,4983 Bond Ave,"East St Louis, IL 62207",62207,"4983 Bond Ave, East St Louis, IL 62207"
Sri Adi Shakti,Convenience,St Clair,831 Upper Cahokia Rd,"East St Louis, IL 62206",62206,"831 Upper Cahokia Rd, East St Louis, IL 62206"
Star Beauty Supply,Convenience,St Clair,3305 State St,"East St Louis, IL 62205",62205,"3305 State St, East St Louis, IL 62205"
BP,Gas Station,St Clair,1205 Kingshighway,"East St Louis, IL 62204",62204,"1205 Kingshighway, East St Louis, IL 62204"
BP,Gas Station,St Clair,1689 Camp Jackson Rd,"East St Louis, IL 62206",62206,"1689 Camp Jackson Rd, East St Louis, IL 62206"
BP,Gas Station,St Clair,1736 Missouri Ave,"East St Louis, IL 62205",62205,"1736 Missouri Ave, East St Louis, IL 62205"
BP,Gas Station,St Clair,1951 Collinsville Rd,"East St Louis, IL 62201",62201,"1951 Collinsville Rd, East St Louis, IL 62201"
BP,Gas Station,Madison,8407 Collinsville Rd,"East St Louis, IL 62201",62201,"8407 Collinsville Rd, East St Louis, IL 62201"
Conoco,Gas Station,St Clair,599 Water St,"East St Louis, IL 62206",62206,"599 Water St, East St Louis, IL 62206"
Exxon,Gas Station,St Clair,5404 Collinsville Rd,"East St Louis, IL 62201",62201,"5404 Collinsville Rd, East St Louis, IL 62201"
Fostaire Helicopters,Gas Station,St Clair,5600 Vector Dr,"East St Louis, IL 62206",62206,"5600 Vector Dr, East St Louis, IL 62206"
Freddie's Shell Service Center,Gas Station,St Clair,5400 Bunkum Rd,"East St Louis, IL 62204",62204,"5400 Bunkum Rd, East St Louis, IL 62204"
Heroes Market,Gas Station,St Clair,4300 Bunkum Rd,"East St Louis, IL 62204",62204,"4300 Bunkum Rd, East St Louis, IL 62204"
Jet Aviation,Gas Station,St Clair,Mark Allen Dr,"East St Louis, IL 62206",62206,"Mark Allen Dr, East St Louis, IL 62206"
Mobil,Gas Station,St Clair,1441 Kingshighway,"East St Louis, IL 62204",62204,"1441 Kingshighway, East St Louis, IL 62204"
Mobil,Gas Station,St Clair,348 Collinsville Ave,"East St Louis, IL 62201",62201,"348 Collinsville Ave, East St Louis, IL 62201"
Mobil,Gas Station,St Clair,8301 State St,"East St Louis, IL 62203",62203,"8301 State St, East St Louis, IL 62203"
Moto Mart,Gas Station,St Clair,3120 Mississippi Ave,"East St Louis, IL 62206",62206,"3120 Mississippi Ave, East St Louis, IL 62206"
Motomart,Gas Station,St Clair,1117 Camp Jackson Rd,"East St Louis, IL 62206",62206,"1117 Camp Jackson Rd, East St Louis, IL 62206"
Phillips 66,Gas Station,St Clair,2201 Camp Jackson Rd,"East St Louis, IL 62206",62206,"2201 Camp Jackson Rd, East St Louis, IL 62206"
Phillips 66,Gas Station,St Clair,4217 Old Missouri Ave,"East St Louis, IL 62207",62207,"4217 Old Missouri Ave, East St Louis, IL 62207"
Phillips Pipe Line,Gas Station,St Clair,3300 Mississippi Ave,"East St Louis, IL 62206",62206,"3300 Mississippi Ave, East St Louis, IL 62206"
Pilot,Gas Station,St Clair,699 State Route 203,"East St Louis, IL 62201",62201,"699 State Route 203, East St Louis, IL 62201"
Quick Stop,Gas Station,St Clair,2501 Louisiana Blvd,"East St Louis, IL 62205",62205,"2501 Louisiana Blvd, East St Louis, IL 62205"
Quick Stop Food Shop,Gas Station,St Clair,995 Range Ln,"East St Louis, IL 62206",62206,"995 Range Ln, East St Louis, IL 62206"
ZX,Gas Station,St Clair,2447 Bond Ave,"East St Louis, IL 62207",62207,"2447 Bond Ave, East St Louis, IL 62207"
ALDI,"Grocery, Chain",St Clair,1233 Camp Jackson Rd,"East St Louis, IL 62206",62206,"1233 Camp Jackson Rd, East St Louis, IL 62206"
Family Dollar,"Grocery, Chain",St Clair,1022 Camp Jackson Rd,"East St Louis, IL 62206",62206,"1022 Camp Jackson Rd, East St Louis, IL 62206"
Family Dollar,"Grocery, Chain",St Clair,2318 State St,"East St Louis, IL 62205",62205,"2318 State St, East St Louis, IL 62205"
Family Dollar,"Grocery, Chain",St Clair,610 N 89th St,"East St Louis, IL 62203",62203,"610 N 89th St, East St Louis, IL 62203"
Save-A-Lot,"Grocery, Chain",St Clair,10 Vieux Carre Dr,"East St Louis, IL 62203",62203,"10 Vieux Carre Dr, East St Louis, IL 62203"
Save-A-Lot,"Grocery, Chain",St Clair,2600 State St,"East St Louis, IL 62205",62205,"2600 State St, East St Louis, IL 62205"
Schnucks,"Grocery, Chain",St Clair,1615 Camp Jackson Rd,"East St Louis, IL 62206",62206,"1615 Camp Jackson Rd, East St Louis, IL 62206"
Schnucks,"Grocery, Chain",St Clair,2511 State St,"East St Louis, IL 62205",62205,"2511 State St, East St Louis, IL 62205"
Shop 'n Save,"Grocery, Chain",St Clair,1028 Camp Jackson Rd,"East St Louis, IL 62206",62206,"1028 Camp Jackson Rd, East St Louis, IL 62206"
Walmart,"Grocery, Chain",St Clair,1511 Camp Jackson Rd,"East St Louis, IL 62206",62206,"1511 Camp Jackson Rd, East St Louis, IL 62206"
A&S Market,"Grocery, Local",St Clair,1000 State St,"East St Louis, IL 62201",62201,"1000 State St, East St Louis, IL 62201"
AA Cornell Supermarket,"Grocery, Local",St Clair,2439 Bond Ave,"East St Louis, IL 62207",62207,"2439 Bond Ave, East St Louis, IL 62207"
Absopure Water,"Grocery, Local",St Clair,2860 N 45th St,"East St Louis, IL 62201",62201,"2860 N 45th St, East St Louis, IL 62201"
BCL Restaurant Supply,"Grocery, Local",St Clair,1401 Mississippi Ave,"East St Louis, IL 62201",62201,"1401 Mississippi Ave, East St Louis, IL 62201"
Best Stop,"Grocery, Local",St Clair,2001 Camp Jackson Rd,"East St Louis, IL 62206",62206,"2001 Camp Jackson Rd, East St Louis, IL 62206"
Bond Express Market,"Grocery, Local",St Clair,2901 Bond Ave,"East St Louis, IL 62207",62207,"2901 Bond Ave, East St Louis, IL 62207"
Bond Mart,"Grocery, Local",St Clair,1140 Bond Ave,"East St Louis, IL 62201",62201,"1140 Bond Ave, East St Louis, IL 62201"
Center Missouri Market,"Grocery, Local",St Clair,1501 Missouri Ave,"East St Louis, IL 62201",62201,"1501 Missouri Ave, East St Louis, IL 62201"
Country Market,"Grocery, Local",St Clair,140 Racehorse Dr,"East St Louis, IL 62205",62205,"140 Racehorse Dr, East St Louis, IL 62205"
County Line Quick Shop,"Grocery, Local",St Clair,2913 Camp Jackson Rd,"East St Louis, IL 62206",62206,"2913 Camp Jackson Rd, East St Louis, IL 62206"
Crown Food Mart,"Grocery, Local",St Clair,2419 State St,"East St Louis, IL 62205",62205,"2419 State St, East St Louis, IL 62205"
Crown Mart,"Grocery, Local",St Clair,1901 Ridge Ave,"East St Louis, IL 62205",62205,"1901 Ridge Ave, East St Louis, IL 62205"
Dollar General,"Grocery, Local",St Clair,1653 Camp Jackson Rd,"East St Louis, IL 62206",62206,"1653 Camp Jackson Rd, East St Louis, IL 62206"
Eddies Meat Market,"Grocery, Local",St Clair,1230 Kingshighway,"East St Louis, IL 62204",62204,"1230 Kingshighway, East St Louis, IL 62204"
El Ranchito Bar & Grill,"Grocery, Local",St Clair,2565 N 32nd St,"East St Louis, IL 62201",62201,"2565 N 32nd St, East St Louis, IL 62201"
El Serrito,"Grocery, Local",St Clair,5370 Collinsville Rd,"East St Louis, IL 62201",62201,"5370 Collinsville Rd, East St Louis, IL 62201"
Express Mart,"Grocery, Local",St Clair,3901 Waverly Ave,"East St Louis, IL 62204",62204,"3901 Waverly Ave, East St Louis, IL 62204"
Foodland,"Grocery, Local",Madison,5401 Collinsville Rd,"East St Louis, IL 62201",62201,"5401 Collinsville Rd, East St Louis, IL 62201"
Foods for Life,"Grocery, Local",St Clair,2203 Missouri Ave,"East St Louis, IL 62205",62205,"2203 Missouri Ave, East St Louis, IL 62205"
Garden Grill & Grocery,"Grocery, Local",St Clair,7200 State St,"East St Louis, IL 62203",62203,"7200 State St, East St Louis, IL 62203"
Gold Star Front Store,"Grocery, Local",St Clair,6900 Old Missouri Ave,"East St Louis, IL 62207",62207,"6900 Old Missouri Ave, East St Louis, IL 62207"
Heros Market 2,"Grocery, Local",St Clair,3711 Bunkum Rd,"East St Louis, IL 62204",62204,"3711 Bunkum Rd, East St Louis, IL 62204"
Highway 15 Market,"Grocery, Local",St Clair,1503 Missouri Ave,"East St Louis, IL 62201",62201,"1503 Missouri Ave, East St Louis, IL 62201"
Joseph S Humphrey Sr Grocery,"Grocery, Local",St Clair,419 N 81st St,"East St Louis, IL 62203",62203,"419 N 81st St, East St Louis, IL 62203"
M's Mart,"Grocery, Local",St Clair,7 S 15th St,"East St Louis, IL 62207",62207,"7 S 15th St, East St Louis, IL 62207"
Masad Liquor & Grocery,"Grocery, Local",St Clair,3323 Mississippi Ave,"East St Louis, IL 62206",62206,"3323 Mississippi Ave, East St Louis, IL 62206"
Merritt's Tree,"Grocery, Local",St Clair,851 St Cletus Dr,"East St Louis, IL 62206",62206,"851 St Cletus Dr, East St Louis, IL 62206"
Mi Tierra Mexican Store,"Grocery, Local",St Clair,3121 Collinsville Rd,"East St Louis, IL 62201",62201,"3121 Collinsville Rd, East St Louis, IL 62201"
Mike's Market,"Grocery, Local",St Clair,3300 McCasland Ave,"East St Louis, IL 62207",62207,"3300 McCasland Ave, East St Louis, IL 62207"
Mor for Less,"Grocery, Local",St Clair,6122 Forest Blvd,"East St Louis, IL 62204",62204,"6122 Forest Blvd, East St Louis, IL 62204"
N&M Alps,"Grocery, Local",St Clair,800 Upper Cahokia Rd,"East St Louis, IL 62206",62206,"800 Upper Cahokia Rd, East St Louis, IL 62206"
National Noodle,"Grocery, Local",St Clair,1122 State St,"East St Louis, IL 62201",62201,"1122 State St, East St Louis, IL 62201"
Neighbors Marketplace,"Grocery, Local",St Clair,1001 N 15th St,"East St Louis, IL 62205",62205,"1001 N 15th St, East St Louis, IL 62205"
Palace Food Market,"Grocery, Local",St Clair,4705 State St,"East St Louis, IL 62205",62205,"4705 State St, East St Louis, IL 62205"
Pops II,"Grocery, Local",St Clair,1219 Kingshighway,"East St Louis, IL 62204",62204,"1219 Kingshighway, East St Louis, IL 62204"
Q Mart Grocery,"Grocery, Local",St Clair,1616 Camp Jackson Rd,"East St Louis, IL 62206",62206,"1616 Camp Jackson Rd, East St Louis, IL 62206"
Quality Value Mart,"Grocery, Local",St Clair,5851 Bond Ave,"East St Louis, IL 62207",62207,"5851 Bond Ave, East St Louis, IL 62207"
Quick Stop Food,"Grocery, Local",St Clair,5819 State St,"East St Louis, IL 62203",62203,"5819 State St, East St Louis, IL 62203"
Quik Stuff Mini Mart,"Grocery, Local",St Clair,2555 Caseyville Ave,"East St Louis, IL 62204",62204,"2555 Caseyville Ave, East St Louis, IL 62204"
Route 3 Liquor & Fuel,"Grocery, Local",St Clair,2400 Mississippi Ave,"East St Louis, IL 62201",62201,"2400 Mississippi Ave, East St Louis, IL 62201"
Shopwise,"Grocery, Local",St Clair,4715 Caseyville Ave,"East St Louis, IL 62204",62204,"4715 Caseyville Ave, East St Louis, IL 62204"
South End Meat Market,"Grocery, Local",St Clair,1901 Central Ave,"East St Louis, IL 62207",62207,"1901 Central Ave, East St Louis, IL 62207"
St Clair Food Market,"Grocery, Local",St Clair,3793 St Clair Ave,"East St Louis, IL 62205",62205,"3793 St Clair Ave, East St Louis, IL 62205"
Switzer Foods & Supplies,"Grocery, Local",St Clair,575 N 20th St,"East St Louis, IL 62205",62205,"575 N 20th St, East St Louis, IL 62205"
Tienda El Maguey,"Grocery, Local",St Clair,8402 Collinsville Rd,"East St Louis, IL 62201",62201,"8402 Collinsville Rd, East St Louis, IL 62201"
Washington Park Market,"Grocery, Local",St Clair,4412 Bunkum Rd,"East St Louis, IL 62204",62204,"4412 Bunkum Rd, East St Louis, IL 62204"
We Shop 4 U Delivery,"Grocery, Local",St Clair,118 Circle Creek Ln,"East St Louis, IL 62206",62206,"118 Circle Creek Ln, East St Louis, IL 62206"
Amp 1 Thomas Terry Apts.,Public Housing,St. Clair,600 S 6th St,"Brooklyn, IL 62059",62059,"600 S 6th St Brooklyn, IL 62059"
Amp 3 Ernest Smith Sr. Apts.,Public Housing,St. Clair,4701 Bates St,"Centreville, IL 62207",62207,"4701 Bates St Centreville, IL 62207"
Central City Apartments,Public Housing,St. Clair,1404A Walter St,"East Saint Louis, IL 62205",62205,"1404A Walter St East Saint Louis, IL 62205"
John Deshields Homes,Public Housing,St. Clair,1235 McCasland Ave,"E St Louis, IL 62201",62201,"1235 McCasland Ave E St Louis, IL 62201"
Orr-Weathers Apts,Public Housing,St. Clair,1008 Division Ave,"E St Louis, IL 62201",62201,"1008 Division Ave E St Louis, IL 62201"
Orr-Weathers Apts,Public Housing,St. Clair,1400 Missouri Ave,"E St Louis, IL 62201",62201,"1400 Missouri Ave E St Louis, IL 62201"
Roosevelt Homes,Public Housing,St. Clair,1328 N 44th St,"East Saint Louis, IL 62204",62204,"1328 N 44th St East Saint Louis, IL 62204"
Samuel Gompers Homes,Public Housing,St. Clair,450 N 6th St,"E St Louis, IL 62201",62201,"450 N 6th St E St Louis, IL 62201"
Turnkey-Scattered Sites,Public Housing,St. Clair,1832 Russell Ave,"East Saint Louis, IL 62207",62207,"1832 Russell Ave East Saint Louis, IL 62207"
Bridgedale Cleaners,Laundry,St Clair,2608 Camp Jackson Rd,"East St Louis, IL 62206",62206,"2608 Camp Jackson Rd, East St Louis, IL 62206"
Bunkum Road Laundry,Laundry,St Clair,4125 Bunkum Rd,"East St Louis, IL 62204",62204,"4125 Bunkum Rd, East St Louis, IL 62204"
Bynum Carpet Cleaning,Laundry,St Clair,7201 James Ct,"East St Louis, IL 62203",62203,"7201 James Ct, East St Louis, IL 62203"
Cahokia Village Laundry,Laundry,St Clair,1018 Camp Jackson Rd,"East St Louis, IL 62206",62206,"1018 Camp Jackson Rd, East St Louis, IL 62206"
EZ Clean Laundry Mat,Laundry,St Clair,1327 Missouri Ave,"East St Louis, IL 62201",62201,"1327 Missouri Ave, East St Louis, IL 62201"
Le Ann Furs Suede & Leather Services,Laundry,St Clair,334 Collinsville Ave,"East St Louis, IL 62201",62201,"334 Collinsville Ave, East St Louis, IL 62201"
New York Cleaners,Laundry,St Clair,2200 Bond Ave,"East St Louis, IL 62207",62207,"2200 Bond Ave, East St Louis, IL 62207"
New York Cleaners,Laundry,St Clair,5900 State St,"East St Louis, IL 62203",62203,"5900 State St, East St Louis, IL 62203"
Penny Wash Laundromat,Laundry,Madison,5703 Collinsville Rd,"East St Louis, IL 62201",62201,"5703 Collinsville Rd, East St Louis, IL 62201"
Pride Cleaning & Restoration,Laundry,St Clair,4822 McCasland Ave,"East St Louis, IL 62207",62207,"4822 McCasland Ave, East St Louis, IL 62207"
Pure Clean,Laundry,St Clair,1621 N 51st St,"East St Louis, IL 62204",62204,"1621 N 51st St, East St Louis, IL 62204"
Speedy Cleaners,Laundry,St Clair,309 N 9th St,"East St Louis, IL 62201",62201,"309 N 9th St, East St Louis, IL 62201"
Allen's Packaged Liquor,Liquor Store,St Clair,1820 E Broadway,"East St Louis, IL 62205",62205,"1820 E Broadway, East St Louis, IL 62205"
Bar That Sit on Bond,Liquor Store,St Clair,4301 Bond Ave,"East St Louis, IL 62207",62207,"4301 Bond Ave, East St Louis, IL 62207"
C & H,Liquor Store,St Clair,1301 N 15th St,"East St Louis, IL 62205",62205,"1301 N 15th St, East St Louis, IL 62205"
Express Market,Liquor Store,St Clair,1436 Piggott Ave,"East St Louis, IL 62201",62201,"1436 Piggott Ave, East St Louis, IL 62201"
Express Stop,Liquor Store,St Clair,2201 State St,"East St Louis, IL 62205",62205,"2201 State St, East St Louis, IL 62205"
Moe's Liquor,Liquor Store,St Clair,1601 Kingshighway,"East St Louis, IL 62204",62204,"1601 Kingshighway, East St Louis, IL 62204"
One Stop Liquor,Liquor Store,St Clair,2500 St Clair Ave,"East St Louis, IL 62205",62205,"2500 St Clair Ave, East St Louis, IL 62205"
Pops,Liquor Store,St Clair,1032 Bond Ave,"East St Louis, IL 62201",62201,"1032 Bond Ave, East St Louis, IL 62201"
Pops Liquor,Liquor Store,St Clair,4607 Bond Ave,"East St Louis, IL 62207",62207,"4607 Bond Ave, East St Louis, IL 62207"
Rainbow Liquor Mart,Liquor Store,St Clair,4510 State St,"East St Louis, IL 62205",62205,"4510 State St, East St Louis, IL 62205"
Regal Package Liquor,Liquor Store,St Clair,1805 State St,"East St Louis, IL 62205",62205,"1805 State St, East St Louis, IL 62205"
Riff's Package Liquor,Liquor Store,St Clair,506 N 27th St,"East St Louis, IL 62205",62205,"506 N 27th St, East St Louis, IL 62205"
Riverside Liquor,Liquor Store,St Clair,3800 Bunkum Rd,"East St Louis, IL 62204",62204,"3800 Bunkum Rd, East St Louis, IL 62204"
South End Quick Stop,Liquor Store,St Clair,815 S 15th St,"East St Louis, IL 62207",62207,"815 S 15th St, East St Louis, IL 62207"
Gas Station,Miscellaneous,St. Clair,306 Riverpark Drive,"East St. Louis IL, 62201",62201,"306 Riverpark Drive, East St. Louis IL, 62201"
Food Lovers Grill,Miscellaneous,St. Clair,515 Martin Luther King Drive,"East St. Louis IL, 62201",62201,"515 Martin Luther King Drive, East St. Louis IL, 62201"
McDonalds,Miscellaneous,St. Clair,588 N 24th St,"East St. Louis IL, 62205",62205,"588 N 24th St, East St. Louis IL, 62205"
Church's Chicken,Miscellaneous,St. Clair,5520 Caseyville Ave,"Washington Park IL, 62204",62204,"5520 Caseyville Ave, Washington Park IL, 62204"
Griffin Homes,Miscellaneous,St. Clair,2500 Lincoln Ave,"East St. Louis IL, 62204",62204,"2500 Lincoln Ave, East St. Louis IL, 62204"
Dollars Today,Payday Loan,St Clair,1325 Camp Jackson Rd,"East St Louis, IL 62206",62206,"1325 Camp Jackson Rd, East St Louis, IL 62206"
First Payday Loans,Payday Loan,St Clair,1238 Camp Jackson Rd,"East St Louis, IL 62206",62206,"1238 Camp Jackson Rd, East St Louis, IL 62206"
Lendnation,Payday Loan,St Clair,1238 Camp Jackson Rd,"East St Louis, IL 62206",62206,"1238 Camp Jackson Rd, East St Louis, IL 62206"
Titlemax,Payday Loan,St Clair,1301 Camp Jackson Rd,"East St Louis, IL 62206",62206,"1301 Camp Jackson Rd, East St Louis, IL 62206"
Medicine Shoppe,"Pharmacy, Chain",St Clair,817 Upper Cahokia Rd,"East St Louis, IL 62206",62206,"817 Upper Cahokia Rd, East St Louis, IL 62206"
Walgreens,"Pharmacy, Chain",St Clair,1201 Camp Jackson Rd,"East St Louis, IL 62206",62206,"1201 Camp Jackson Rd, East St Louis, IL 62206"
Walgreens,"Pharmacy, Chain",St Clair,2510 State St,"East St Louis, IL 62205",62205,"2510 State St, East St Louis, IL 62205"
Health Mart Pharmacy,"Pharmacy, Local",St Clair,2007 Camp Jackson Rd,"East St Louis, IL 62206",62206,"2007 Camp Jackson Rd, East St Louis, IL 62206"
Medicate Central Pharmacy,"Pharmacy, Local",St Clair,1833 Kingshighway,"East St Louis, IL 62204",62204,"1833 Kingshighway, East St Louis, IL 62204"
Medicate Pharmacy,"Pharmacy, Local",St Clair,100 N 8th St,"East St Louis, IL 62201",62201,"100 N 8th St, East St Louis, IL 62201"
Medicate Pharmacy,"Pharmacy, Local",St Clair,5869 Bond Ave,"East St Louis, IL 62207",62207,"5869 Bond Ave, East St Louis, IL 62207"
Washington Park Pharmacy,"Pharmacy, Local",St Clair,6104 Forest Blvd,"East St Louis, IL 62204",62204,"6104 Forest Blvd, East St Louis, IL 62204"
Washington Park Pharmacy,"Pharmacy, Local",St Clair,6104 Forest Blvd,"East St Louis, IL 62204",62204,"6104 Forest Blvd, East St Louis, IL 62204"
